categorie,official_name,longitude,latitude,address_txt,opening_hours,insee,id
france_travail,France Travail - Mulhouse - Doller,7.325628199,47.7655818,5 rue de Quimper 68100 Mulhouse,Mo-Fr 08:30-12:30,68224,013993c0-85c2-48b6-8911-58baad91502c
france_travail,France Travail - Angoulême - Saint-Martial,0.1611283,45.6489866,7 rue Jean-Fougerat 16000 Angoulême Cedex,Mo-Fr 08:30-12:30,16015,01f49b5c-8d9b-448b-b7fb-3e9530909ba3
france_travail,France Travail - Paris - 11e arrondissement - Beaumarchais,2.36991299,48.8598079,11 rue Pelée 75011 Paris,Mo-Th 09:00-13:15; Fr 09:00-12:00,75111,02bb7f9c-af67-4bfa-b602-45ece0fa9cb7
france_travail,France Travail - Bayonne,-1.486173,43.49646,42 boulevard du Bab 64100 Bayonne,Mo-Fr 08:30-12:30,64102,02cce1a5-f7c1-4cd1-b67c-32403a59e3c3
france_travail,France Travail - Corbeil-Essonnes,2.4848873,48.6119892,14 quai Jacques-Bourgoin 91100 Corbeil-Essonnes,Mo-Th 09:00-13:15; Fr 09:00-12:00,91174,02e51199-aa9a-435d-9c97-54be15a75c4c
france_travail,France Travail - Chalon - Nord,4.861898,46.800252,19 avenue John-Fitzgerald-Kennedy 71100 Chalon-sur-Saône,Mo-Fr 08:30-12:30,71076,04b3fcce-3d7a-4040-932b-dff70a98e826
france_travail,France Travail - Elbeuf,1.0043178,49.2854741,39 rue Poussin 76500 Elbeuf Cedex,Mo-Fr 08:30-12:30,76231,05f2b733-7010-4473-8e01-ee1321f7cc19
france_travail,France Travail - Lille - République,3.05968,50.6331279,121 boulevard de la Liberté 59000 Lille,Mo-Th 08:30-12:45; Fr 09:00-12:00,59350,0622448a-aac1-4357-a0b6-dbfdb17b6c31
france_travail,France Travail - Lormont,-0.5182007,44.876407,4 rue Romain-Rolland 33310 Lormont Cedex,Mo-Fr 08:30-12:30,33249,06683094-103e-4084-932b-72ff9ed0fc58
france_travail,France Travail - Aéroportuaire - Roissy-Charles-de-Gaulle,2.5230305,48.9940943,5 rue du Cercle 95700 Roissy-en-France Cedex,Mo-Th 09:00-13:15; Fr 09:00-12:00,95527,066cdef9-1315-4868-9333-602abc75f010
france_travail,France Travail - Colmar - Lacarre,7.3559056,48.0871597,45 rue de la Fecht 68000 Colmar,Mo-Fr 08:30-12:30,68066,06a1e86c-0e18-4ff5-a9f4-a9a400043178
france_travail,France Travail - Roussillon,4.80443109999999,45.3634405,8 rue Anatole-France 38150 Roussillon Cedex,Mo-Fr 08:30-12:30,38344,06e2cd44-9960-4297-90ab-b9c6d435fd66
france_travail,France Travail - Gisors,1.7648238,49.282877,30 rue Riegelsberg 27140 Gisors,Mo-Fr 08:30-12:30,27284,071eb598-d06e-41f1-811b-b19ee2f85c9f
france_travail,France Travail - Beaune,4.844512,47.009217,7 rue Buffon 21200 Beaune Cedex,Mo-Fr 08:30-12:30,21054,07d68c38-7e99-43af-a10f-dc0c0fe62172
france_travail,France Travail - Langres,5.3266359,47.8489637,29 avenue du Général-de-Gaulle 52200 Langres Cedex,Mo-Fr 08:30-12:30,52269,087cec28-3d36-4522-949f-2c5cb8bc74dd
france_travail,France Travail - Boucau,-1.4390432,43.5679114,Impasse des Lilas 64340 Boucau,Mo-Fr 08:30-12:30,64140,0935a45d-60c1-4365-b392-5a133c25747f
france_travail,France Travail - Toulouse - Borderouge,1.4525875,43.6436073,6 rue Françoise-d'Eaubonne 31000 Toulouse,Mo-Fr 08:30-12:30,31555,0aa5bdc1-cfce-4eeb-8e60-56456781e270
france_travail,France Travail - Toulon - Carnot,5.9255221,43.1265341,47 avenue Lazare-Carnot 83000 Toulon,Mo-Fr 08:30-12:30,83137,0aac1a3e-bc2d-4d0d-a35e-de991cce63df
france_travail,France Travail - Vaulx-en-Velin,4.91907779,45.7811735,1 bis avenue Salvador-Allende 69120 Vaulx-en-Velin Cedex,Mo-Fr 08:30-12:30,69256,0b184e71-8c02-4938-885d-fc9b8087f5c8
france_travail,France Travail - Fourmies,4.0488288,50.0165073,8 rue de la Savonnerie 59610 Fourmies,Mo-Th 08:30-12:45; Fr 09:00-12:00,59249,0b1cd994-0b06-4557-9fe0-4198ad3dee09
france_travail,France Travail - Les Ulis,2.1691962,48.6828383,2 avenue d'Alsace 91940 Les Ulis,Mo-Th 09:00-13:15; Fr 09:00-12:00,91692,0b4ec607-f209-45f0-92b7-d585f5da004e
france_travail,France Travail - Issoire,3.2427004999999554,45.5442623,47 rue du 8-Mai 63500 Issoire Cedex,Mo-Fr 08:30-12:30,63178,0b550fc1-192c-4b8e-a454-0bfcf2722bda
france_travail,France Travail - Villefranche-de-Lauragais,1.718634,43.399115,7 place des Cerisiers 31290 Villefranche-de-Lauragais,Mo-Fr 08:30-12:30,31582,0bab729d-b6bf-4891-912d-4e98f5d169cd
france_travail,France Travail - Montereau-Fault-Yonne,2.957897699,48.3845797,8 rue Edmond-Fortin 77130 Montereau-Fault-Yonne,Mo-Th 09:00-13:15; Fr 09:00-12:00,77305,0bba9740-2cd9-4d10-874d-8945c421411e
france_travail,France Travail - Nontron,0.6605315,45.5253873,Place Paul-Bert 24300 Nontron,Mo-Fr 08:30-12:30,24311,0c39a124-0713-4dec-b491-ed3afd9730d8
france_travail,France Travail - Gonesse,2.4559841,48.9822268,10 rue Berthelot 95500 Gonesse,Mo-Th 09:00-13:15; Fr 09:00-12:00,95277,0cb35435-b255-4a9b-8f66-1e8655f5c1fe
france_travail,France Travail - Cherbourg - Provinces,-1.634504,49.626541,2 rue de Touraine 50130 Cherbourg-en-Cotentin,Mo-Fr 08:30-12:30,50129,0d581b48-c700-4811-9f9d-87a8e4a70a6b
france_travail,France Travail - Saint-Junien,0.9048253,45.8906432,2 avenue Anatole-France 87200 Saint-Junien Cedex,Mo-Fr 08:30-12:30,87154,0d86674c-d563-46d7-869d-c2ba73392bb7
france_travail,France Travail - Bordeaux - Mériadeck,-0.576144,44.8373682,1 terrasse Front-du-Médoc 33000 Bordeaux Cedex,Mo-Fr 08:30-12:30,33063,0e3dfb4c-53cc-4d78-8a94-6b4a4c374f41
france_travail,France Travail - Saint-Joseph,55.621133999999984,-21.3765632,40 rue du Général-de-Gaulle 97480 Saint-Joseph,Mo-Fr 07:30-11:30; We 07:30-13:00; Th-Fr 07:30-11:30,97412,0e69b667-3d20-4238-98e3-ddefc09ddbab
france_travail,France Travail - Briey,5.9420487,49.2428598,2 rue de la Filature 54150 Briey Cedex,Mo-Fr 08:30-12:30,54099,0e9ec8c1-9325-4972-bca6-cc6bd9e99d92
france_travail,France Travail - Luxeuil,6.3733555,47.8157337,1 rue Bourgeline 70300 Luxeuil-les-Bains,Mo-Fr 08:30-12:30,70311,0f0054e6-22e4-4416-9061-fcb0faf8bec2
france_travail,France Travail - Forbach - Carrefour-Europe,6.8984319,49.1859375,1 rue du 18e-Chasseur 57600 Forbach Cedex,Mo-Fr 08:30-12:30,57227,107dd788-5970-4cbe-a0f0-6e4bd5e4ba63
france_travail,France Travail - Blagnac,1.3767879,43.6450248,11 mail Louis-Aragon 31700 Blagnac,Mo-Fr 08:30-12:30,31069,10969ad7-8b4b-4d2a-9644-b46f17cb7249
france_travail,France Travail - Fontaine,5.69567949,45.1912793,26 rue de la Liberté 38600 Fontaine Cedex,Mo-Fr 08:30-12:30,38169,10fd6092-acf7-4687-97b5-8532f864052c
france_travail,France Travail - Pont-de-Claix,5.6976627,45.123309,1 avenue du Maréchal-Juin 38800 Le Pont-de-Claix Cedex,Mo-Fr 08:30-12:30,38317,11594dd1-f80f-4b94-a44c-214fe6800c95
france_travail,France Travail - Gardanne,5.449801,43.519578,Rue Jules-Ferry 13120 Gardanne,Mo-Fr 08:30-12:30,13041,11757fa0-f46a-432d-9969-f28472b5b0b0
france_travail,France Travail - Castelnaudary,1.9519876,43.3196972,11 boulevard du Général-Lapasset 11400 Castelnaudary,Mo-Fr 08:30-12:30,11076,11b14e98-5f83-47d8-85a0-549ea2ace6be
france_travail,France Travail - Parthenay,-0.2482249,46.6453581,13 boulevard Edgar-Quinet 79200 Parthenay Cedex,Mo-Fr 08:30-12:30,79202,129af3a4-7bcd-4ec3-905a-d1e36adf34e2
france_travail,France Travail - Parentis,-1.070813600000065,44.3531122,113 allée Malichecq 40160 Parentis-en-Born,Mo-Fr 08:30-12:30,40217,136c619b-f591-47c0-be5d-7615de547cc2
france_travail,France Travail - Saint-Éloy,2.8349007,46.1608054,6 rue des Bayons 63700 Saint-Éloy-les-Mines,Mo-Fr 08:30-12:30,63338,1399a078-5d69-4893-9377-d42aeed8913e
france_travail,France Travail - Lyon - Scènes-et-Images,4.87491,45.77295,41 A rue Colin 69100 Villeurbanne,Mo-Fr 08:30-12:30,69266,13bc1f35-dbda-4339-b99e-701e572c158d
france_travail,France Travail - Cannes,7.024118,43.5552807,Allée Hélène-Boucher 06210 Mandelieu-la-Napoule,Mo-Fr 08:30-12:30,06029,1422a144-89fa-4e7a-b5a6-2368277c5d74
france_travail,France Travail - Lyon - Bollier,4.8318601,45.7346756,63 rue André-Bollier 69007 Lyon,Mo-Fr 08:30-12:30,69387,1483697c-2765-45d2-b17e-1b0b3c0ad06f
france_travail,France Travail - Palaiseau,2.2488352,48.7173638,9 rue Édouard-Branly 91120 Palaiseau,Mo-Th 09:00-13:30; Fr 09:00-12:00,91477,14bdcf50-fe45-478c-9794-1db201720284
france_travail,France Travail - Aix-les-Bains,5.90920579,45.6905541,128 boulevard du Président-Wilson 73100 Aix-les-Bains Cedex,Mo-Fr 08:30-12:30,73008,14ee1c74-a19f-4e85-82b9-9ff2770601c9
france_travail,France Travail - Caen - Beaulieu,-0.398487,49.185937,2 rue Nicolas-Oresme 14000 Caen Cedex 4,Mo-Fr 08:30-12:30,14118,152e5d20-8288-4ee9-88cc-618de81aaad6
france_travail,France Travail - Angers - La-Roseraie,-0.5620149000000083,47.4455409,5 rue Henri-Bergson 49000 Angers,Mo-Fr 08:30-12:30,49007,15319814-91b9-4b97-a3c9-42ef15d6a496
france_travail,France Travail - Fort-de-France - Kerlys,-61.0504262,14.6114044,Rue de Kerlys 97200 Fort-de-France Cedex,Mo-Fr 07:30-12:00,97209,1589b367-c042-4060-971f-b4df03b7197d
france_travail,France Travail - Loudun,0.0819028,47.0091991,Rue des Aubuies 86200 Loudun,Mo-Fr 08:30-12:30,86137,15b33f94-1e3f-4890-8092-7caecd903bca
france_travail,France Travail - Strasbourg - Pont-Matthis,7.7352072,48.5778177,2 rue Gustave-Adolphe-Hirn 67000 Strasbourg,Mo-Fr 08:30-12:30,67482,15f2b0ca-4fb5-45d0-b134-68830126dd3e
france_travail,France Travail - Hénin-Beaumont,2.9343994,50.4295786,91 rue de la Perche 62110 Hénin-Beaumont,Mo-Th 08:30-12:45; Fr 09:00-12:00,62427,16321c03-d0fb-4c49-b035-58b63ec2b600
france_travail,France Travail - Carpentras,5.0449294,44.0593309,158 allée des Tilleuls 84200 Carpentras,Mo-Fr 08:30-12:30,84031,16326b3b-4087-48a7-afea-322cb81f03ff
france_travail,France Travail - Avallon,3.916829,47.491398,62 rue de Lyon 89200 Avallon,Mo-Fr 08:30-12:30,89025,1664c1d4-3ced-43a0-964a-d69e58b73786
france_travail,France Travail - Saint-Étienne - Terrasse,4.37806399,45.4636674,12 allée des Artilleurs 42000 Saint-Étienne Cedex 1,Mo-Fr 08:30-12:30,42218,175a07c1-7eec-4392-8dc2-c7dffa304e36
france_travail,France Travail - Corte,9.14985660000002,42.3102334,34 cours Paoli 20250 Corte,Mo-Th 08:30-12:30; Fr 08:30-11:30,2B096,17aa7cc2-ee93-46de-82e5-71180371de00
france_travail,France Travail - Oullins-Pierre-Bénite,4.80996779,45.7203688,Oullins 18 Grande rue 69600 Oullins-Pierre-Bénite Cedex,Mo-Fr 08:30-12:30,69149,182ffe95-be81-49eb-bb97-e1774a3e12a0
france_travail,France Travail - Handipass,2.38273789,48.8641824,3 rue des Nanettes 75011 Paris,Mo-Th 09:00-13:15; Fr 09:00-12:00,75111,18d3ff14-a653-4dfa-ae06-b33dcf00df29
france_travail,France Travail - Évreux - Delaune,1.159293,49.005783,6 rue Auguste-Delaune 27000 Évreux Cedex,Mo-Fr 08:30-12:30,27229,195be204-d1d3-45ec-bf85-226f492f59a0
france_travail,France Travail - Pe Mamoudzou - Kaweni,45.2278,-12.7806,90 route nationale 1 97600 Mamoudzou,Mo-Tu 07:30-16:00; We 07:30-13:00; Th 07:30-16:00; Fr 07:30-11:30,97611,1a312e72-c773-4b05-bc64-f48d4b19aeaf
france_travail,France Travail - Bordeaux - Bastide,-0.5556836,44.8375672,4 rue René-Buthaud 33000 Bordeaux Cedex,Mo-Fr 08:30-12:30,33063,1b04effb-d6d3-48ed-9f55-4c5ce0dae7af
france_travail,France Travail - Hayange,6.0628525,49.3318585,13 rue de la Marne 57240 Hayange Cedex,Mo-Fr 08:30-12:30,57306,1b2c827a-52bc-4f0f-86a8-02de3b94662b
france_travail,France Travail - Decazeville,2.2510881,44.5596012,Avenue du 10-Août 12300 Decazeville,Mo-Fr 08:30-12:30,12089,1b76ef67-a30c-4649-883c-3ecbc8dd07c3
france_travail,France Travail - Sarreguemines,7.070622,49.1090447,42 rue Poincaré 57200 Sarreguemines Cedex,Mo-Fr 08:30-12:30,57631,1b888680-b993-4ecd-982e-bd4b883a10e9
france_travail,France Travail - Saint-Laurent-du-Maroni,-54.030833,5.495556,1 allée des Ibis 97320 Saint-Laurent-du-Maroni,Mo 07:30-13:30; Tu-We 07:30-12:30; Th 07:30-13:30; Fr 07:30-12:30,97311,1b9a4ec9-a4d4-4694-8a7d-df70828c5b5f
france_travail,France Travail - Dreux,1.370889,48.736134,1 rue Pierre-Semard 28100 Dreux Cedex,Mo-Fr 08:45-12:45,28134,1be24b21-e01e-4fe3-a09c-4b1d577757eb
france_travail,France Travail - Méru,2.12402329,49.2311224,6 rue du 8-Mai-1945 60114 Méru Cedex,Mo-Fr 08:30-12:30,60395,1c3f3432-f2af-4612-9568-e3c8c16f8365
france_travail,France Travail - Chalon - Centre,4.8448222,46.7806699,TSA  27 avenue Georges-Pompidou 71100 Chalon-sur-Saône Cedex,Mo-Fr 08:30-12:30,71076,1c4021f3-ff2e-4371-b551-c4ef4711477d
france_travail,France Travail - Montluçon - Sud,2.6083009,46.3454174,51 avenue du Général-de-Gaulle 03100 Montluçon Cedex,Mo-Fr 08:30-12:30,03185,1c435d67-b210-4ef2-8d52-1b6327f06dbd
france_travail,France Travail - Juvisy-sur-Orge,2.3713366,48.6958478,83 avenue de la Cour-de-France 91260 Juvisy-sur-Orge,Mo-Th 09:00-14:00; Fr 09:00-12:00,91326,1cd0dbf2-09bf-4e20-97e9-f2cf5aed43b2
france_travail,France Travail - La Tour-du-Pin,5.44038709,45.5662479,8 rue Pierre-Vincendon 38110 La Tour-du-Pin,Mo-Fr 08:30-12:30,38509,1cd9fc07-fb03-4fbb-85ab-24d362c7af65
france_travail,France Travail - Crest,5.010542,44.735109,4 avenue Félix-Rozier 26400 Crest Cedex,Mo-Fr 08:30-12:30,26108,1ce7efde-4c48-4eee-a025-306950173cd8
france_travail,France Travail - Saint-Astier,0.527413799999977,45.1490428,Boulevard Pierre-Mallebay 24110 Saint-Astier,Mo-Fr 08:30-12:30,24372,1d4777b7-0c1e-4e3f-9fbf-383e569a2dcf
france_travail,France Travail - Lourdes,-0.0395955,43.0982503,22 avenue du Maréchal-Joffre 65100 Lourdes,Mo-Fr 08:30-12:30,65286,1d7e8e33-5104-4124-96dc-2c46ea3b6ea3
france_travail,France Travail - Lorient - Ville,-3.3883017,47.7555154,2 rue Alice-Coleno 56100 Lorient Cedex,Mo-Fr 08:30-12:30,56121,1dc0282b-86a5-4d61-b6a4-26ea9c75b57d
france_travail,France Travail - Le Mans - Gare,0.1861841,47.9940098,18 rue Pierre-Félix-Delarue 72000 Le Mans,Mo-Fr 08:30-12:30,72181,1deca385-9bb4-4001-a047-81f70fd80048
france_travail,France Travail - Metz - Gare,6.1735433,49.1107064,3 ter rue Gambetta 57000 Metz,Mo-Fr 08:30-12:30,57463,1ded105a-3d24-4fe1-9921-d4f6f82c0924
france_travail,France Travail - Paris - 6e et 14e arrondissements - Jean-Moulin,2.3248595,48.8261174,9 rue Friant 75014 Paris,Mo-Th 09:00-13:15; Fr 09:00-12:00,75114,1e24e7c5-b177-44e5-99ce-361b0dbb240e
france_travail,France Travail - Agde,3.4803318,43.3011212,82 chemin de Janin 34300 Agde,Mo-Fr 08:30-12:30,34003,1e5b31df-fd4b-4dc8-8f5b-e92e9d646a70
france_travail,France Travail - Lyon - Vaise,4.8012615,45.7687837,CP 20316  29 avenue Joannes-Masset 69009 Lyon Cedex 09,Mo-Fr 08:30-12:30,69389,1f09b69b-90af-488c-95ea-cd64878a0ec7
france_travail,France Travail - Avesnelles,3.92222909,50.1158814,20 route de Haut-Lieu 59440 Avesnelles,Mo-Th 08:30-12:45; Fr 09:00-12:00,59036,1f4198e6-4b8e-4f09-b289-bc4b05c4143f
france_travail,France Travail - Barentin,0.9588533,49.5404328,200 rue Denis-Papin 76360 Barentin,Mo-Fr 08:30-12:30,76057,1f72a073-2dce-4fe1-9f27-88f0dae3edd6
france_travail,France Travail - Pontault-Combault,2.6275748,48.799068,50 rue du Pré-des-Aulnes 77340 Pontault-Combault,Mo-Th 09:00-13:15; Fr 09:00-12:00,77373,1fbf14ce-35f9-41ac-b604-381284f9e147
france_travail,France Travail - Marseille - Blancarde,5.406496,43.296232,20 place de la Gare-de-la-Blancarde 13005 Marseille Cedex 5,Mo-Fr 08:30-12:30,13205,1fd02e39-485a-4c20-a73d-54e8594f98c4
france_travail,France Travail - Villeurbanne,4.8756053,45.7628288,41 rue Colin 69100 Villeurbanne Cedex,Mo-Fr 08:30-12:30,69266,2024e17b-df1f-4b13-91fc-06fe332f83c6
france_travail,France Travail - Troyes - Romain-Rolland,4.0839453,48.2718834,107 avenue Édouard-Herriot 10000 Troyes Cedex,Mo-Fr 08:30-12:30,10387,20655cfe-4162-470f-b637-ef00a54eadd2
france_travail,France Travail - Montreuil-sous-Bois,2.43655,48.8570114,7 rue Kléber 93100 Montreuil,Mo-Th 09:00-13:15; Fr 09:00-12:00,93048,20e22858-93eb-4c2d-9dfc-57f2df68b2c8
france_travail,France Travail - Montdidier,2.5883108,49.6461736,8 rue de Marthe 80500 Montdidier,Mo-Fr 08:30-12:30,80561,21b4d59b-c878-41e9-b289-08fa9bcc8ad7
france_travail,France Travail - Melle,-0.125129,46.227615,3 rue des Petits-Champs 79500 Saint-Léger-de-la-Martinière,Mo-Fr 08:30-12:30,79174,21c500da-4356-4cd5-8b5a-8d0839f0e249
france_travail,France Travail - Bapaume,2.8518315,50.1055533,6 rue de Douai 62450 Bapaume Cedex,Mo-Th 08:30-12:45; Fr 09:00-12:00,62080,228acf22-4d21-47ff-895f-e22bca886596
france_travail,France Travail - Saint-Pierre-d'Oléron,-1.3057086,45.936854,10 ter lotissement du Moulin-du-Coivre 17310 Saint-Pierre-d'Oléron,Mo-Fr 08:30-12:30,17385,22f40a27-016e-48fd-8768-1fb33646625b
france_travail,France Travail - Lens - Gare,2.824005,50.429323,48 rue Jean-Létienne 62300 Lens,Mo-Th 08:30-12:45; Fr 09:00-12:00,62498,23017ff6-384b-4840-bfb2-ee92882dff73
france_travail,France Travail - Limoges - Leclerc,1.2612784,45.8476485,135 avenue Général-Leclerc 87000 Limoges Cedex 2,Mo-Fr 08:30-12:30,87085,234168b1-03d3-4765-bc7b-7d6759c8d432
france_travail,France Travail - Baie-Mahault,-61.58820000000003,16.2537,Rond-point Destrellan   97122 Baie-Mahault,Mo 07:30-12:00; Tu-We 07:30-13:15; Th 07:30-13:00; Fr 07:30-11:15,97103,234c652f-3bb5-4632-aed0-1fb71da0f113
france_travail,France Travail - Cholet,-0.8694579,47.0483873,24 rue du Carteron 49300 Cholet,Mo-Fr 08:30-12:30,49099,23b36bb9-d5c8-462b-ae23-7f767a631293
france_travail,France Travail - Chessy - Val-d'Europe,2.7740032,48.8567438,27 place d'Ariane 77700 Chessy,Mo-Th 09:00-13:15; Fr 09:00-12:00,77449,241c4dbb-84a8-4229-9471-2c2f4d12860a
france_travail,France Travail - Andrézieux-Bouthéon,4.28073749,45.5303364,Rond-point Auguste-Colonna   42160 Andrézieux-Bouthéon Cedex,Mo-Fr 08:30-12:30,42005,243d7569-66a1-42b0-8c61-b7bebce101de
france_travail,France Travail - Autun,4.2996096,46.9587717,Rue Eugène-Chevalier 71400 Autun Cedex,Mo-Fr 08:30-12:30,71014,24aa2976-6bba-4751-9306-76f4773afca1
france_travail,France Travail - Garges-lès-Gonesse,2.4159392,48.9740477,36 avenue Frédéric-Joliot-Curie 95140 Garges-lès-Gonesse,Mo-Th 09:00-13:15; Fr 09:00-12:00,95268,250b32bc-2382-4711-80ef-65da9fa4c127
france_travail,France Travail - Nevers,3.145753,46.992226,5 bis rue du 13e-de-Ligne 58000 Nevers,Mo-Fr 08:30-12:30,58194,25195a5e-fb46-4c74-881c-b223f880a08a
france_travail,France Travail - Montélimar,4.7528125,44.5681167,8 rue Léon-Blum 26200 Montélimar Cedex,Mo-Fr 08:30-12:30,26198,25ab098b-49ba-4057-94c4-a87a934bfb98
france_travail,France Travail - Arras,2.7338726,50.3023734,2 rue de la Symphorine 62000 Arras,Mo-Th 08:30-12:45; Fr 09:00-12:00,62041,27570e8a-307c-4275-8d73-d4661f621685
france_travail,France Travail - Villenave-d'Ornon,-0.572641,44.7957933,1 rue Saint-Jean 33140 Villenave-d'Ornon,Mo-Fr 08:30-12:30,33550,27cec4f0-833d-4f54-9cc5-94a378aff52d
france_travail,France Travail - Yvetot,0.7739902,49.6143998,3 avenue Micheline-Ostermeyer 76190 Yvetot,Mo-Fr 08:30-12:30,76758,27de2032-5431-401e-be7e-3cbbcb471242
france_travail,France Travail - Fréjus,6.743744,43.4190879,1196 boulevard de la Mer 83600 Fréjus,Mo-Fr 08:30-12:30,83061,27dfa97f-fe10-47e5-bebe-4a2f652741ec
france_travail,France Travail - Guyancourt,2.0546343,48.785531,3 avenue du 8-Mai-1945 78280 Guyancourt,Mo-Th 09:00-13:15; Fr 09:00-12:00,78297,280caf27-9d2a-4936-a032-d5a92129365d
france_travail,France Travail - Marignane,5.2013375,43.4170969,1 avenue Jacqueline-Auriol 13700 Marignane,Mo-Fr 08:30-12:30,13054,2834bb99-9b09-4c85-8860-9b87aeaf7ea1
france_travail,France Travail - La Rochelle - Lagord,-1.1452062,46.1899692,7 rue du Bois-d'Hure 17140 Lagord,Mo-Fr 08:30-12:30,17200,284ac69b-60b2-489b-9626-a8d0ef83f181
france_travail,France Travail - Saint-Fons,4.8619111,45.7123424,61 rue Mathieu-Dussurgey 69190 Saint-Fons Cedex,Mo-Fr 08:30-12:30,69199,28619947-eda2-4703-b634-4e756a11e46e
france_travail,France Travail - Brest - Iroise,-4.5237128,48.3890403,530 avenue de Tallinn 29200 Brest Cedex 2,Mo-Fr 08:30-12:30,29019,289ba165-b42e-4862-b4fe-60d3d8873c98
france_travail,France Travail - Montpellier - Cévennes,3.8257793,43.6168672,1460 rue du Pilory 34000 Montpellier,Mo-Fr 08:30-12:30,34172,28b066b6-928a-4580-bb38-78059347a284
france_travail,France Travail - Abbeville,1.8657862,50.1004808,11 rue Paul-Vimereu 80100 Abbeville Cedex,Mo-Fr 08:30-12:30,80001,28e2d374-0f3e-4c16-b2e6-5629bf696728
france_travail,France Travail - Ajaccio,8.759843,41.936955,Avenue du Mont-Thabor 20000 Ajaccio Cedex 9,Mo-Fr 08:30-12:30,2A004,297dc35d-7b2d-4ec8-9c24-80d3736c482f
france_travail,France Travail - Romilly-sur-Seine,3.7224436,48.5047014,32 rue Milford-Haven 10100 Romilly-sur-Seine Cedex,Mo-Fr 08:30-12:30,10323,29d051c2-b2d7-4c2b-9225-5c38681d2abe
france_travail,France Travail - Marseille - Carré-Gabriel,5.382403,43.325247,31 boulevard Charles-Moretti 13014 Marseille,Mo-Fr 08:30-12:30,13214,29f2f225-910f-4353-be04-d3bf3d6ef50b
france_travail,France Travail - Rennes - Est,-1.629234,48.096893,22 rue du Bignon 35000 Rennes Cedex,Mo-Fr 08:30-12:30,35238,2a1e5438-2c18-4a94-b55a-b2254ba7f716
france_travail,France Travail - Montpellier - Castelnau,3.9116234,43.6283262,400 avenue Marcel-Dassault 34170 Castelnau-le-Lez,Mo-Fr 08:30-12:30,34057,2aec6c42-f81f-409c-b9db-a7a0ee8a9eab
france_travail,France Travail - Granville,-1.56558730000006,48.8345615,204 rue Paul-de-Gibon 50400 Granville,Mo-Fr 08:30-12:30,50218,2b7a5321-fb09-4796-af40-d21957768e7a
france_travail,France Travail - Muret,1.3305229,43.4728372,187 avenue Jacques-Douzans 31600 Muret,Mo-Fr 08:30-12:30,31395,2b83245f-6ae8-482b-886a-90f9271960fb
france_travail,France Travail - Sevran,2.5279846,48.9462714,2 rue Paul-Langevin 93270 Sevran,Mo-Th 09:00-13:15; Fr 09:00-12:00,93071,2bcd40e9-ab99-4738-ac65-017ce469b3b2
france_travail,France Travail - Portet-sur-Garonne,1.3992643,43.5207662,6 rue de l'Hôtel-de-Ville 31120 Portet-sur-Garonne,Mo-Fr 08:30-12:30,31433,2be95e3a-7f0c-4d8b-8d48-f9d53b7ddac5
france_travail,France Travail - Condom,0.3757332,43.9505679,2 bis rue Lamartine 32100 Condom,Mo-Fr 08:30-12:30,32107,2c3ebca6-0038-4d21-b535-40268d7007d3
france_travail,France Travail - Lingolsheim,7.69412699999998,48.5570313,14 allée des Foulons 67380 Lingolsheim,Mo-Fr 08:30-12:30,67267,2c43eb53-beeb-45cd-ba6c-11190a866cfd
france_travail,France Travail - Louviers,1.1710515,49.2105282,2 boulevard du Maréchal-Joffre 27400 Louviers Cedex,Mo-Fr 08:30-12:30,27375,2d46286c-4b85-4650-b0c9-a4d504cf8464
france_travail,France Travail - Figeac,2.0218228,44.6090441,6 avenue Bernard-Fontanges 46100 Figeac Cedex,Mo-Fr 08:30-12:30,46102,2d628d16-a4a5-4a6e-8650-9618469b5f0d
france_travail,France Travail - Saint-Vincent-de-Tyrosse,-1.303338,43.660771,2 allée des Pyrénées 40230 Saint-Vincent-de-Tyrosse,Mo-Fr 08:30-12:30,40284,2e90759b-7eae-440a-bdf4-c6a78914d5a5
france_travail,France Travail - Mulhouse - Verriers,7.3020792,47.7503049,4 rue des Verriers 68100 Mulhouse,Mo-Fr 08:30-12:30,68224,2eb2c421-2011-43d5-81e3-d35515486828
france_travail,France Travail - Châtillon-sur-Seine,4.563853999999992,47.875857,ZAC Actipôle   21400 Châtillon-sur-Seine,Mo-Fr 08:30-12:30,21154,2fd5dc7a-1f84-46af-91d0-2f2686d82dbf
france_travail,France Travail - Aubagne,5.571594,43.28973,88 rue de la République 13400 Aubagne,Mo-Fr 08:30-12:30,13005,3005e2c6-644e-4a1f-bff9-91f5003f3238
france_travail,France Travail - Audincourt,6.8424655,47.4813576,1 rue Aimé-Césaire 25400 Audincourt Cedex,Mo-Fr 08:30-12:30,25031,302ba1d3-91bb-46a7-b63d-759dbca2e75c
france_travail,France Travail - Pont-à-Mousson,6.10719,48.886306,158 rue Pierre-Adt 54700 Pont-à-Mousson Cedex,Mo-Fr 08:30-12:30,54431,3064baf4-b94a-44a5-9443-a61f934e5c9c
france_travail,France Travail - Lanester,-3.3492814,47.7624331,42 avenue François-Billoux 56600 Lanester Cedex,Mo-Fr 08:30-12:30,56098,306e9994-87b4-434a-9a68-5edc87ad4675
france_travail,France Travail - Albertville,6.39050429,45.6678304,11 avenue des Chasseurs-Alpins 73200 Albertville Cedex,Mo-Fr 08:30-12:30,73011,308e86d6-cb08-4373-a630-5fee952ef427
france_travail,France Travail - Brignoles,6.061187,43.40655,269 avenue Adjudant-Chef-Broquier 83170 Brignoles Cedex,Mo-Fr 08:30-12:30,83023,30c1cac1-c80b-4970-bf77-763a4cba47c6
france_travail,France Travail - La Flèche,-0.096799,47.705932,3 rue Irène-Joliot-Curie 72200 La Flèche,Mo-Fr 08:30-12:30,72154,31954653-943a-4760-b1d2-3ad62b71a55a
france_travail,France Travail - Thonon-les-Bains,6.48224019,46.3695789,22 rue Jean-Blanchard 74200 Thonon-les-Bains Cedex,Mo-Fr 08:30-12:30,74281,31b75394-093e-494d-b65c-a31b79cd31d5
france_travail,France Travail - Tournon-sur-Rhône,4.8317978,45.053642,123 impasse Olympe-de-Gouges 07300 Tournon-sur-Rhône Cedex,Mo-Fr 08:30-12:30,07324,328a8a47-24f4-4c84-8502-e7cbf3cf604f
france_travail,France Travail - Coutances,-1.4461,49.0416283,103 rue Geoffroy-de-Montbray 50200 Coutances,Mo-Fr 08:30-12:30,50147,3294b8e3-1aba-4051-aafd-210b9285dfc0
france_travail,France Travail - Péronne - Albert,2.94106329,49.9329259,4 bis avenue Danicourt 80200 Péronne Cedex,Mo-Fr 08:30-12:30,80620,32a20615-8144-4c69-9b29-536e276fedcb
france_travail,France Travail - Nice - Nord,7.2638119,43.7151371,98 avenue Saint-Lambert 06000 Nice,Mo-Fr 08:30-12:30,06088,32da5a07-f0bd-4eff-9915-c811588e509b
france_travail,France Travail - Marseille - Mourepiane,5.337223,43.361328,Rue Albert-Cohen 13016 Marseille,Mo-Fr 08:30-12:30,13216,33439706-cf62-41a4-88c8-a37189c06af4
france_travail,France Travail - Lons,-0.395738,43.2939838,2 rue Pierre-Gilles-de-Gennes 64140 Lons Cedex,Mo-Fr 08:30-12:30,64348,33ca744f-28b6-4fee-88db-ba5f76c674d6
france_travail,France Travail - Marconnelle,2.0276194,50.3682127,484 route de Mouriez 62140 Marconnelle,Mo-Th 08:30-12:45; Fr 09:00-12:00,62447,33dcd883-44b2-4a6f-a379-23167ac08fb7
france_travail,France Travail - Olonne-sur-Mer,-1.76190270000006,46.5161499,Olonne-sur-Mer  100 rue de la Belle-Olonnaise 85340 Les Sables d'Olonne,Mo-Fr 08:30-12:30,85194,345e4ef0-e8e2-4b3c-8304-02a5008a6e86
france_travail,France Travail - Lorient - Marine,-3.3893833,47.7357697,9 rue François-Toullec 56100 Lorient Cedex,Mo-Fr 08:30-12:30,56121,350e4209-519f-4972-88a2-4a861d26ac3a
france_travail,France Travail - Le Havre - Souday,0.1168306,49.4942434,17 rue Paul-Souday 76600 Le Havre,Mo-Fr 08:30-12:30,76351,350f224c-696b-4ebf-96f9-971d39b8f5f1
france_travail,France Travail - Forbach - Ville-Haute,6.9037602,49.1867251,1 rue Jean-Monnet 57600 Forbach Cedex,Mo-Fr 08:30-12:30,57227,3574f5f1-905a-4903-9896-17aa0b83213d
france_travail,France Travail - Saint-Raphaël,6.7911366,43.4371674,386 voie Denis-Papin 83700 Saint-Raphaël,Mo-Fr 08:30-12:30,83061,35a7a96e-b656-4835-82c8-0e28dc06ce0f
france_travail,France Travail - Concarneau,-3.9062882,47.9011879,17 rue Aimé-Césaire 29900 Concarneau,Mo-Fr 08:30-12:30,29039,35af1487-3811-40df-a775-1a8cd251293b
france_travail,France Travail - Bagnols-sur-Cèze,4.61291970000002,44.166794,520 avenue Roger-Salengro 30200 Bagnols-sur-Cèze,Mo-Fr 08:30-12:30,30028,35b4047e-281a-4c4a-b968-0a779d011b4b
france_travail,France Travail - Verneuil-sur-Avre,0.9321762,48.7405834,135 rue Porte-de-Mortagne 27130 Verneuil-sur-Avre,Mo-Fr 08:30-12:30,27679,362b3a7a-7a8a-48bf-be55-58fcb8bf0680
france_travail,France Travail - Saint-Brieuc - Sud,-2.7477344999999787,48.4981826,3 rue Jean-Grenier 22000 Saint-Brieuc Cedex 1,Mo-Fr 08:30-12:30,22278,366580f3-b9e5-444e-a829-c54c3a3470f7
france_travail,France Travail - Hérouville,-0.3332465,49.2029709,8 place de l'Europe 14200 Hérouville-Saint-Clair Cedex,Mo-Fr 08:30-12:30,14327,3743d5a4-0e6d-4277-8f30-fe5c615621cc
france_travail,France Travail - Vernouillet,1.3412383,48.7296367,3 avenue Marc-Chappey 28500 Vernouillet,Mo-Fr 08:45-12:45,28404,3749aaa2-3f1e-4002-bebc-f395a6b45e12
france_travail,France Travail - Toulouse - La Plaine,1.4926106,43.5828024,1 impasse René-Couzinet 31000 Toulouse,Mo-Fr 08:30-12:30,31555,37507a0b-9e16-4c9f-8020-2b2a6d3f24c1
france_travail,France Travail - Vénissieux,4.868105,45.70749,27 avenue de la République 69200 Vénissieux,Mo-Fr 08:45-12:45,69259,3814a1fb-c7e2-4081-88f5-e88c5329f85a
france_travail,France Travail - Hem,3.19811619,50.6656466,1 parvis Berthelot 59510 Hem,Mo-Th 08:30-12:45; Fr 09:00-12:00,59299,3824aea4-93dd-432c-b9ab-affb0a63befa
france_travail,France Travail - Bron,4.9172108,45.7302423,3 avenue du 8-Mai-1945 69500 Bron Cedex,Mo-Fr 08:30-12:30,69029,38f64a71-6d9b-437f-a5df-180d96a33640
france_travail,France Travail - Saint-François,-61.2728119,16.2506255,Route de la Rocade 97118 Saint-François,Mo 07:30-13:00; Tu-We 07:30-13:15; Th 07:30-13:00; Fr 07:30-11:30,97125,39448b47-e014-493a-991c-aa05079d0cf7
france_travail,France Travail - Vernon,1.47422619,49.0961648,3 rue Hannah-Arendt 27200 Vernon,Mo-Fr 08:30-12:30,27681,39e1a730-45a3-467a-a4c0-1cb99bc98f5d
france_travail,France Travail - Aix-en-Provence - Aix-Vallée-Arc,5.43063,43.515163,95 chemin Roger-Martin 13090 Aix-en-Provence Cedex 2,Mo-Fr 08:30-12:30,13001,39e4eb09-3592-47e7-aff4-bc224779a958
france_travail,France Travail - Apt,5.3873606,43.8791491,461 voie Domitienne 84400 Apt,Mo-Fr 08:30-12:30,84003,3a6b67b8-27c6-4edd-8436-ca7b1d86c745
france_travail,France Travail - Plaisir,1.962886,48.83045,1416 boulevard Léon-Blum 78370 Plaisir,Mo-Th 09:00-13:15; Fr 09:00-12:00,78490,3a90c52b-b221-41cf-a0c0-3c83b66a9edc
france_travail,France Travail - Ivry-sur-Seine,2.3750109,48.807587,161 avenue de Verdun 94200 Ivry-sur-Seine,Mo-Th 09:00-13:15; Fr 09:00-12:00,94041,3aca4cda-c745-4fe6-ae47-00e0c1a0d8c8
france_travail,France Travail - Toulouse - Cartoucherie,1.404184,43.603266,82 voie du Toec 31000 Toulouse,Mo-Fr 08:30-12:30,31555,3bdfb9e2-3293-4a81-a291-a3641d146832
france_travail,France Travail - Courbevoie,2.2551347,48.8985687,17 rue du Président-Kruger 92400 Courbevoie,Mo-Th 09:00-13:15; Fr 09:00-12:00,92026,3bf422da-558d-4b41-bf55-f058a589e2a6
france_travail,France Travail - Chambéry - Mudry,5.9337179,45.5687827,85 rue Auguste-Mudry 73000 Chambéry Cedex,Mo-Fr 08:30-12:30,73065,3c10e6ea-3988-4627-b749-ac428b147709
france_travail,France Travail - Sedan,4.9413591,49.696344,5 rue Berthelot 08200 Sedan Cedex,Mo-Fr 08:30-12:30,08409,3c127d04-6373-49f0-9f75-07d2ee060ec3
france_travail,France Travail - L'Île-Rousse,8.925292,42.627598,Col de Fogata 20220 L'Île-Rousse,Mo-Fr 08:30-12:30,2B134,3c39a24b-f9d8-4c3d-aeea-f260359e36ca
france_travail,France Travail - Chamalières,3.05915240000002,45.7691997,78 avenue des Thermes 63400 Chamalières Cedex,Mo-Fr 08:30-12:30,63075,3c54e526-c385-463d-98fc-75570dfcf437
france_travail,France Travail - Noyon,2.9986082,49.5801374,6 rue du Long-Pont 60400 Noyon Cedex,Mo-Fr 08:30-12:30,60471,3cd5f667-02d1-4171-896b-dde3cb09ef43
france_travail,France Travail - Besançon - Palente,6.0491352,47.2650207,6 rue du Muguet 25000 Besançon Cedex,Mo-Fr 08:30-12:30,25056,3cd90b2d-263e-4028-9f33-c8f0927f8354
france_travail,France Travail - Persan,2.2793721,49.1501029,4 rue Jean-Moulin 95340 Persan,Mo-Th 09:00-13:15; Fr 09:00-12:00,95487,3cff3af6-8d1a-4393-a053-fd936757ebb7
france_travail,France Travail - Rouen - Beauvoisine,1.09826719,49.4516525,7 rue de Neufchâtel 76000 Rouen,Mo-Fr 08:30-12:30,76540,3d5a4c25-1c30-43a9-ab30-39c12eeaba30
france_travail,France Travail - Roubaix - Centre,3.18018299,50.6919179,74 Grande rue 59100 Roubaix,Mo-Th 08:30-12:45; Fr 09:00-12:00,59512,3df33146-2f1d-4704-8583-0afa534174a4
france_travail,France Travail - Sarlat,1.2036479,44.9177927,1 route du Pont-de-Campagnac 24200 Sarlat-la-Canéda,Mo-Fr 08:30-12:30,24520,3e0a723a-fa81-4998-9c66-3e810f6f9af6
france_travail,France Travail - Gap,6.0834792,44.559095,26 boulevard Georges-Pompidou 05000 Gap,Mo-Fr 08:30-12:30,05061,3e0faebd-99e3-4399-b1ea-09f72710a272
france_travail,France Travail - Clermont-l'Hérault,3.4359589,43.6307767,16 bis avenue de Montpellier 34800 Clermont-l'Hérault,Mo-Fr 08:30-12:30,34079,3ecd850a-c308-4c00-9bb3-2f88734c99a8
france_travail,France Travail - Vannes - Ouest,-2.8026395,47.6772873,3 rue Marie-Curie 56890 Plescop,Mo-Fr 08:30-12:30,56158,401b4e56-bf31-4a23-98a9-ed90a27dc021
france_travail,France Travail - Biarritz,-1.5391453,43.4722731,8 ter rue Bordé-d'André 64200 Biarritz,Mo-Fr 08:30-12:30,64122,40cd435b-0607-41a0-a2b1-3cb73d89a24b
france_travail,France Travail - Reims - Jeanne-d'Arc,4.0535053,49.2507716,1 rue des Thiolettes 51100 Reims Cedex 2,Mo-Fr 08:30-12:30,51454,42689c11-77fd-4ac4-bd14-6092fb0eec16
france_travail,France Travail - Sainte-Clotilde,55.4804219,-20.8878327,14 rue Claude-Debussy 97400 Saint-Denis Cedex,Mo-Fr 07:30-11:30; We 07:30-13:00; Th-Fr 07:30-11:30,97411,42ca7d5e-68fc-445c-b946-826ff7c5f38f
france_travail,France Travail - Montmélian,6.0475291,45.5016744,363 avenue de la Gare 73800 Montmélian Cedex,Mo-Fr 08:30-12:30,73171,43da808e-54c7-4486-9807-b3b95797f495
france_travail,France Travail - Le Tampon,55.5155914,-21.2803867,106 rue Martinel-Lassays 97430 Le Tampon,Mo-Fr 07:30-11:30; We 07:30-13:00; Th-Fr 07:30-11:30,97422,43f47090-4549-4ee2-99af-a0b2fe41083f
france_travail,France Travail - Manosque,5.8030413,43.8301902,126 traverse Françoise-Dolto 04100 Manosque Cedex,Mo-Fr 08:30-12:30,04112,44e14984-96cf-4b38-beb8-27fda838603d
france_travail,France Travail - Strasbourg - Danube,7.76867409,48.5721879,31 avenue du Rhin 67000 Strasbourg,Mo-Fr 08:30-12:30,67482,44f93065-9399-459c-8d66-a6b1ade5327c
france_travail,France Travail - Ermont,2.2647673,48.9820477,90 rue Raoul-Dautry 95120 Ermont,Mo-Th 09:00-13:15; Fr 09:00-12:00,95219,450f4625-79a0-41ae-90b6-0a9dd44d760d
france_travail,France Travail - Caudry,3.40375359,50.1154273,111 rue Gustave-Delory 59540 Caudry,Mo-Th 08:30-12:45; Fr 09:00-12:00,59139,456a89d4-8792-4a4f-a1d9-6efe4bdde64d
france_travail,France Travail - Paris - 20e arrondissement - Vitruve,2.40631759,48.8588999,60 rue Vitruve 75020 Paris,Mo-Th 09:00-13:15; Fr 09:00-12:00,75120,45c781d9-99c3-4deb-87b4-6fda9eaa452c
france_travail,France Travail - La Seyne-sur-Mer,5.8811948,43.1037344,124 avenue Louis-Curet 83500 La Seyne-sur-Mer,Mo-Fr 08:30-12:30,83126,45ed8308-9066-4c26-99e7-c7809bf06a29
france_travail,France Travail - La Ferté-Bernard,0.6535107,48.1780653,57 avenue du Général-de-Gaulle 72400 La Ferté-Bernard,Mo-Fr 08:30-12:30,72132,46873db9-2ae8-4981-9a38-09c752311b2b
france_travail,France Travail - Rouen - Saint-Sever,1.078348,49.43057,26 place Gadeau de Kerville 76000 Rouen Cedex,Mo-Fr 08:30-12:30,76540,46b1d934-f5f5-4253-a02c-bdc6141c5a08
france_travail,France Travail - Marseille - Cap-Pinède,5.363319,43.333202,5 boulevard de la Méditerranée 13015 Marseille Cedex 15,Mo-Fr 08:30-12:30,13215,4721c9a7-57f3-4229-86ef-aea878110003
france_travail,France Travail - Montceau-les-Mines,6.35831529999996,47.3514076,5 rue Saint-Éloi 71300 Montceau-les-Mines Cedex,Mo-Fr 08:30-12:30,71306,475069a4-f9ee-43e4-afee-71e3ac8a1619
france_travail,France Travail - Saint-Girons,1.15361,42.98076,14 chemin de Pégoumas 09200 Saint-Girons,Mo-Fr 08:30-12:30,09261,47aca983-dd63-4f03-bd4b-4d4582db4d75
france_travail,France Travail - Saint-Jean,1.498597,43.6621903,6 chemin du Bois-de-Saget 31240 Saint-Jean,Mo-Fr 08:30-12:30,31488,47bc9045-5721-4e22-a023-d654776207d8
france_travail,France Travail - Bourges - Baudens,2.4023776,47.0733541,5 bis boulevard du Maréchal-Joffre 18000 Bourges Cedex,Mo-Fr 08:45-12:45,18033,483186f8-368d-46a3-ae82-7cbfbb5ceed1
france_travail,France Travail - Paris - 19e arrondissement - Armand-Carrel,2.3762596,48.8829974,44 rue Armand-Carrel 75019 Paris,Mo-Th 09:00-13:15; Fr 09:00-12:00,75119,4851f6b4-bb41-4c47-8de8-c827bcb6c2c1
france_travail,France Travail - Rive-de-Gier,4.6018441,45.524226,1 rue de la Petite-Vitesse 42800 Rive-de-Gier Cedex,Mo-Fr 08:30-12:30,42186,48d849be-9184-4e1d-b284-5f318646095d
france_travail,France Travail - Tonnerre,3.9748198,47.858419,5 place de la Gare 89700 Tonnerre,Mo-Fr 08:30-12:30,89418,48db3da0-f92e-4443-b5d4-ff5526e74694
france_travail,France Travail - Sens,3.3077838,48.2035527,47 rue du 19-Mars-1962 89100 Sens Cedex,Mo-Fr 08:30-12:30,89387,491fc444-7ad6-4901-9116-0d1981b10e7f
france_travail,France Travail - Montpellier - Méditerranée,3.903613,43.5682403,300 impasse John-Locke 34470 Pérols,Mo-Fr 08:30-12:30,34129,49e7dad9-2aec-405d-baa3-cf38afc15e4d
france_travail,France Travail - La Côte-Saint-André,5.25404359,45.3942612,12 rue du Commandant-Julhiet 38260 La Côte-Saint-André Cedex,Mo-Fr 08:30-12:30,38130,4a0bd1ce-021d-4d0f-b6c6-3fde7ac57129
france_travail,France Travail - Lagny-sur-Marne,2.69195639,48.8767051,2630 rue du Pont-Hardy 77400 Lagny-sur-Marne Cedex,Mo-Th 09:00-13:15; Fr 09:00-12:00,77243,4a0c157d-f282-4b18-b7f4-de2fb1f4d770
france_travail,France Travail - Calais - Mollien,1.8630554,50.955343,66 rue Mollien 62100 Calais,Mo-Th 08:30-12:45; Fr 09:00-12:00,62193,4a3f4b24-0bb3-4017-8be6-bceaeaedb7a3
france_travail,France Travail - Issy-les-Moulineaux,2.2738418,48.8281491,2 rue Victor-Hugo 92130 Issy-les-Moulineaux,Mo-Th 09:00-13:15; Fr 09:00-12:00,92040,4aea9dec-5d84-4019-9cb5-67fc0f67d050
france_travail,France Travail - Lamballe,-2.504715,48.465371,5 avenue Georges-Clemenceau 22400 Lamballe Cedex,Mo-Fr 08:30-12:30,22093,4aeea9bb-f2a1-4a34-ba8b-4f0e2bc2936c
france_travail,France Travail - Schiltigheim,7.7177105,48.61209109,2 rue de Berne 67300 Schiltigheim,Mo-Fr 08:30-12:30,67447,4afeb460-09ec-4fc6-bcd4-96bc1208124f
france_travail,France Travail - Toulouse - Bellefontaine,1.3999592,43.5657055,63 allée de Bellefontaine 31000 Toulouse,Mo-Fr 08:30-12:30,31555,4b001e10-32e8-40cc-97a9-eddcc2854c82
france_travail,France Travail - Paris - 12e arrondissement - Diderot,2.3690925,48.845595,3 boulevard Diderot 75012 Paris,Mo-Th 09:00-13:15; Fr 09:00-12:00,75112,4c526ee9-b4f4-4633-8909-c1afcff27137
france_travail,France Travail - Villefontaine,5.155394,45.613306,315 rue Serge-Mauroit 38090 Villefontaine Cedex,Mo-Fr 08:30-12:30,38553,4c52b799-fba2-46b5-a438-af639f222475
france_travail,France Travail - Lyon-Cadres,4.8600426,45.7726391,6 cours André-Philip 69100 Villeurbanne Cedex,Mo-Fr 08:30-12:30,69266,4c7a74b4-7a7d-43f3-b4ce-ea159a5308c5
france_travail,France Travail - Oyonnax,5.6506197,46.2546373,188 rue Anatole-France 01108 Oyonnax Cedex,Mo-Fr 08:30-12:30,01283,4c958ab5-692c-448a-89e5-7f3f0004c1c7
france_travail,France Travail - Château-Thierry,3.4119926,49.040117,56 avenue de la République 02400 Château-Thierry Cedex,Mo-Fr 08:30-12:30,02168,4cead821-03a0-4053-9292-ec16165bf574
france_travail,France Travail - Brest - Europe,-4.471501,48.411045,11 rue du 8-Mai-1945 29200 Brest Cedex 2,Mo-Fr 08:30-12:30,29019,4de699f5-78d5-4b23-ae1b-309001ea4cdb
france_travail,France Travail - Dourdan,2.0093766,48.5342859,3 avenue Eugène-Vernholes 91410 Dourdan,Mo-Th 09:00-13:15; Fr 09:00-12:00,91200,4df7c5fb-c8af-4180-9843-5f9342112313
france_travail,France Travail - Nice - Centre,7.25972,43.7023616,44 rue Berlioz 06000 Nice,Mo 08:30-12:30,06088,4e3e7995-8d91-4f92-b739-88753db3b702
france_travail,France Travail - Prades,-0.933762000000002,43.473902,4 place du Docteur-Jacques-Salies 66500 Prades,Mo-Fr 08:30-12:30,66149,4e409b32-ae53-4fff-8f4a-4fc888fd06b7
france_travail,France Travail - Saint-Priest,4.9253082,45.6972449,100 avenue Aristide-Briand 69800 Saint-Priest,Mo-Fr 08:30-12:30,69290,4e44746c-1356-4615-9f6f-aa88a7429821
france_travail,France Travail - Sézanne,3.7287588,48.7179037,51 rue Aristide-Briand 51120 Sézanne,Mo-Fr 08:30-12:30,51535,4e8257da-ca39-486a-ac65-7de1a28d2bbf
france_travail,France Travail - Dijon-Est,5.098952,47.313879,2 rue des Charrières 21800 Quetigny,Mo-Fr 08:30-12:30,21515,4eabcab3-8790-4560-b51c-63c982f2074c
france_travail,France Travail - Aubusson,2.22292189999996,48.8953715,Esplanade Charles-de-Gaulle 23200 Aubusson,Mo-Fr 08:30-12:30,23008,4f81fab4-24da-441c-ad61-60e51beaf901
france_travail,France Travail - La Ferté-sous-Jouarre,3.12395719,48.9502238,8 rue de la Gare 77260 La Ferté-sous-Jouarre,Mo-Th 09:00-13:15; Fr 09:00-12:00,77183,503d9fb7-976a-4366-9f99-d8704ded7db6
france_travail,France Travail - Saint-Nazaire,-2.26201620000006,47.2529525,10 boulevard de l'Université 44600 Saint-Nazaire,Mo-Fr 08:30-12:30,44184,509063f2-0760-41f3-8f33-2bfd8469c291
france_travail,France Travail - Redon,-2.09538129999999,47.653437,3 rue Charles-Sillard 35600 Redon Cedex,Mo-Fr 08:30-12:30,35236,50cda35b-9f7a-4616-9d93-ece914ce836c
france_travail,France Travail - Paris - 15e arrondissement - Brancion - AVS-placement-artistes,2.3057069,48.8357524,10 rue Brancion 75015 Paris,Mo-Th 09:00-13:15; Fr 09:00-12:00,75115,50e35a43-996a-470a-b5cd-30ac528d28d9
france_travail,France Travail - Cambrai,3.241966,50.1749823,16 rue du Colonel-Francis-Nicol 59400 Cambrai Cedex,Mo-Th 08:30-12:45; Fr 09:00-12:00,59122,50f57294-e562-4176-affa-7d14a8d3c577
france_travail,France Travail - Guebwiller,7.2050463,47.9143991,170 rue de la République 68500 Guebwiller,Mo-Fr 08:30-12:30,68112,50f5abd3-ffbf-4763-86b1-8e390158fb50
france_travail,France Travail - Alès - Gardon,4.0789592,44.1335425,5 avenue Jean-Baptiste-Dumas 30100 Alès,Mo-Fr 08:30-12:30,30007,512ed7d6-d26d-486c-ac64-126ce11923f0
france_travail,France Travail - Moulins,3.3265147,46.5669866,42 place Jean-Moulin 03004 Moulins Cedex,Mo-Fr 08:30-12:30; Th 08:30-12:30; Fr 08:30-15:30,03190,51653104-ad4e-4773-8fa2-46331142e334
france_travail,France Travail - Valenciennes,3.5301143,50.3686496,21 rue des Frères-Dana 59300 Valenciennes,Mo-Th 08:30-12:45; Fr 09:00-12:00,59606,516fbbd5-1806-4402-b4e9-13b1de7b3644
france_travail,France Travail - Nantes - Centre,-1.5783503999999766,47.2339638,8 avenue du Petit-Clos 44000 Nantes,Mo-Fr 08:30-12:30,44109,520cafcd-d736-4a1a-ab5f-112729e4374c
france_travail,France Travail - L'Isle-Jourdain,1.091637,43.609718,12 rue Roger Couderc 32600 L'Isle-Jourdain,Mo-Fr 08:30-12:30,32160,521f7e67-1bb5-406e-a130-5fe001bc7122
france_travail,France Travail - Nantes - Sainte-Luce,-1.4945575,47.2482158,1 allée des Citronniers 44000 Nantes Cedex 3,Mo-Fr 08:30-12:30,44109,524693c9-f07a-43c7-9ea1-5423426c560d
france_travail,France Travail - Puteaux,2.2346026,48.8778409,116 rue de Verdun 92800 Puteaux,Mo-Th 09:00-13:15; Fr 09:00-12:00,92062,525b36a6-8810-4593-8e62-364b07f2fdb4
france_travail,France Travail - Montargis,2.73203,48.014736,111 rue des Déportés-et-des-Internés-de-la-Résistance 45200 Montargis,Mo-Fr 08:45-12:45,45208,52653ca8-2575-48f4-9dd8-008504558164
france_travail,France Travail - Cahors - Hautesserre,1.4387446,44.4439022,94 rue Hauteserre 46000 Cahors,Mo-Fr 08:30-12:30,46042,526e2857-d4a6-4d47-bcf0-1cf1b9ec9b43
france_travail,France Travail - Molsheim,7.5112228,48.5326198,16 bis rue Gaston-Romazzotti 67120 Molsheim,Mo-Fr 08:30-12:30,67300,52837d98-9150-4818-a937-41c152078d0d
france_travail,France Travail - Levallois-Perret,2.2835469,48.8936856,99 rue Anatole-France 92300 Levallois-Perret,Mo-Th 09:00-13:15; Fr 09:00-12:00,92044,52a80a0a-ecfb-4561-b3b8-f289d263da6b
france_travail,France Travail - Marmande,0.1543483,44.5066912,35 rue Portogruaro 47200 Marmande Cedex,Mo-Fr 08:30-12:30,47157,52c8cf3b-d361-4485-8c97-ea5dd2cb7764
france_travail,France Travail - Belleville,4.7320958,46.1064842,16 rue du Bois-Baron 69220 Belleville Cedex,Mo-Fr 08:30-12:30,69019,52ef86ff-00a5-4fae-8efa-2ba7edc65051
france_travail,France Travail - Montmorillon,0.8768956,46.4333829,4 rue Daniel-Cormier 86500 Montmorillon Cedex,Mo-Fr 08:30-12:30,86165,5302fc79-78e6-4328-b5b7-d552faee6470
france_travail,France Travail - Chartres - Gare,1.479705,48.446607,21 rue Pierre-Nicole 28000 Chartres Cedex,Mo-Fr 08:45-12:45,28085,53745290-2a46-4175-a2af-36e3b983db57
france_travail,France Travail - Châtellerault,0.53145470000004,46.8436562,1 rue Georges-Charpak 86100 Châtellerault Cedex,Mo-Fr 08:30-12:30,86066,539da2f0-09ad-490e-914a-99231182602c
france_travail,France Travail - Loches,1.012653,47.128151,1 place du Maréchal-Leclerc 37600 Beaulieu-lès-Loches,Mo-Fr 08:45-12:45,37020,53fe9031-26be-4e4b-a8bb-f0859966a07f
france_travail,France Travail - Auxerre - Clairions,3.5762755,47.8139222,49 rue Guynemer 89000 Auxerre,Mo-Fr 08:30-12:30,89024,551deb2b-f262-44d8-ac74-c83250c36b6b
france_travail,France Travail - Port-Louis,-61.53139999999996,16.4166,Boulevard Jacques-Edwige 97117 Port-Louis,Mo 07:30-13:00; Tu-We 07:30-13:15; Th 07:30-13:00; Fr 07:30-11:30,97122,56bf17b4-7c0a-4f32-a960-52bbc77e646e
france_travail,France Travail - Valence - Victor-Hugo,4.885506,44.915623,333 avenue Victor-Hugo 26000 Valence Cedex 9,Mo-Fr 08:30-12:30,26362,56d6f52b-7569-4824-b0d8-d2c7f27f000b
france_travail,France Travail - Monistrol,4.17218300000002,45.292432,7 boulevard François-Mitterrand 43120 Monistrol-sur-Loire,Mo-Fr 08:30-12:30,43137,56e8bd24-b175-4c80-8062-b6ba4516e5c4
france_travail,France Travail - Vire,-0.878339900000014,48.8460547,71 rue d'Aunay 14500 Vire Cedex,Mo-Fr 08:30-12:30,14762,5705fbca-ea4e-4246-9765-152d4240dfd2
france_travail,France Travail - Saint-Ouen-l'Aumône,2.1165889,49.0389612,60 rue de Paris 95310 Saint-Ouen-l'Aumône,Mo-Th 09:00-13:15; Fr 09:00-12:00,95572,5788dc57-a704-4c90-a77b-b892f3da5d11
france_travail,France Travail - Lannion,-3.4709622,48.7447095,1 rue du Muguet 22300 Lannion Cedex,Mo-Fr 08:30-12:30,22113,57cb072d-f038-4935-8c60-22c0e8d098b6
france_travail,France Travail - Cogolin,6.6407109,43.2676808,98 rue Carnot 83310 Cogolin,Mo-Fr 08:30-12:30,83042,57dd698f-c5cb-4802-8788-979d7f77eee9
france_travail,France Travail - Le Mans - Ouest,0.151607,48.015531,2 avenue Georges-Auric 72000 Le Mans,Mo-Fr 08:30-12:30,72181,582c6d69-fad0-4ed6-9d26-b0281a5e59fe
france_travail,France Travail - Annonay,4.6736601,45.2444069,34 boulevard de la République 07100 Annonay Cedex,Mo-Fr 08:30-12:30,07010,5884e23b-66c5-4d1e-baf8-bd8bbe4fc46e
france_travail,France Travail - Fontenay-le-Comte,-0.7922571000000289,46.4650584,3 rue de l'Ouillette 85200 Fontenay-le-Comte,Mo-Fr 08:30-12:30,85092,592006f4-ea63-4542-b9e0-ffc0c1a8ec5d
france_travail,France Travail - Bailleul,2.72406269,50.7389709,656 route de Méteren 59270 Bailleul,Mo-Th 08:30-12:45; Fr 09:00-12:00,59043,5957eb7e-d1b8-4cee-82fd-f971c01b75ac
france_travail,France Travail - Tulle,1.50753310000005,46.5861969,Rue du 9-Juin-1944 19000 Tulle Cedex,Mo-Fr 08:30-12:30,19272,5968e139-1c2f-4335-bc3a-d5b84224568a
france_travail,France Travail - Lille - Lomme,3.031564,50.633087,538 B avenue de Dunkerque 59160 Lille,Mo-Th 08:30-12:45; Fr 09:00-12:00,59350,59caa003-ce3c-4e04-9aa2-e9bf2ca12c38
france_travail,France Travail - Pointe-à-Pitre - Bergevin,-61.5331,16.2411,Rue de la Ville-d'Orly 97110 Pointe-à-Pitre,Mo 07:30-13:00; Tu-We 07:30-13:15; Th 07:30-13:00; Fr 07:30-11:30,97120,5a379fc4-6368-4bd3-bed9-9bd843b5e8eb
france_travail,France Travail - Nîmes - Courbessac,4.4033063,43.8558197,335 route d'Avignon 30000 Nîmes,Mo-Fr 08:30-12:30,30189,5a61ba72-35c8-48ce-b6c9-d51ec48c0f22
france_travail,France Travail - Mortagne,6.754051,48.269609,ZC de Préfontaine   61400 Mortagne-au-Perche,Mo-Fr 08:30-12:30,61293,5a7eaafe-ac27-464c-b5fb-401da2e6e069
france_travail,France Travail - Decize,3.483427,46.827356,121 avenue de Verdun 58300 Decize,Mo-Fr 08:30-12:30,58095,5abf68e3-1ec0-43c5-8d6a-4ea25a6ae3f3
france_travail,France Travail - Pithiviers,2.2525585,48.1876602,Rue Olympe-de-Gouges 45300 Pithiviers,Mo-Fr 08:45-12:45,45252,5b997bea-19ec-478a-b674-9f6b022bdacb
france_travail,France Travail - Futuroscope,0.3599755,46.6685915,Avenue Jean-Monnet 86360 Chasseneuil-du-Poitou Cedex,Mo-Fr 08:30-12:30,86062,5bd5e7a1-3288-47bc-b68f-67c7fc342968
france_travail,France Travail - Sélestat,7.4417369,48.2636593,14 rue de la Manufacture 67600 Sélestat,Mo-Fr 08:30-12:30,67462,5c06280e-71ad-4145-9aba-a70ed3a8e4d9
france_travail,France Travail - Tarbes - Pyrénées,0.0657693,43.2259788,24 avenue Aristide-Briand 65000 Tarbes,Mo-Fr 08:30-12:30,65440,5c1f408c-e7b6-428c-98cb-6f3cbef3e2d8
france_travail,France Travail - Hyères,6.1303638,43.1081568,195 avenue Jean-Moulin 83400 Hyères Cedex,Mo-Fr 08:30-12:30,83069,5c86c04c-7db6-4ef3-bf80-02b78cb08880
france_travail,France Travail - Tarbes - Arsenal,0.0662452,43.2253262,Rue de la Cartoucherie 65000 Tarbes,Mo-Fr 08:30-12:30,65440,5d4e2aec-f04d-4056-a2bf-257da0addefc
france_travail,France Travail - Lille - Grand-Sud,3.0388416,50.6133956,1 rue Jean-Walter 59000 Lille,Mo-Th 08:30-12:45; Fr 09:00-12:00,59350,5d58f968-8dea-48a3-9749-5938968527da
france_travail,France Travail - Hagondange,6.1654117,49.2430899,15 rue des Artisans 57300 Hagondange,Mo-Fr 08:30-12:30,57283,5d70643a-4461-4060-abef-b450a8b71e4d
france_travail,France Travail - Rosny-sous-Bois,2.4751185,48.8755891,6 rue de Rome 93110 Rosny-sous-Bois,Mo-Th 09:00-13:15; Fr 09:00-12:00,93064,5db438b2-385d-4c3a-82cd-f4acbfed3a29
france_travail,France Travail - Marseille - Belle-de-Mai,5.389293,43.310217,26 rue Jobin 13003 Marseille,Mo-Fr 08:30-12:30,13203,5dda5d58-dc06-4e62-aab9-b52381b2b43f
france_travail,France Travail - Viry-Châtillon,2.3881184,48.6769456,16 rue de Ris 91170 Viry-Châtillon,Mo-Th 09:00-13:15; Fr 09:00-12:00,91687,5df53377-2b08-4d68-9f78-86a29cc1db63
france_travail,France Travail - Sainte-Geneviève-des-Bois,2.3335814,48.6353278,141 route de Corbeil 91700 Sainte-Geneviève-des-Bois,Mo-Th 09:00-13:15; Fr 09:00-12:00,91549,5e29aa16-cb0d-4569-bb30-a243955f60ce
france_travail,France Travail - Vitré,-1.2065019,48.12045,9 place du Champ-de-Foire 35500 Vitré Cedex,Mo-Fr 08:30-12:30,35360,5eb63d0c-2e02-45cb-9abb-43d8e10bb684
france_travail,France Travail - Paris - 16e et 17e arrondissements - Cardinet,2.31577859,48.8922686,8 rue Bernard-Buffet 75017 Paris,Mo-Th 09:00-13:15; Fr 09:00-12:00,75117,5ecbfe9c-b4f6-49f2-8ce0-69b53a9d9ee4
france_travail,France Travail - Saint-Pol-sur-Ternoise,2.3319839,50.3711392,Rue de Canteraine 62130 Saint-Pol-sur-Ternoise,Mo-Th 08:30-12:45; Fr 09:00-12:00,62767,5f27bcce-c499-440f-ad46-4e017cfc60ea
france_travail,France Travail - Agen,0.6155151,44.1934214,104 avenue du Docteur-Jean-Bru 47000 Agen Cedex,Mo-Fr 08:30-12:30,47001,601bd760-828a-4ccf-8073-96a66a257810
france_travail,France Travail - Sète,3.7035532,43.4067537,220 avenue Maréchal-Juin 34200 Sète,Mo-Fr 08:30-12:30,34301,60320a03-30f1-457a-8df1-44515716c1b2
france_travail,France Travail - Provins,3.298125,48.56623,5 rue Gustave-Chrétien 77160 Provins,Mo-Th 09:00-13:15; Fr 09:00-12:00,77379,60b382e2-0143-4a6e-92b5-17bdb7c3aae6
france_travail,France Travail - Échirolles,5.7200781,45.149062,33 rue Normandie-Niemen 38130 Échirolles,Mo-Fr 08:30-12:30,38151,60b5823c-b41e-4cf6-b039-65f187c7339e
france_travail,France Travail - Ploërmel,-2.390374,47.921678,Rue Georges-Brassens 56805 Ploërmel Cedex,Mo-Fr 08:30-12:30,56165,60dfa4fd-bd93-406c-af8a-6cb366f2f351
france_travail,"France Travail - Paris - 7e, 8e et 9e arrondissements - Saint-Pétersbourg",2.32635129,48.8824739,34 rue Saint-Pétersbourg 75008 Paris,Mo-Th 09:00-13:30; Fr 09:00-12:00,75108,60e55678-9d52-4dfa-b908-ef10bc063b5a
france_travail,France Travail - La Rochelle - Bel-Air,-1.1696869,46.169114,88 rue de Bel-Air 17000 La Rochelle Cedex 1,Mo-Fr 08:30-12:30,17300,61184649-aa63-4d48-a42f-48774b518bd1
france_travail,France Travail - Carentan,-1.242834,49.305666,28 rue du 101e-Airborne 50500 Carentan,Mo-Fr 08:30-12:30,50099,616d7f5e-5417-42cd-b007-e7df6e0db2ff
france_travail,France Travail - Nogent-le-Rotrou,0.804688,48.323595,50 rue Émile-Gohon 28400 Nogent-le-Rotrou Cedex,Mo-Fr 08:45-12:45,28280,6252738c-dc97-4755-8410-299e4705e882
france_travail,France Travail - Évry,2.4305977,48.6277106,9 cours Blaise-Pascal 91000 Évry,Mo-Th 09:00-13:15; Fr 09:00-12:00,91228,62797ef9-5dc2-4f1e-9c25-8c8f64e531bb
france_travail,France Travail - Béziers - Capiscol,3.2506103,43.3326457,166 rue Maurice-Béjart 34500 Béziers,Mo-Fr 08:30-12:30,34032,627e423c-5c09-4d45-b80a-f28408a82a63
france_travail,France Travail - Champagnole,5.90572499999996,46.746091,190 rue Alfred-et-Maurice-Bouvet 39300 Champagnole,Mo-Fr 08:30-12:30,39097,62ca0358-75c4-4488-9b06-45cc1c6fe787
france_travail,France Travail - Porto-Vecchio,9.2593409,41.581061,Route Arca 20137 Porto-Vecchio,Mo-Fr 08:30-12:30,2A247,630232bf-55aa-405b-be96-f7cfbb8e4d6f
france_travail,France Travail - Marseille - Château-Gombert,5.4362454,43.3426305,Rue Frédéric-Joliot-Curie 13013 Marseille,Mo-Fr 08:30-12:30,13213,63180a8a-0917-4b93-9561-cd52c470f321
france_travail,France Travail - Le Havre - Ferrer,0.1385615,49.4885458,17 rue Ferrer 76600 Le Havre,Mo-Fr 08:30-12:30,76351,63c9c5a1-db38-4b2e-b5c1-3400e5e5daab
france_travail,France Travail - Dijon - Nord,5.052044,47.365339,33 rue Elsa-Triolet 21000 Dijon,Mo-Fr 08:30-12:30,21231,640eb2a3-10a9-41d5-b8e8-84b99e633e42
france_travail,France Travail - Choisy-le-Roi,2.4050988,48.7645047,1 place des Alliés 94600 Choisy-le-Roi,Mo-Th 09:00-13:15; Fr 09:00-12:00,94022,653f2493-ddd4-47a3-94e1-89db2df61ff5
france_travail,France Travail - Romorantin-Lanthenay,1.7402245,47.3670057,16 avenue Saint-Exupéry 41200 Romorantin-Lanthenay,Mo-Fr 08:45-12:45,41194,65cff34f-179b-4b6c-bf95-4f39d7ab4d60
france_travail,France Travail - La Courneuve,2.4154238,48.92574,139 avenue Paul-Vaillant-Couturier 93120 La Courneuve Cedex,Mo-Th 09:00-13:15; Fr 09:00-12:00,93027,65e7cabf-6464-4ba2-ac43-4457adb6905d
france_travail,France Travail - Blain,-1.7597088,47.4743155,1 rue des Droits-de-l'Homme 44130 Blain,Mo-Fr 08:30-12:30,44015,65eea9dd-12a6-4a54-9a46-35862f1bd981
france_travail,France Travail - Castelsarrasin,1.1049487,44.0378103,4 côte des Charretiers 82100 Castelsarrasin,Mo-Fr 08:30-12:30,82033,662da112-8edb-43bd-9e74-d98801dfb3e8
france_travail,France Travail - Saint-Denis - Réunion,55.4632715,-20.8831945,357 rue Maréchal-Leclerc 97400 Saint-Denis Cedex,Mo-Fr 07:30-11:30; We 07:30-13:00; Th-Fr 07:30-11:30,97411,666a185d-74e7-41b6-af2e-b1fb84954a8a
france_travail,France Travail - Cosne-Cours-sur-Loire,2.9255203,47.3971511,45 bis rue du Général-Binot 58200 Cosne-Cours-sur-Loire Cedex,Mo-Fr 08:30-12:30,58086,66f8a53f-a632-4026-9f8d-ffbede6b51d0
france_travail,France Travail - Bar-sur-Aube,4.7086222,48.2382571,55 rue Général-de-Gaulle 10200 Bar-sur-Aube,Mo-Fr 08:30-12:30,10033,67382263-8e49-4901-86aa-c9e488a7694d
france_travail,France Travail - Crépy-en-Valois,2.9125417,49.2246687,5 rue Blaise-Pascal 60800 Crépy-en-Valois Cedex,Mo-Fr 08:30-12:30,60176,676f1a55-9e80-466c-9ed9-72130706dd19
france_travail,France Travail - Belley,5.686346,45.76096,62 rue Juvanon-du-Vachat 01300 Belley,Mo-Fr 08:30-12:30,01034,67a8b7df-3665-4317-a528-999c5b91846a
france_travail,France Travail - Oloron-Sainte-Marie,-0.6094038,43.1948312,7 rue du Gouverneur-Général-Bordes 64400 Oloron-Sainte-Marie,Mo-Fr 08:30-12:30,64422,67abd0e5-38cb-41f6-88d7-cd78b7ebac03
france_travail,France Travail - Chauny,3.2144944,49.6285358,25 rue Jean-Monnet 02300 Chauny,Mo-Fr 08:30-12:30,02173,67c6707d-ef28-4bb1-beb7-4d83c9fa0825
france_travail,France Travail - Saverne,7.3692844,48.7443384,16 rue du Zornhoff 67700 Saverne Cedex,Mo-Fr 08:30-12:30,67437,685105a5-7a53-47be-9671-0ea3fdc444cb
france_travail,France Travail - Paris - 10e arrondissement - Vicq-d'Azir,2.3715062,48.876089,26 rue Vicq-d'Azir 75010 Paris,Mo-Th 09:00-13:15; Fr 09:00-12:00,75110,686c1b0d-bac4-49df-9cb2-88f47f5b2ace
france_travail,France Travail - Sablé-sur-Sarthe,-0.3066578,47.8244245,7 rue de la Martinière 72300 Sablé-sur-Sarthe,Mo-Fr 08:30-12:30,72264,689509be-4613-41df-a56c-2f7740ddfb72
france_travail,France Travail - La Baule - Guérande,-2.3941213,47.2910415,3 bis avenue des Noëlles 44500 La Baule-Escoublac,Mo-Fr 08:30-12:30,44055,68e730c4-cfac-4c62-b414-8c1997987f9f
france_travail,France Travail - Segré-en-Anjou Bleu,-0.8726675,47.68675,1 rue Auguste-Rodin 49500 Segré-en-Anjou Bleu,Mo-Fr 08:30-12:30,49331,68f6cace-493e-43e7-a6e7-9d3a58870d12
france_travail,France Travail - Sucy-en-Brie,2.5040796,48.7730423,9 allée du Pacifique 94370 Sucy-en-Brie,Mo-Th 09:00-13:15; Fr 09:00-12:00,94071,69287708-b479-45ee-bcb8-44c30f9e1c50
france_travail,France Travail - Dijon - Sud,5.0241165,47.3058655,93 avenue Jean-Jaurès 21000 Dijon Cedex,Mo-Fr 08:30-12:30,21166,697b7eb5-d695-4b68-a0fd-fec3c9e164c0
france_travail,France Travail - Longuenesse,2.2653636,50.7426362,21 rue Brueghel 62219 Longuenesse Cedex,Mo-Th 08:30-12:45; Fr 09:00-12:00,62525,69ad9113-0708-4246-aa80-c2fd6bed6929
france_travail,France Travail - Saint-Martin-Boulogne,1.630571,50.7257419,37 rue Montjoie 62280 Saint-Martin-Boulogne,Mo-Th 08:30-12:45; Fr 09:00-12:00,62758,6a5ed2cd-9aaa-4202-9335-99a65e3eb6e4
france_travail,France Travail - Tournus,4.9133259,46.556881,Rue Cardinal-de-Fleury 71700 Tournus,Mo-Fr 08:30-12:30,71543,6a953fa1-ab96-4e6e-b7d6-3499427cc81d
france_travail,France Travail - Paris - 18e arrondissement - Ney - Cadres,2.35326459,48.8986917,78 boulevard Ney 75018 Paris,Mo-Th 09:00-13:15; Fr 09:00-12:00,75118,6aa943ce-28f3-40b4-bc14-d955c5f2aa3c
france_travail,France Travail - Cachan,2.33764,48.7935095,8 rue François-Delage 94230 Cachan,Mo-Th 09:00-13:15; Fr 09:00-12:00,94016,6ad44327-a12b-46c0-a602-8124477f1e7d
france_travail,France Travail - Châteaubriant,-1.37332930000002,47.7092873,10 rue d'Ancenis 44110 Châteaubriant,Mo-Fr 08:30-12:30,44036,6b98bc22-d55e-46e3-add9-562e2025c625
france_travail,France Travail - Saint-Louis,7.55312040000001,47.5977218,123 rue de Mulhouse 68300 Saint-Louis,Mo-Fr 08:30-12:30,68297,6c19eb24-1aea-4233-88cf-6f383ee6c342
france_travail,France Travail - Argenteuil,2.2466847,48.9472096,47 boulevard Jean-Allemane 95100 Argenteuil,Mo-Th 09:00-13:15; Fr 09:00-12:00,95018,6d36ae8c-cc0c-44cc-90dd-cd663c4ecad6
france_travail,France Travail - Amiens - Dury,2.27805409,49.8603712,1 place des Magnolias 80000 Amiens Cedex 1,Mo-Fr 08:30-12:30,80021,6d88a050-5203-47e0-9afc-2acfb54c7efd
france_travail,France Travail - Bernay,0.5878348,49.0887198,28 rue Guillaume-de-la-Tremblaye 27300 Bernay Cedex,Mo-Fr 08:30-12:30,27056,6ded0217-3f37-4421-b332-14b1934e725e
france_travail,France Travail - Troyes - Copainville,4.0928261,48.2910468,3 allée Yves-de-Copainville 10000 Troyes Cedex,Mo-Fr 08:30-12:30,10387,6e2e195b-ce9b-4c22-8753-e0b83679190e
france_travail,France Travail - Angers - Europe,-0.526242000000025,47.48504,9 bis boulevard Auguste-Allonneau 49000 Angers,Mo-Fr 08:30-12:30,49007,6e316b3b-8d0c-47d8-b193-cea605b8eac2
france_travail,France Travail - Tremblay-en-France,2.5701308,48.9497486,43 avenue Nelson-Mandela 93290 Tremblay-en-France,Mo-Th 09:00-13:15; Fr 09:00-12:00,93073,6e39f4d4-e990-42dc-b9a7-2a86baf5fb95
france_travail,France Travail - Vienne,4.86553049,45.5142478,30 avenue du Général-Leclerc 38200 Vienne Cedex,Mo-Fr 08:30-12:30,38544,6e441751-8a7c-458c-af1c-817283542fef
france_travail,France Travail - Pont-Audemer,0.5142173,49.3525497,8 rue du Président-Georges-Pompidou 27500 Pont-Audemer,Mo-Fr 08:30-12:30,27467,6e5fd826-6cd6-41b8-b645-587e0075a875
france_travail,France Travail - Denain,3.39271959,50.3258622,6 allée du 24-Juillet-1712 59220 Denain,Mo-Th 08:30-12:45; Fr 09:00-12:00,59172,6e793c93-f60b-49fa-8793-a6472e81ff26
france_travail,France Travail - Lens - Laloux,2.8381881,50.4387233,40 rue Hector-Laloux 62300 Lens,Mo-Th 08:30-12:45; Fr 09:00-12:00,62498,6e80d21d-8305-4693-8040-a30dfb8234df
france_travail,France Travail - Nanterre,2.1981541,48.8892326,20 rue Gambetta 92000 Nanterre,Mo-Th 09:00-13:15; Fr 09:00-12:00,92050,6e9851a2-5c82-4edd-8cb9-890fa2042446
france_travail,France Travail - Saint-Dié-des-Vosges,6.9397368,48.2888138,5 rue Marie-Marvingt 88100 Saint-Dié-des-Vosges Cedex,Mo-Fr 08:30-12:30,88413,6eccb0d1-de52-4ea7-b7c8-9a000ce54800
france_travail,France Travail - Graulhet,1.9725796,43.7606227,Avenue Rhin-et-Danube 81300 Graulhet,Mo-Fr 08:30-12:30,81105,6effd1a7-9760-442b-a7cf-ee0a2088526e
france_travail,France Travail - Noisy-le-Sec,2.4480141,48.891681,54 rue Paul-Vaillant-Couturier 93130 Noisy-le-Sec,Mo-Th 09:00-13:15; Fr 09:00-12:00,93053,6f057bcd-a195-45be-a06e-034c3bead1c9
france_travail,France Travail - Clermont-Ferrand - Pré-la-Reine,3.112003,45.7821351,20 rue du Pré-la-Reine 63000 Clermont-Ferrand,Mo-Fr 08:30-12:30,63113,6f35c115-690b-4375-b232-fc45c2bf908e
france_travail,France Travail - Saint-Étienne - Clapier,4.37909139,45.4376013,18 avenue Augustin-Dupré 42000 Saint-Étienne Cedex 1,Mo-Fr 08:30-12:30,42218,6fb2e8e3-87b0-4aa9-b089-27617109edc8
france_travail,France Travail - Lyon - Albert-Thomas,4.8697905,45.7385945,68 cours Albert-Thomas 69008 Lyon Cedex 08,Mo-Fr 08:30-12:30,69388,709b320a-a073-4a6b-8eec-f304e3d9d770
france_travail,France Travail - Maubeuge - Pasteur,3.94975049,50.2747381,60 ter boulevard Pasteur 59600 Maubeuge,Mo-Th 08:30-12:45; Fr 09:00-12:00,59392,70d12002-8a4b-44bb-a455-685c07a5bcf7
france_travail,France Travail - Nancy - Gentilly,6.1477722,48.7023657,199 rue Julie-Victoire-Daubie 54000 Nancy,Mo-Fr 08:30-12:30,54395,7117c381-569a-4cbf-935d-bae916853941
france_travail,France Travail - Montpellier - Mas-de-Grille,3.8508305,43.5747936,Rue Théophraste-Renaudot 34430 Saint-Jean-de-Védas,Mo-Fr 08:30-12:30,34270,71d6e58a-ea2d-4032-84f8-77e4ef27b745
france_travail,France Travail - Saint-Médard-en-Jalles,-0.7177952,44.8930107,59 rue Jean-Duperrier 33160 Saint-Médard-en-Jalles Cedex,Mo-Fr 08:30-12:30,33449,730f323a-137a-413c-855c-2bb38411aee6
france_travail,France Travail - Halluin,3.1277661,50.7722351,Boulevard de Roncq 59250 Halluin Cedex,Mo-Th 08:30-12:45; Fr 09:00-12:00,59279,73377f30-feca-4721-86e3-6b791d7c47fc
france_travail,France Travail - Lucé,1.463619,48.43126,1 impasse des Granges 28110 Lucé,Mo-Fr 08:45-12:45,28218,73901735-01ff-4826-8bea-c8b3e3a95196
france_travail,France Travail - Sainte-Rose,-61.6687,16.2974,ZAC de Nolivier   97115 Sainte-Rose,Mo 07:30-13:00; Tu-We 07:30-13:15; Th 07:30-13:00; Fr 07:30-11:30,97129,74282cd4-7296-4b11-b505-a0e31df9c46b
france_travail,France Travail - Morlaix,-3.8275042,48.5771506,10 rue Louis-le-Jeune 29600 Morlaix Cedex,Mo-Fr 08:30-12:30,29151,74ccc740-850a-4f7c-bfcc-c9448c3f73ea
france_travail,France Travail - Alès - Avene,4.083352,44.127204,29 chemin des Deux-Mas 30100 Alès,Mo-Fr 08:30-12:30,30007,75184c9b-2820-4527-a5ab-7c86ed24e347
france_travail,France Travail - Cayenne - Baduel,-52.2999409,4.9289388,Route de Baduel 97300 Cayenne,Mo 07:30-13:30; Tu-We 07:30-12:30; Th 07:30-13:30; Fr 07:30-12:30,97302,75187aaa-f5e3-42e0-b24d-8cf7fa5987d1
france_travail,France Travail - Rethel,4.360645,49.512802,3 rue Georges-Bizet 08300 Rethel,Mo-Fr 08:30-12:30,08362,75276985-55fb-4255-b53b-930d91ed1b2b
france_travail,France Travail - Champigny-sur-Marne,2.5195816,48.8113117,17 avenue Marx-Dormoy 94500 Champigny-sur-Marne,Mo-Th 09:00-13:15; Fr 09:00-12:00,94017,75334876-7510-4cc1-8fd7-da7e8c7ff19b
france_travail,France Travail - Martigues,5.03164279,43.4104092,124 avenue Clément-Escoffier 13500 Martigues Cedex,Mo-Fr 08:30-12:30,13056,7542faf4-2f5b-4de5-8d75-d301e130f6f3
france_travail,France Travail - Saint-Sébastien,-1.4839399999999614,47.1885,13 rue Marie-Curie 44230 Saint-Sébastien-sur-Loire,Mo-Fr 08:30-12:30,44109,75b8f387-4c9a-47df-a245-23ca5d4da77c
france_travail,France Travail - Nemours,2.7000904,48.2636894,30 avenue de Lyon 77140 Nemours,Mo-Th 09:00-13:15; Fr 09:00-12:00,77333,75fcfad7-5dcd-46ed-9231-c391f2730eff
france_travail,France Travail - Ussel,2.3123508,45.5467365,47 avenue Turgot 19200 Ussel Cedex,Mo-Fr 08:30-12:30,19275,7647fd6b-edbb-4f91-87b6-81973a151f9b
france_travail,France Travail - Lavelanet,1.851472,42.937653,Place Saint-Éxupéry 09300 Lavelanet,Mo-Fr 08:30-12:30,09160,77008de9-ed3d-4aee-8ad1-e09ebba47a43
france_travail,France Travail - Saint-Flour,3.0817459,45.0363455,16 avenue de Besserette 15100 Saint-Flour Cedex,Mo-Fr 08:30-12:30,15187,772159b6-b6ee-4ecf-a154-9cf971803e86
france_travail,France Travail - Amiens - Tellier,2.3094082,49.8909139,Rue Paul-Tellier 80000 Amiens Cedex 1,Mo-Fr 08:30-12:30,80021,77b0ed61-b583-4016-b046-4e77a12ac46f
france_travail,France Travail - Condé-sur-l'Escaut,3.585735,50.46076,89 rue de la Chaussiette 59163 Condé-sur-l'Escaut,Mo-Th 08:30-12:45; Fr 09:00-12:00,59153,78452c76-1945-4405-a455-02392d25516f
france_travail,France Travail - Bègles,-0.5507352,44.8136171,7 avenue Robert-Schuman 33130 Bègles,Mo-Fr 08:30-12:30,33039,78b65b5d-f29e-47cb-9360-591dc248b202
france_travail,France Travail - Mondeville,-0.319769,49.176963,5 rue Paul-Louis-Halley 14120 Mondeville,Mo-Fr 08:30-12:30,14437,78d6e851-e1b8-4c3e-a01f-72d647fd158f
france_travail,France Travail - Rouen - Quevilly,1.0531348,49.4131258,5 rue Fleury 76120 Le Grand-Quevilly Cedex,Mo-Fr 08:30-12:30,76322,78e5d829-3d09-4ba0-86a9-66a3aaf6843c
france_travail,France Travail - Nice - Est,7.2903375,43.7019065,30 rue Fontaine-de-la-Ville 06000 Nice Cedex 4,Mo-Fr 08:30-12:30,06088,7951765b-31d1-4b69-b951-be5512df8717
france_travail,France Travail - Saint-Benoît,55.7162776,-21.048144,4 rue des Glaïeuls 97470 Saint-Benoît,Mo-Fr 07:30-11:30; We 07:30-13:00; Th-Fr 07:30-11:30,97410,7963d3dd-70b1-4fd9-a262-b07095b43e4a
france_travail,France Travail - Fécamp,0.3823154,49.761544,122 avenue Jean-Lorrain 76400 Fécamp,Mo-Fr 08:30-12:30,76259,797f6364-59a1-4607-9480-2077c491fce6
france_travail,France Travail - Paris - 5e et 13e arrondissements - Daviel,2.344302,48.828196,27 rue Daviel 75013 Paris,Mo-Th 09:00-13:15; Fr 09:00-12:00,75113,7981be67-946c-4928-81d3-65a66eac5ee2
france_travail,France Travail - Bar-le-Duc,5.17672479999999,48.7661912,77 rue Ernest-Bradfer 55000 Bar-le-Duc Cedex,Mo-Fr 08:30-12:30,55029,79c6a76c-d6fc-4894-b4cb-52c70ee72834
france_travail,France Travail - Sin-le-Noble,3.10813959,50.3598791,309 avenue du Maréchal-Leclerc 59450 Sin-le-Noble,Mo-Th 08:30-12:45; Fr 09:00-12:00,59569,7a75adeb-4775-4452-8f91-51a7284c5086
france_travail,France Travail - Lisieux,0.2578251,49.1408149,88 avenue Guillaume-le-Conquérant 14100 Lisieux Cedex,Mo-Fr 08:30-12:30,14366,7ac268d0-f125-4ff5-838c-db96ac34089f
france_travail,France Travail - Albi,2.181118,43.918859,37 avenue Pierre-Gilles-de-Gennes 81000 Albi,Mo-Fr 08:30-12:30,81004,7ad5e34f-ddb3-4fa3-b2e5-4246fd1be55a
france_travail,France Travail - Fougères,-1.190743,48.350566,15 rue Hippolyte-Réhault 35300 Fougères Cedex,Mo-Fr 08:30-12:30,35115,7bbad75f-45fb-4cfc-8275-4158cef63e56
france_travail,France Travail - Colomiers,1.3074558000000707,43.61377969999999,25 boulevard Victor-Hugo 31770 Colomiers,Mo-Fr 08:30-12:30,31149,7c4d493b-252a-43a2-b178-45bde044bc37
france_travail,France Travail - Rueil-Malmaison,2.1998843,48.8764843,128 rue Danton 92500 Rueil-Malmaison,Mo-Th 09:00-13:15; Fr 09:00-12:00,92063,7c8f9b3b-9008-414d-8e53-e9feefaf303b
france_travail,France Travail - Castelginest,1.4267518,43.6913995,Castelginest  12 rue du Pont-Vieil 31780 Castelginest,Mo-Fr 08:30-12:30,31116,7c915d50-673b-44a0-b549-53ad7a621a15
france_travail,France Travail - Metz - Blida,6.1811859,49.1258027,3 avenue de Blida 57000 Metz Cedex 1,Mo-Fr 08:30-12:30,57463,7cfff7c2-6b92-4491-ba13-2b8617b9b061
france_travail,France Travail - Paris - 15e arrondissement - Avs indemnisation,2.2889509,48.8377941,202 rue de la Croix-Nivert 75015 Paris,Mo-Th 09:00-13:15; Fr 09:00-12:00,75115,7d6934a9-173d-403b-9948-c3a341964d56
france_travail,France Travail - Berck-sur-Mer,1.5790708,50.3981883,2 chemin des Pourrières 62600 Berck,Mo-Th 08:30-12:45; Fr 09:00-12:00,62108,7d8d9cff-618a-4c96-afb4-520e7950a9f8
france_travail,France Travail - Saint-Lô,-1.07840799999997,49.1043742,419 rue Alexis-de-Tocqueville 50008 Saint-Lô Cedex,Mo-Fr 08:30-12:30,50502,7da6456d-a494-4b60-b2f9-88f949e74afd
france_travail,France Travail - Rennes - Sud,-1.661385,48.08851,2 bis avenue des Pays-Bas 35000 Rennes Cedex 2,Mo-Fr 08:30-12:30,35238,7ddb031c-2432-4b34-bb36-dff5b390baee
france_travail,France Travail - Chaumont,5.1392559,48.113748,22 rue Jules-Chéret 52000 Chaumont Cedex 9,Mo-Fr 08:30-12:30,52121,7e4036de-f67f-47ad-9c73-5ad068e0a4e9
france_travail,France Travail - Meyzieu,4.9982598,45.7656621,20 rue de la République 69330 Meyzieu Cedex,Mo-Fr 08:30-12:30,69282,7e5523c7-6568-4356-a7a0-474732a511eb
france_travail,France Travail - Sartrouville,2.1601339,48.9372026,27 rue Lamartine 78500 Sartrouville,Mo-Th 09:00-13:15; Fr 09:00-12:00,78586,7ebe6136-56ce-4a44-80ff-d3e23312df91
france_travail,France Travail - Mont-de-Marsan,-0.4918149,43.898627,105 rue Renée-Darriet 40000 Mont-de-Marsan Cedex,Mo-Fr 08:30-12:30,40281,7ec2cee7-6579-45ee-896c-b08743c4e3ea
france_travail,France Travail - Les Mureaux,1.9108065,48.9826641,160 avenue Paul-Raoult 78130 Les Mureaux,Mo-Th 09:00-13:15; Fr 09:00-12:00,78440,7ee792c8-63af-4701-b705-41e27e0e2d23
france_travail,France Travail - Héricourt,6.75700430000006,47.5689256,33 I faubourg de Montbéliard 70400 Héricourt,Mo-Fr 08:30-12:30,70285,7f83e218-06b7-424f-857d-58f6827c53ec
france_travail,France Travail - Aurillac,2.4341685,44.9145739,9 avenue Commandant-Monraisse 15000 Aurillac Cedex,Mo-Fr 08:30-12:30,15014,8061504f-957b-458a-9590-f6b9193b4eaa
france_travail,France Travail - Draguignan,6.464993,43.5377269,105 place du 7e-Bataillon-de-Chasseurs-Alpins 83300 Draguignan,Mo-Fr 08:30-12:30,83050,80e7dcd8-de2f-45aa-9a50-b2ab54cfccf1
france_travail,France Travail - Le Cateau-Cambrésis,3.54783829,50.1030299,64 rue de Landrecies 59360 Le Cateau-Cambrésis,Mo-Th 08:30-12:30; Fr 09:00-12:00,59136,811adf09-316e-4d15-8b03-f04921f7c9a8
france_travail,France Travail - Combourg,-1.7540654,48.4185087,4 allée de Lohon 35270 Combourg,Mo-Fr 08:30-12:30,35085,812133c8-13db-4cf1-9d01-47d599d96e5e
france_travail,France Travail - Bordeaux - Nord,-0.57521650000001,44.8659556,5 place Ravezies 33070 Bordeaux Cedex,Mo-Fr 08:30-12:30,33063,813ebd92-c05a-4c01-80b6-b32929a2fdc9
france_travail,France Travail - Avranches,-1.3654841,48.6853391,2 rue des Sablonnières 50300 Avranches,Mo-Fr 08:30-12:30,50025,8142e4fe-3f85-4a5c-bab0-f4787d5dbecf
france_travail,France Travail - Friville-Escarbotin,1.54358819,50.0820693,191 bis rue Henri-Barbusse 80130 Friville-Escarbotin Cedex,Mo-Fr 08:30-12:30,80368,81da6840-7c0c-4be3-a607-ab022c5ce115
france_travail,France Travail - Mimizan,-1.070813600000065,44.3531122,113 allée Malichecq 40160 Parentis-en-Born,Mo-Fr 08:30-12:30,40184,8260e75a-ae47-429d-a84d-df239a51d49f
france_travail,France Travail - Beaupréau,-0.996883799999978,47.2087909,67 rue de la Lime 49600 Beaupréau,Mo-Fr 08:30-12:30,49023,827feb04-c271-4324-98e2-a0d1871fd996
france_travail,France Travail - Pantin,2.4226055,48.8945379,188 avenue Jean-Lolive 93500 Pantin,Mo-Th 09:00-13:15; Fr 09:00-12:00,93055,829f77f2-2890-42d6-a394-ef3091965fbe
france_travail,France Travail - Doullens,2.34772259,50.1595139,Impasse Tivoli 80600 Doullens,Mo-Fr 08:30-12:30,80253,83af97cc-8685-4088-8c22-5c6e10bae2dd
france_travail,France Travail - Coulommiers,3.1008156,48.8075197,16 rue des Longs-Sillons 77120 Coulommiers,Mo-Th 09:00-13:15; Fr 09:00-12:00,77131,8410dced-b795-42ba-a5e0-a95f60c952e3
france_travail,France Travail - Haubourdin,2.9860628,50.6102724,42 rue Pasteur 59320 Haubourdin,Mo-Th 08:30-12:45; Fr 09:00-12:00,59286,841303ff-e1e3-4a7e-8ea1-aeb382aa4858
france_travail,France Travail - Alençon,0.0906632,48.4152502,2 avenue John-Fitzgerald-Kennedy 61014 Alençon Cedex,Mo-Fr 08:30-12:30,61001,84503f4e-a0fb-43ce-a82b-de70507a76d4
france_travail,France Travail - Rambouillet,1.8399487,48.6516466,1 rue Claude-Chappe 78120 Rambouillet,Mo-Th 09:00-13:15; Fr 09:00-12:00,78517,8489b6c1-2532-4011-8131-ad9f1aeef816
france_travail,France Travail - Mantes-la-Jolie,1.7167202,48.9850305,2 bis boulevard Calmette 78200 Mantes-la-Jolie,Mo-Th 09:00-13:15; Fr 09:00-12:00,78361,84f9d61a-5a98-4ef4-a948-086e72ec19e5
france_travail,France Travail - Lyon - Confluence,4.8182918,45.7428461,59 rue Denuzière 69002 Lyon,Mo-Fr 08:30-12:30,69382,84fae16b-5804-4979-b60a-836d2713007d
france_travail,France Travail - Montigny-lès-Metz,6.1397244,49.0959077,325 rue de Pont-à-Mousson 57158 Montigny-lès-Metz,Mo-Fr 08:30-12:30,57480,85acf6e7-0406-4cdd-9365-223eaf97b41e
france_travail,France Travail - Haguenau,7.789893600000028,48.8104175,33 rue de la Redoute 67500 Haguenau,Mo-Fr 08:30-12:30,67180,85aeba5c-be76-42ad-aa46-0ac2de7dbd3b
france_travail,France Travail - Bagneux,2.3183339,48.7931841,157 rue des Blains 92220 Bagneux,Mo-Th 09:00-13:15; Fr 09:00-12:00,92007,85b23bd7-31d6-4fd2-a0de-024d19c003f2
france_travail,France Travail - Taverny,2.2241593,49.0186338,47 rue de Montmorency 95150 Taverny,Mo-Th 09:00-13:15; Fr 09:00-12:00,95607,860757d5-1e4f-4c08-b38b-39bb0d6fbd29
france_travail,France Travail - Amiens - Millevoye,2.296808,49.8868557,21 rue Millevoye 80000 Amiens Cedex 1,Mo-Fr 08:30-12:30,80021,862c04b5-0514-4ed3-b605-fcc0bdffda20
france_travail,France Travail - Dijon - Ouest,5.0092973,47.3206393,5 boulevard du Chanoine-Kir 21000 Dijon Cedex,Mo-Fr 08:30-12:30,21231,8642bf49-a17e-4253-8a55-8d7b1c06fa7c
france_travail,France Travail - Saint-Claude,5.8214502,46.3797002,20 route de Bellefontaine 39206 Saint-Claude Cedex,Mo-Fr 08:30-12:30,39478,86a73c03-a6fd-4470-80df-3cd722b1c81d
france_travail,France Travail - Neuilly-sur-Marne,2.5185,48.8551628,10 rue Jean-Perrin 93330 Neuilly-sur-Marne,Mo-Th 09:00-13:15; Fr 09:00-12:00,93050,87407bee-7740-4378-85da-ec0f7e54a6d5
france_travail,France Travail - Creutzwald,6.6958354,49.2046923,6 rue de Carling 57150 Creutzwald,Mo-Fr 08:30-12:30,57160,87ccdb85-6b0a-4ce2-957c-8b94c3cc75ef
france_travail,France Travail - Strasbourg - Hautepierre,7.7521113,48.5734053,9 rue Alfred-de-Vigny 67000 Strasbourg Cedex 2,Mo-Fr 08:30-12:30,67482,88429750-b4e0-4014-b773-64694d7f8ec7
france_travail,France Travail - Joigny,3.3937424,47.9759987,19 route de Chamvres 89300 Joigny,Mo-Fr 08:30-12:30,89206,8846812d-78d0-40ac-b80b-bd478966a216
france_travail,France Travail - Jonzac,-0.442976,45.451701,Route Saint-Germain-de-Lusignan 17500 Jonzac Cedex,Mo-Fr 08:30-12:30,17197,88cf2a20-5d69-4be8-94d7-973f87d763df
france_travail,France Travail - Gennevilliers,2.3138645,48.9232285,223 rue des Caboeufs 92230 Gennevilliers,Mo-Th 09:00-13:15; Fr 09:00-12:00,92036,88d67aa5-e21c-43c1-883b-4daa059c0193
france_travail,France Travail - Noeux-les-Mines,2.6764868,50.4630924,541 rue Nationale 62290 Noeux-les-Mines,Mo-Th 08:30-12:45; Fr 09:00-12:00,62617,890e4ff2-1b4d-4d5e-a53c-89a43608ff15
france_travail,France Travail - La Madeleine,3.07270049,50.6449104,38 allée Vauban 59110 La Madeleine,Mo-Th 08:30-12:45; Fr 09:00-12:00,59368,89d8ef47-4b3f-44cb-ad96-50556e4efd1a
france_travail,France Travail - Lure,6.502218500000026,47.6921839,32 rue René-Dumont 70204 Lure Cedex,Mo-Fr 08:30-12:30,70310,89f5f7a1-b44d-4117-b4cb-32c171c3d483
france_travail,France Travail - Pertuis,5.497151,43.678533,182 allée des Prés-Verts 84120 Pertuis Cedex,Mo-Fr 08:30-12:30,84089,89f64066-2270-4835-8755-8bd3d36514aa
france_travail,France Travail - Vitry-sur-Seine,2.3950485,48.780912,121 avenue Rouget-de-Lisle 94400 Vitry-sur-Seine,Mo-Th 09:00-13:15; Fr 09:00-12:00,94081,8a502f3a-6b49-4158-9720-483ef6f35500
france_travail,France Travail - Le Vigan,3.6243208,43.9910384,ZAC de Tessan   30120 Le Vigan,Mo-Fr 08:30-12:30,30350,8a6c5eb2-902c-4f3c-947f-a86bbcf021e8
france_travail,France Travail - Chennevières-sur-Marne,2.5471121,48.7887164,7 avenue de Pince-Vent 94430 Chennevières-sur-Marne,Mo-Th 09:00-13:15; Fr 09:00-12:00,94019,8abd3756-88a2-45e2-b1de-01c0d1776643
france_travail,France Travail - Salon-de-Provence,5.096015,43.632215,246 rue des Canesteu 13300 Salon-de-Provence,Mo-Fr 08:30-12:30,13103,8bdfc886-d94d-4cf1-91dc-183e7ab31e34
france_travail,France Travail - Le Havre - Ville-Haute,0.115978,49.520153,20 rue Léon-Peulevey 76600 Le Havre,Mo-Fr 08:30-12:30,76351,8d0dd9a6-24f3-4770-9ad2-b601a593ef1c
france_travail,France Travail - Libourne,-0.223014299999932,44.9182369,33 chemin du Casse 33500 Libourne,Mo-Fr 08:30-12:30,33243,8d37bf47-2535-43a9-b850-f1db11018c2d
france_travail,France Travail - Saint-Yrieix,1.2036707,45.5142436,Rue du 8-Mai-1945 87500 Saint-Yrieix-la-Perche,Mo-Fr 08:30-12:30,87187,8d95a950-5e73-4d83-a850-bf12bda13197
france_travail,France Travail - Poitiers - Gare,0.3387455,46.5864762,60 boulevard du Grand-Cerf 86000 Poitiers Cedex,Mo-Fr 08:30-12:30,86194,8d9b6867-3043-4656-894c-98c8abf3c4fb
france_travail,France Travail - Clichy - Clichy-la-Garenne,2.319878,48.901274,23-31 rue Morel 92110 Clichy,Mo-Th 09:00-13:15; Fr 09:00-12:00,92024,8dbf94a6-3a72-48b0-a1e2-93cad3cfdc90
france_travail,France Travail - Belfort - Thiers,6.8557639,47.6341475,14 rue Thiers 90000 Belfort,Mo-Fr 08:30-12:30,90010,8e09dc5d-1298-4fca-b7dd-ad333acc14f7
france_travail,France Travail - Arles,4.636412,43.679128,Rue Jean-Giono 13200 Arles Cedex,Mo-Fr 08:30-12:30,13004,8ea40867-94df-4381-9642-911cccbf1566
france_travail,France Travail - Le Cannet - Var,6.341427,43.390954,9 rue Ambroise-Paré 83340 Le Cannet-des-Maures,Mo-Fr 08:30-12:30,83031,8f40d924-79e7-425d-ab9c-7edc1cb0d3c9
france_travail,France Travail - Saint-Germain-en-Laye,2.06547639,48.9005651,101 rue Pereire 78100 Saint-Germain-en-Laye,Mo-Th 09:00-13:15; Fr 09:00-12:00,78551,8f4f823c-eaae-4f44-b925-bc4a09870587
france_travail,France Travail - Poitiers - Grand-Large,0.3399673,46.5497594,2 allée de la Calypso 86281 Saint-Benoît Cedex,Mo-Fr 08:30-12:30,86214,8f53f2ad-ecbe-4ca7-a1b5-8b30b76ebb17
france_travail,France Travail - Wissembourg,7.94454,49.036858,2 rue Marie-Gross-Herrel 67160 Wissembourg,Mo-Fr 08:30-12:30,67544,8f66cd9a-c8b7-40a4-86b3-3999c6464c80
france_travail,France Travail - Nîmes - Saint-Césaire,4.3104806,43.8146764,3788 avenue Kennedy 30000 Nîmes,Mo-Fr 08:30-12:30,30189,8f72d872-87a8-4e75-b2c2-a2e51a0876be
france_travail,France Travail - Schoelcher-Madiana,-61.0990335,14.6150906,40 avenue de Madiana 97233 Schoelcher,Mo-Fr 07:30-12:00,97229,8fb30c3e-972c-457d-bc3e-8d2014966d38
france_travail,France Travail - Limoges - Ventadour,1.2686716,45.8118215,18 rue Paul-Claudel 87000 Limoges Cedex 1,Mo-Fr 08:30-12:30,87085,90c16cef-77f8-425c-9a7a-d1c64506ee6a
france_travail,France Travail - Point-Relais-Château-Chinon,3.934405,47.062606,6 place Notre-Dame 58120 Château-Chinon,Mo-Fr 08:30-12:30,58062,924076a3-aa12-451b-8fbe-8830c0396a22
france_travail,France Travail - Trappes,2.0091753,48.7694719,130 avenue des Bouleaux 78190 Trappes,Mo-Th 09:00-13:15; Fr 09:00-12:00,78621,9262f3a2-8d22-4bfa-a0f4-6894b5e66081
france_travail,France Travail - Saint-Quentin - Péri,3.2826306,49.8446792,53 rue Gabriel-Péri 02100 Saint-Quentin Cedex,Mo-Fr 08:30-12:30,02691,92a491da-54e3-4125-8958-c0f9777f121d
france_travail,France Travail - Chambéry - Grand-Verger,5.9085568,45.5761432,272 rue François-Guise 73000 Chambéry Cedex,Mo-Fr 08:30-12:30,73065,92c79ee4-c5ab-4231-9c41-4ff6e998b758
france_travail,France Travail - Cherbourg - LaNoé,-1.5917609,49.6302591,100 impasse des Cerisiers 50110 Tourlaville,Mo-Fr 08:30-12:30,50129,930494ba-8529-4ca6-a018-9a851512d1e8
france_travail,France Travail - Paris - 19e arrondissement - Laumière,2.3780374,48.8851145,75 avenue Jean-Jaurès 75019 Paris,Mo-Th 09:00-13:15; Fr 09:00-12:00,75119,93467ec4-ea5d-4d75-889e-5484dd03b76d
france_travail,France Travail - Saint-Étienne-du-Rouvray,1.0740161,49.3981817,7 rue Abel-Gance 76800 Saint-Étienne-du-Rouvray,Mo-Fr 08:30-12:30,76575,93a4889f-b660-4f1b-bb73-2d648163dff0
france_travail,France Travail - Marseille - Pharo,5.36437079,43.28931619,23 avenue de la Corse 13007 Marseille Cedex 07,Mo-Fr 08:30-12:30,13207,9402ef2f-40e6-4eea-9edb-505c92b4bb47
france_travail,France Travail - Villefranche-sur-Saône,4.72773119,45.980038,588 boulevard Albert-Camus 69400 Villefranche-sur-Saône Cedex,Mo-Fr 08:30-12:30,69264,9406cc64-b3e3-433a-87bf-bc2137f34254
france_travail,France Travail - Tours - Ronsard,0.7057844,47.4218957,106 rue Ronsard 37000 Tours Cedex 2,Mo-Fr 08:45-12:45,37261,9471cfc7-92d6-4bc0-b1f6-9c3b2578763e
france_travail,France Travail - Villefranche-de-Rouergue,2.0369176,44.3512982,Chemin de 13-Pierres 12200 Villefranche-de-Rouergue,Mo-Fr 08:30-12:30,12300,94835258-efa1-48da-888b-31eb2da085c7
france_travail,France Travail - L'Aigle,3.95269919999998,50.4574962,1 place du Parc 61300 L'Aigle Cedex,Mo-Fr 08:30-12:30,61214,95332db5-a96e-4099-96c1-62a7b11403ca
france_travail,France Travail - Toulouse - Saint-Michel,1.4482208,43.5840563,2 avenue de l'URSS 31000 Toulouse,Mo-Fr 08:30-12:30,31555,95415584-de4f-4949-a39a-7469dc64d2df
france_travail,France Travail - Niort - Trévins,-0.3755613,46.3467269,275 rue du Stade 79000 Niort Cedex,Mo-Fr 08:30-12:30,79191,95686cb0-b3d3-4ca3-9ffe-20f81b7eb353
france_travail,France Travail - Verdun,5.3850247,49.1681803,Rue Robert-Cotte 55100 Verdun,Mo-Fr 08:30-12:30,55545,9587b398-8625-4617-96e1-6d6de21a1463
france_travail,France Travail - Brive - La Marquisie,1.4790332,45.1558702,Rue Ernest-Comte 19100 Brive-la-Gaillarde,Mo-Fr 08:30-12:30,19031,95981c2f-81f6-4a40-bd1b-c51f9f311e6a
france_travail,France Travail - Neuville-sur-Saône,4.8360468,45.8799324,4 avenue Carnot 69250 Neuville-sur-Saône,Mo-Fr 08:30-12:30,69143,95ec01d2-d265-4176-8536-7f5afea8840c
france_travail,France Travail - Pézenas,3.413067,43.449051,ZA les Rodettes   34120 Pézenas,Mo-Fr 08:30-12:30,34199,96409367-8819-4e5d-ae89-85cc3f272ba5
france_travail,France Travail - Céret,2.748826,42.485952,6 rue Barbet 66400 Céret,Mo-Fr 08:30-12:30,66049,9655f093-cb38-4d91-9701-1c31e208b247
france_travail,France Travail - Quimper - Nord,-4.0950342,48.0158494,29 route de Ty-Nay 29000 Quimper Cedex,Mo-Fr 08:30-12:30,29232,96580b37-1d10-4331-94a2-32724c7007e1
france_travail,France Travail - Le Mans - Les Sablons,0.2334976,47.9962573,20 rue de Corse 72000 Le Mans,Mo-Fr 08:30-12:30,72181,966ad31f-a3e3-4f85-a21d-f9d6e765f0f0
france_travail,France Travail - Tourcoing - Gand,3.1690189,50.717187,64 avenue Alfred-Lefrançois 59200 Tourcoing,Mo-Th 08:30-12:45; Fr 09:00-12:00,59599,9694ccc8-0d10-4a16-b084-4e8c99f9a75f
france_travail,France Travail - Aulnoye-Aymeries,3.84520299,50.1989262,6 rue Jean-Jaurès 59620 Aulnoye-Aymeries,Mo-Th 08:30-12:45; Fr 09:00-12:00,59033,96acc0cc-2438-488f-b066-e0785bc80c37
france_travail,France Travail - Sarrebourg,7.0427284,48.7207406,2 bis Terrasse-de-Bretagne 57400 Sarrebourg Cedex,Mo-Fr 08:30-12:30,57630,96c679cf-baf9-4175-b23a-aaef82396975
france_travail,France Travail - Rodez,2.575986,44.349389,245 rue du Docteur-Théodore-Mathieu 12000 Rodez,Mo-Fr 08:30-12:30,12202,96fa9e4d-ebe8-44cf-81f7-a8aa149e44c1
france_travail,France Travail - Landerneau,-4.257162,48.450255,59 rue de Brest 29800 Landerneau Cedex,Mo-Fr 08:30-12:30,29103,97032f2f-0891-49d9-ac32-7c7690144e5c
france_travail,France Travail - Créteil,2.4726752,48.7636166,45 rue Auguste-Perret 94000 Créteil,Mo-Th 09:00-13:15; Fr 09:00-12:00,94028,97202811-d2b2-4253-8c14-5a8c5ba490bd
france_travail,France Travail - Reims - La Neuvillette,4.0251907,49.2849246,9 rue Charles-Guggiari 51100 Reims Cedex 3,Mo-Fr 08:30-12:30,51454,9751d891-7107-446d-ac99-dd282c627c9e
france_travail,France Travail - Six-Fours,5.8420874,43.1091386,165 chemin du Négadoux 83140 Six-Fours-les-Plages Cedex,Mo-Fr 08:30-12:30,83129,9768d66b-e52f-4172-8df9-1435d9962d46
france_travail,France Travail - Tassin-la-demi-Lune,4.7764267,45.7578001,3 avenue du Général-Brosset 69160 Tassin-la-Demi-Lune,Mo-Fr 08:30-12:30,69244,97f40558-6ac9-4b0d-90bb-b95595a54754
france_travail,France Travail - Beauvais - Mykonos,2.10567979,49.4391253,2 rue Setubal 60000 Beauvais Cedex,Mo-Fr 08:30-12:30,60057,981be412-4fed-4a6d-a65c-e46f6f871f01
france_travail,France Travail - Carhaix,-3.580563,48.258156,1 rue de Kerven 29270 Carhaix-Plouguer Cedex,Mo-Fr 08:30-12:30,29024,983de2a9-f79b-43ab-af65-f6fe606ce818
france_travail,France Travail - Toul,5.89215730000001,48.6814687,90 avenue du Colonel-Pechot 54200 Toul Cedex,Mo-Fr 08:30-12:30,54528,988deda3-62d1-4935-9cb9-638c8ecbf73a
france_travail,France Travail - Cournon,3.2103095,45.7436203,12 avenue Jules-Ferry 63800 Cournon-d'Auvergne Cedex,Mo-Fr 08:30-12:30,63124,98fd4846-a76e-4a7d-a3e6-519cac354256
france_travail,France Travail - Saint-André,55.66196,-20.9631621,494 rue Andropolis 97440 Saint-André,Mo-Fr 07:30-11:30; We 07:30-13:00; Th-Fr 07:30-11:30,97409,993dc3ee-71f6-47cb-88c8-5986b8109a0a
france_travail,France Travail - Versailles,2.13752239,48.7979034,24 rue de Vergennes 78000 Versailles,Mo-Th 09:00-13:15; Fr 09:00-12:00,78646,99590518-1961-49ba-ac73-00ca088b612a
france_travail,France Travail - Aulnay-sous-Bois,2.488193,48.9495707,135 rue Jacques-Duclos 93600 Aulnay-sous-Bois,Mo-Th 09:00-13:15; Fr 09:00-12:00,93005,996e9ebc-33ff-4167-a3f6-62cfa8735c24
france_travail,France Travail - Saint-Dizier,4.9524331,48.6318016,4 rue Godard-Jeanson 52100 Saint-Dizier Cedex,Mo-Fr 08:30-12:30,52448,999b60d3-f3de-48c4-925c-b85761396d89
france_travail,France Travail - Blaye,-0.6607045,45.12877,14 rue Adélaïde-Hautval 33390 Blaye,Mo-Fr 08:30-12:30,33058,9a46bc13-a535-4181-8fdc-7caa7d342e3e
france_travail,France Travail - Saint-Quentin - Cordier,3.2973733,49.838518,8 boulevard Cordier 02100 Saint-Quentin Cedex,Mo-Fr 08:30-12:30,02691,9a52b4ce-a7b0-43cb-94de-552d67200085
france_travail,France Travail - Sarcelles,2.3785669,48.9791626,43 avenue Paul-Valéry 95200 Sarcelles,Mo-Th 09:00-13:15; Fr 09:00-12:00,95585,9b061278-cfc3-48f0-b734-425697b326c8
france_travail,France Travail - Brunoy,2.5064483,48.7021289,13 rue de Cercay 91800 Brunoy,Mo-Th 09:00-13:15; Fr 09:00-12:00,91114,9b439776-20a1-45cf-8b43-f10a29eda5f7
france_travail,France Travail - Ancenis,-1.1799589,47.3755609,336 rue de Chateaubriand 44150 Ancenis,Mo-Fr 08:30-12:30,44003,9b72822b-b4c8-484e-a16e-eca55fbab0c0
france_travail,France Travail - Thann,7.0907926,47.8142989,17 A faubourg des Vosges 68800 Thann,Mo-Fr 08:30-12:30,68334,9b9355f5-0971-4e22-8759-a3efd4004afe
france_travail,France Travail - Maisons-Alfort,2.4391051,48.810194,39 avenue Gambetta 94700 Maisons-Alfort,Mo-Th 09:00-13:15; Fr 09:00-12:00,94046,9bae457d-fb7f-444a-b1e7-3d43183c86fd
france_travail,France Travail - Bezons,2.229574,48.929001,1 boulevard du Général-Delambre 95870 Bezons,Mo-Th 09:00-13:15; Fr 09:00-12:00,95063,9be2781d-9ebd-4582-84e3-d12196f24e1b
france_travail,France Travail - La Possession,55.3232637,-20.9613626,15 rue du Moulin-Joli 97419 La Possession,Mo-Fr 07:30-11:30; We 07:30-13:00; Th-Fr 07:30-11:30,97408,9bfa5fa0-0d69-415b-b1d8-2c7ebe005450
france_travail,France Travail - Saint-Maur-des-Fossés,2.4849153,48.8011756,16 rue Léon-Bocquet 94100 Saint-Maur-des-Fossés,Mo-Th 09:00-13:15; Fr 09:00-12:00,94068,9c00f77d-8184-400c-a518-0535fcb865b7
france_travail,France Travail - Issoudun,1.9944779,46.9496193,Rue Georges-Brassens 36100 Issoudun,Mo-Fr 08:45-12:45,36088,9cf6f6b5-124d-499e-ba23-b59bf7b0ddfe
france_travail,France Travail - Trévoux,4.75477139,45.94233029,527 allée de Fétan 01600 Trévoux Cedex,Mo-Fr 08:30-12:30,01427,9d8ee061-0f9d-4e9c-9934-8a8d6107a3d0
france_travail,France Travail - Savigny-sur-Orge,2.334126,48.692108,11 avenue de Garigliano 91600 Savigny-sur-Orge,Mo-Th 09:00-13:15; Fr 09:00-12:00,91589,9dcf8677-c111-489b-a78e-404d696caa63
france_travail,France Travail - Bourges - Prospective,2.3948252,47.1067549,111 avenue de la Prospective 18000 Bourges Cedex,Mo-Fr 08:45-12:45,18033,9dde1de6-2804-4871-8c0e-4b71d45c6b3f
france_travail,France Travail - Lille - Vaucanson,3.0941404,50.6295748,21 rue de Vaucanson 59000 Lille,Mo-Th 08:30-12:45; Fr 09:00-12:00,59350,9e3c38c2-bfbf-4bec-987f-e90837f649bd
france_travail,France Travail - Rouen - Maromme,1.0455882,49.4820459,116 rue des Martyrs-de-la-Résistance 76150 Maromme Cedex,Mo-Fr 08:30-12:30,76410,9e9b00b9-4579-4a4d-8e45-4fb658850702
france_travail,France Travail - Givors,4.76703659,45.5847578,18 rue Jacques-Prevert 69700 Givors Cedex,Mo-Fr 08:30-12:30,69091,9ed973f3-d99c-4f7e-81ac-3acaad8cc895
france_travail,France Travail - Poissy,2.0422722,48.932997,2 place Georges-Pompidou 78300 Poissy,Mo-Th 09:00-13:15; Fr 09:00-12:00,78498,9f27c159-2121-4c46-a305-6f43061ec7ff
france_travail,France Travail - Charleville-Mézières - Montjoly,4.7140257,49.7731903,106 rue Bourbon 08000 Charleville-Mézières Cedex,Mo-Fr 08:30-12:30,08105,9f36ed02-4a40-402d-8d6a-e4a12ef98957
france_travail,France Travail - Vervins,3.9171711,49.8359978,23 rue Marc-l'Escarbot 02140 Vervins,Mo-Fr 08:30-12:30,02789,a0044364-b8bb-441b-bcab-1808d4bf6452
france_travail,France Travail - Pierrelatte,4.705814,44.370606,2 bis rue James-Watt 26700 Pierrelatte Cedex,Mo-Fr 08:30-12:30,26235,a0a586a1-a2fa-4e28-b075-b6b7ce92fbd1
france_travail,France Travail - Domont,2.3411353,49.0284863,2 rue des Charbonniers 95330 Domont,Mo-Th 09:00-13:15; Fr 09:00-12:00,95199,a0c49f93-7aee-4a8f-8688-aaaeb976556d
france_travail,France Travail - Pontivy,-2.9684707,48.081554,1 rue Kristen-Nogues 56300 Pontivy Cedex,Mo-Fr 08:30-12:30,56178,a1405d2c-3c05-4ec6-8103-4e95f964ed39
france_travail,France Travail - Bobigny,2.4402903,48.9058834,49 rue Miriam-Makeba 93000 Bobigny,Mo-Th 09:00-13:15; Fr 09:00-12:00,93008,a16824fd-3de3-4c1f-9e02-9a574a5f7e71
france_travail,France Travail - Besançon - Planoise,5.9688745,47.2180305,8 rue Marc-Bloch 25000 Besançon Cedex,Mo-Fr 08:30-12:30,25056,a18b7216-aa5a-42f4-ab53-6e4f716f6271
france_travail,France Travail - Briançon,6.6326842,44.8944621,6 avenue du Général-de-Gaulle 05100 Briançon,Mo-Fr 08:30-12:30,05023,a2314dda-6110-491d-a28c-cef9201732ba
france_travail,France Travail - Valence - Briffaut,4.9203067,44.9248197,354 A avenue de Chabeuil 26000 Valence Cedex 9,Mo-Fr 08:30-12:30,26362,a253d593-cc5e-4edb-b9ae-46608b7475bd
france_travail,France Travail - Vannes - Est,-2.7357073,47.6538649,17 route de Nantes 56860 Séné,Mo-Fr 08:30-12:30,56260,a27b3e07-0f7a-4350-9a78-aa07a1a58fd7
france_travail,France Travail - Lesparre-Médoc,-0.943940600000019,45.3050406,7 chemin de Pradal 33340 Lesparre-Médoc,Mo-Fr 08:30-12:30,33240,a2980316-93f2-4621-bd16-77428f220471
france_travail,France Travail - Carmaux,2.1523199,44.0516359,28 rue de la Verrerie 81400 Carmaux,Mo-Fr 08:30-12:30,81060,a3d3695f-d7ae-4c41-ac00-2cbcf50c5b84
france_travail,France Travail - Le Creusot,4.4415747,46.7953242,30 B rue de Chanzy 71200 Le Creusot Cedex,Mo-Fr 08:30-12:30,71153,a3dd234a-0a62-4e20-8a4f-42a389766b16
france_travail,France Travail - Avignon - Joly-Jean,4.827589,43.92945,15 rue Madame-de-Sévigné 84000 Avignon Cedex 9,Mo-Fr 08:30-12:30,84007,a46f287f-4091-46a6-837b-4e844637c362
france_travail,France Travail - Le Tréport,1.3831762,50.0582338,4 ter rue de la Digue 76470 Le Tréport,Mo-Fr 08:30-12:30,76711,a4744f58-6e60-45f7-af41-0f6b891ac5f7
france_travail,France Travail - Saint-Amand-les-Eaux,3.4224804,50.4442866,84 rue Henri-Barbusse 59230 Saint-Amand-les-Eaux,Mo-Th 08:30-12:45; Fr 09:00-12:00,59526,a56090e7-dbc8-447b-bba8-8146e11814b3
france_travail,France Travail - Lillers,2.48001969,50.5607714,1 rue de la Gare 62190 Lillers Cedex,Mo-Th 08:30-12:45; Fr 09:00-12:00,62516,a5d428c9-2b03-405f-8433-0c293bc8f894
france_travail,France Travail - Lyon - Croix-Rousse,4.829457,45.7787296,49 rue de Cuire 69004 Lyon,Mo-Fr 08:30-12:30,69384,a5ee6b27-336f-49cf-b1c9-20dd1927bb8d
france_travail,France Travail - Tarare,4.43534,45.8942251,9 rue Rosset 69170 Tarare Cedex,Mo-Fr 08:30-12:30,69243,a6c9cec2-3136-4af3-b2d6-7bc5bf365b75
france_travail,France Travail - Le Port,55.3117511153291,-20.9422942562421,23 rue Sully-Prud'Homme 97420 Le Port Cedex,Mo-Fr 07:30-11:30,97407,a73a9f05-0562-4141-8cfc-ebea40b4aaca
france_travail,France Travail - Saint-Louis - Bel-Air,55.4000709,-21.288196,20 rue de l'Étang 97872 Saint-Louis Cedex,Mo-Fr 07:30-11:30; We 07:30-13:00; Th-Fr 07:30-11:30,97414,a7595e45-0ae8-4414-9981-671edb0e1e56
france_travail,France Travail - Périgueux - Littre,0.718982,45.1802474,1 rue Littre 24000 Périgueux Cedex,Mo-Fr 08:30-12:30,24322,a7ad954a-105c-4417-ab15-f17622784e20
france_travail,France Travail - Saint-Martin-d'Hères,5.7542172,45.184174,22 avenue Benoît-Frachon 38400 Saint-Martin-d'Hères Cedex,Mo-Fr 08:30-12:30,38421,a7f6dfb8-36f8-4fef-85cc-9140f42e7413
france_travail,France Travail - Brie-Comte-Robert,2.6114453,48.6859305,Rue du 19-Mars-1962 77170 Brie-Comte-Robert,Mo-Th 09:00-13:15; Fr 09:00-12:00,77053,a8741eef-03b2-4193-bbab-88644f5e14bd
france_travail,France Travail - Thiers,3.5463838,45.8579075,20 rue des Docteurs-Dumas 63300 Thiers Cedex,Mo-Fr 08:30-12:30,63430,a8894445-2bc9-4917-9544-9ee8cd60f0c7
france_travail,France Travail - Propriano,8.8991675,41.675618,Rue de la Marine 20110 Propriano,Mo-Fr 08:30-12:30,2A249,a92bb6fe-1a29-471c-a737-9ba47e7096d6
france_travail,France Travail - Reims - Bezannes,4.0043714,49.2237689,Bezannes  51 rue Louis-Néel 51430 Bezannes Cedex 2,Mo-Fr 08:30-12:30,51058,a94b13f6-7b92-4646-9cf7-453e8f5abacd
france_travail,France Travail - Montbard-Châtillon,4.3380255,47.6251724,Passage Georges-Brassens 21500 Montbard,Mo-Fr 08:30-12:30,21425,a98efac4-9036-44da-b54f-b8451b005804
france_travail,France Travail - Dole,5.4705359,47.0842541,22 rue Pablo-Neruda 39100 Dole Cedex,Mo-Fr 08:30-12:30,39198,a9b02912-f810-436d-a704-cee30b3fe4e6
france_travail,France Travail - Honfleur,-1.60123929999997,48.837025,2 A rue des Corsaires 14600 Honfleur Cedex,Mo-Fr 08:30-12:30,14333,a9deffb4-fe3a-46e2-ad2b-42c00f16965b
france_travail,France Travail - Privas,4.599039,44.735269,Quartier Chamaras 07000 Privas Cedex,Mo-Fr 08:30-12:30,07186,aa252ea6-2dd8-4ce6-a9f1-9c42a851fa9f
france_travail,France Travail - Souillac,1.466593,44.9021248,Place de la Gare 46200 Souillac,Mo-Fr 08:30-12:30,46309,aac82057-b129-4d50-b8fc-8fa25dc66e2f
france_travail,France Travail - Troyes - Langevin,4.0760215,48.296073,1 place du Professeur-Langevin 10000 Troyes Cedex,Mo-Fr 08:30-12:30,10387,aae3cbad-e5cf-4c63-bc54-c5ebf0e49968
france_travail,France Travail - Kourou,-52.6493342,5.1611312,1 rue de la Crèche 97310 Kourou,Mo 07:30-13:30; Tu-We 07:30-12:30; Th 07:30-13:30; Fr 07:30-12:30,97304,ab36c448-5aaf-48d1-873f-d105e475950b
france_travail,France Travail - Neufchâteau,5.6909213,48.3537801,110 quai Jean-Moulin 88300 Neufchâteau Cedex,Mo-Fr 08:30-12:30,88321,ab6d63c5-cfbc-42cd-98b1-7ea2d646ee30
france_travail,France Travail - Nancy - Joffre,6.1788512,48.6869709,Bâtiment D1  32 boulevard Joffre 54000 Nancy Cedex,Mo-Fr 08:30-12:30,54395,abe29599-34c1-49fd-823a-226498b721c2
france_travail,France Travail - Altkirch,7.2261971,47.6257357,39 avenue du 8e-Régiment-de-Hussards 68130 Altkirch Cedex,Mo-Fr 08:30-12:30,68004,ac2daac6-fbe9-44e2-8d02-995175c14c87
france_travail,France Travail - Marseille - Pont-de-Vivaux,5.42005,43.284261,250 boulevard Mireille-Lauze 13010 Marseille,Mo-Fr 08:30-12:30,13209,ac38170a-fb85-4319-9d0b-8f6474da30b7
france_travail,France Travail - Saint-Brieuc - Ouest,-2.8000653,48.5188503,25 rue de la Hunaudaye 22000 Saint-Brieuc Cedex 2,Mo-Fr 08:30-12:30,22278,ac83331e-09b8-4843-a219-451d3cc36d61
france_travail,France Travail - Angers - Capucins,-0.5649073,47.4908917,14 rue du Général-Lizé 49000 Angers,Mo-Fr 08:30-12:30,49007,acce00e7-bdd6-4bca-8aff-af2aceaf0239
france_travail,France Travail - Chinon,0.2515572,47.1636156,27 avenue Gambetta 37500 Chinon,Mo-Fr 08:45-12:45,37072,ad465e86-74bd-4520-8dee-793238f3dc51
france_travail,France Travail - Béthune,2.6253725,50.5235924,230 rue de la Faïencerie 62400 Béthune,Mo-Th 08:30-12:45; Fr 09:00-12:00,62119,ad6b32e3-ae94-4eea-8496-3bf5c3685f3f
france_travail,France Travail - Perpignan - Polygone,2.8946817,42.7331003,331 rue Beau-de-Rochas 66000 Perpignan,Mo-Fr 08:30-12:30; Th 08:30-12:30; Fr 08:30-15:30,66136,ada289e3-f5f6-42b5-b7c1-b0f1f314fd5c
france_travail,France Travail - Arpajon,2.2392793,48.5849104,2 route d'Egly 91290 Arpajon,Mo-Th 09:00-13:15; Fr 09:00-12:00,91021,adafcf8f-15c4-4293-8ead-8b04d4f2668e
france_travail,France Travail - Herblay,2.1814905,49.0005332,93 rue de la Marne 95220 Herblay,Mo-Th 09:00-13:15; Fr 09:00-12:00,95306,adb5a808-0642-4995-877a-b2e2b35e2dca
france_travail,"France Travail - Paris - 1er, 2e, 3e et 4e arrondissements - Paul-Lelong",2.3432384,48.8678544,4 rue Paul-Lelong 75002 Paris,Mo-Th 09:00-13:15; Fr 09:00-12:00,75104,ade77285-25ea-4e67-8c40-a8bb440933a9
france_travail,France Travail - Saint-Herblain,-1.6136851,47.2106229,4 rue de la Gironde 44800 Saint-Herblain,Mo-Fr 08:30-12:30,44162,adf57a20-75f2-4b39-8da7-c6bdfa43be7e
france_travail,France Travail - Firminy,4.285220900000013,45.3816323,3 rue de l'École 42700 Firminy Cedex,Mo-Fr 08:30-12:30,42095,aebe51cc-c216-4956-abc4-514f51e83cf7
france_travail,France Travail - Laon,3.602249,49.557626,Avenue du Maréchal-Foch 02000 Laon,Mo-Fr 08:30-12:30,02408,af58cb50-6e4f-4655-a489-9b7ea2c68899
france_travail,France Travail - Mitry-Mory,2.6421596,48.9739069,3 rue Paul-Gauguin 77290 Mitry-Mory,Mo-Th 09:00-13:15; Fr 09:00-12:00,77294,afc26701-577f-4ee9-bc48-f2ae6fcba89c
france_travail,France Travail - Saintes - Saint-Georges,-0.668322900000021,45.7543547,5 ZAC la Bobinerie 17100 Saintes Cedex,Mo-Fr 08:30-12:30,17415,b014dc5a-ea7b-47dc-96a2-39f589d6b7ff
france_travail,France Travail - Dunkerque,2.37948099,51.0413147,9 rue du Jeu-de-Mail 59140 Dunkerque,Mo-Th 08:30-12:45; Fr 09:00-12:00,59183,b029b2dc-52a6-40d0-8061-43e01a5675d5
france_travail,France Travail - Beaucaire,4.613698,43.8115126,1133 chemin de Clapas-de-Cornut 30300 Beaucaire,Mo-Fr 08:30-12:30,30032,b02aa80e-0814-491e-a859-390e1a8f8bed
france_travail,France Travail - Bergerac,0.4741083,44.8574399,2 rue Rudolf-Noureev 24100 Bergerac,Mo-Fr 08:30-12:30,24037,b0653ce8-e3ab-4d49-9b2b-1aa753d612eb
france_travail,France Travail - Bordeaux - Saint-Jean,-0.5617422,44.8250631,4 rue Bac-Ninh 33000 Bordeaux Cedex,Mo-Fr 08:30-12:30,33063,b090bb72-ca75-49d6-98da-58060366928e
france_travail,France Travail - Ville-la-Grand,6.24236619,46.1980687,21 rue des Tournelles 74100 Ville-la-Grand,Mo-Fr 08:30-12:30,74305,b1330ea5-dd64-463a-94f8-637fa2ce0566
france_travail,France Travail - Saint-Martin,-63.0817027,18.0689878,Marigot  22 rue Léopold-Mingau-Concordia 97150 Saint-Martin,Mo 07:30-13:00; Tu-We 07:30-13:15; Th 07:30-13:00; Fr 07:30-11:30,97801,b1c9fa95-cffc-4a91-8291-47a6f23e752f
france_travail,France Travail - Morne-à-l'Eau,-61.512275,16.306868,150 route Marie-Émile-Coco 97111 Morne-à-l'Eau,Mo 07:30-13:00; Tu-We 07:30-13:15; Th 07:30-13:00; Fr 07:30-11:15,97116,b2de06b7-6cd2-43a8-a5e2-abc28ca21f51
france_travail,France Travail - Wattrelos,3.23302409,50.6925805,1 allée des Fabricants 59150 Wattrelos,Mo-Th 08:30-12:45; Fr 09:00-12:00,59650,b351ee9c-ef86-494f-8590-82685d13195d
france_travail,France Travail - Challans,-1.884682,46.835638,40 rue Pierre-Gilles-de-Gennes 85300 Challans,Mo-Fr 08:30-12:30,85047,b3571133-146a-413a-bcdd-06c1d6e02abb
france_travail,France Travail - Quimperlé,-3.5808876,47.8667464,11 bis rue Éric-Tabarly 29300 Quimperlé Cedex,Mo-Fr 08:30-12:30,29233,b3c65d54-3934-4d7b-b89c-26e4af2368e0
france_travail,France Travail - Castres,2.233826,43.592763,68 boulevard Pierre-Mendès-France 81100 Castres,Mo-Fr 08:30-12:30,81065,b3f603a6-70ce-467e-a454-93bd67f7da91
france_travail,France Travail - Rochefort,-1.168928,46.165968,4 place François-Blondel 17300 Rochefort,Mo-Fr 08:30-12:30,17299,b422cbd6-880d-4cec-ba46-6eb3051b9d4b
france_travail,France Travail - Mâcon,4.8291874,46.306324,1000 avenue Maréchal-de-Lattre-de-Tassigny 71870 Mâcon,Mo-Fr 08:30-12:30,71270,b453ba61-6951-407b-a3ad-dcb13a13f2f8
france_travail,France Travail - Montauban - Nord,1.37145899999996,44.0323062,124 rue de Pater 82000 Montauban,Mo-Fr 08:30-12:30,82121,b4a120f5-a92f-4a81-b6c1-0f888dab768e
france_travail,France Travail - Guingamp,-3.1446357,48.5585375,6 rue du 48e-Régiment-d'Infanterie 22200 Guingamp Cedex,Mo-Fr 08:30-12:30,22070,b4a7cb67-a542-4e02-8439-b55790ba03e8
france_travail,France Travail - Quimper - Sud,-4.0747356,47.9814399,50 rue du Président-Sadate 29000 Quimper,Mo-Fr 08:30-12:30,29232,b4abee7f-0490-493d-a452-95fd8cae473b
france_travail,France Travail - Colombes,2.2525183,48.9167237,102 avenue Henri-Barbusse 92700 Colombes,Mo-Th 09:00-13:15; Fr 09:00-12:00,92025,b4eb2f12-94fe-4e4e-9b0d-d4f315009f04
france_travail,France Travail - Roanne,4.07170589,46.0406329,2 rue des Fossés 42300 Roanne Cedex,Mo-Fr 08:30-12:30,42187,b573ed96-06a8-4629-8bab-3ccee7770f92
france_travail,France Travail - Hazebrouck,2.54812549,50.7227672,27 rue du Fer-à-Cheval 59190 Hazebrouck Cedex,Mo-Th 08:30-12:45; Fr 09:00-12:00,59295,b633f235-b337-4dda-a014-23cf140a1c42
france_travail,France Travail - Tours - Deux-Lions,0.680453,47.3657364,40 rue James-Watt 37000 Tours Cedex 3,Mo-Fr 08:45-12:45,37261,b67aa682-c196-4ae6-bd8d-a676c1b08a96
france_travail,France Travail - Saint-Maximin,2.467657,49.241542,415 rue Claire-Lacombe 60740 Saint-Maximin Cedex,Mo-Fr 08:30-12:30,60589,b69b47bb-2d9d-4298-a1d3-080d36b3d03d
france_travail,France Travail - Blois - Gare,1.3241,47.584316,9 rue Auguste-Poulain 41000 Blois,Mo-Fr 08:45-12:45,41018,b7369774-55db-4e36-9c46-d89048885e39
france_travail,France Travail - Antibes - Vallauris,7.096054,43.597312,1547 chemin des Combes 06600 Antibes,Mo-Fr 08:30-12:30,06004,b7464b0f-bbd0-46cd-a12d-cb5c68066ad6
france_travail,France Travail - Épernay,3.9613529,49.0504371,2 rue Marcel-Paul 51200 Épernay Cedex,Mo-Fr 08:30-12:30,51230,b75edee7-07df-46d8-b34d-25862feff97d
france_travail,France Travail - Aubervilliers,2.3912841,48.9107503,124 rue Henri-Barbusse 93300 Aubervilliers,Mo-Th 09:00-13:15; Fr 09:00-12:00,93001,b785f188-0210-4ec9-b257-7e0caaf0c597
france_travail,France Travail - Boulogne-sur-Mer,1.6107841,50.718847,135 boulevard Daunou 62200 Boulogne-sur-Mer,Mo-Th 08:30-12:45; Fr 09:00-12:00,62160,b82db6f6-7866-4e14-a530-7ea2836e782a
france_travail,France Travail - Mayenne,-0.7209155,48.1544425,8 rue de Charles-de-Blois 53100 Mayenne,Mo-Fr 08:30-12:30,53147,b867659e-5a97-43af-9b85-fc319fa9caa5
france_travail,France Travail - Miramas,4.997780000000034,43.5762,4 boulevard du Docteur-Jacques-Minet 13140 Miramas Cedex,Mo-Fr 08:30-12:30,13063,b870526d-3494-4729-b407-215ba59a8bae
france_travail,France Travail - Basse-Terre - Desmarais,-61.7158484,16.0014667,Rue Mauchanal 97100 Basse-Terre,Mo 07:30-13:00; Tu-We 07:30-13:15; Fr 07:30-13:00; Fr 07:30-11:30,97105,b894f762-6689-40dd-8939-f37bf6a3d086
france_travail,France Travail - Béziers - Courondelle,3.215795,43.344233,75 boulevard Colette-Besson 34500 Béziers,Mo-Fr 08:30-12:30,34032,b966e87a-90ed-4cab-ae2c-fc0edfb4920e
france_travail,France Travail - Digoin,1.03239009999993,47.5394583,1 rue des Charmes 71160 Digoin,Mo-Fr 08:30-12:30,71176,b9691dba-2f86-4ac7-b438-32eba4850a4e
france_travail,France Travail - Voiron,5.5952564,45.3609988,93 boulevard Franklin-Roosevelt 38500 Voiron Cedex,Mo-Fr 08:30-12:30,38563,b9c6ade3-2cbb-4bfe-b8d5-fbd112872f7e
france_travail,France Travail - Savigny-le-Temple,2.58131839,48.5943285,29 avenue Jules-Vallès 77176 Savigny-le-Temple,Mo-Th 09:00-13:15; Fr 09:00-12:00,77445,b9c9a97b-d45d-40a7-b168-b2fb1aa8928e
france_travail,France Travail - Étampes,2.1616782,48.4328054,15 rue de Saclas 91150 Étampes,Mo-Th 09:00-13:15; Fr 09:00-12:00,91223,b9cb9d55-087f-4699-b8d4-740bac0df816
france_travail,France Travail - Saint-Gilles-Croix-de-Vie,-1.0620371,46.5554913,7 route de la Roche-sur-Yon 85804 Saint-Gilles-Croix-de-Vie,Mo-Fr 08:30-12:30,85222,b9ea3f5f-a068-46f3-9fae-c39cd0eeb9a7
france_travail,France Travail - Saint-Jean-de-Maurienne,6.3556249,45.2731224,310 rue Jean-Moulin 73300 Saint-Jean-de-Maurienne Cedex,Mo-Fr 08:30-12:30,73248,ba9d161f-6727-4fe3-a3ed-06c1ceeb127a
france_travail,France Travail - Romans-sur-Isère,5.081654,45.047833,4 rue Auguste-Perret 26100 Romans-sur-Isère Cedex,Mo-Fr 08:30-12:30,26281,baa7dd0a-55ed-482b-be3f-8536d9add457
france_travail,France Travail - Riom,3.13783309999997,45.8935343,24 avenue Georges-Gershwin 63200 Riom Cedex,Mo-Fr 08:30-12:30,63300,bb4a5be5-85b7-4e30-9d24-c88c129a5991
france_travail,France Travail - Ambérieu-en-Bugey,5.3412079,45.9552337,285 rue des Mouettes 01500 Ambérieu-en-Bugey,Mo-Fr 08:30-12:30,01004,bb90ed78-6afe-4b55-9f5d-6fe8eedf6782
france_travail,France Travail - Mulhouse - Porte-de-Bâle,7.34537760000001,47.7458886,8 rue Zuber 68100 Mulhouse,Mo-Fr 08:30-12:30,68224,bb933d4e-59ff-4a9f-a890-64adaf0ad1c0
france_travail,France Travail - Millau,3.0737286,44.0952094,12 avenue Édouard-Alfred-Martel 12100 Millau,Mo-Fr 08:30-12:30,12145,bb93f4cd-b562-465c-af20-4ee3e1ec6410
france_travail,France Travail - Lillebonne,0.5321665,49.5229369,4 rue Chico-Mendes 76170 Lillebonne,Mo-Fr 08:30-12:30,76384,bbf43673-3dd1-4e83-8d6b-3236346a6768
france_travail,France Travail - Villeneuve-Saint-Georges,2.4480685,48.7291952,2 rue Henri-Janin 94190 Villeneuve-Saint-Georges,Mo-Th 09:00-13:15; Fr 09:00-12:00,94078,bc03cc0a-101a-4977-a644-be56c4b874b1
france_travail,France Travail - Saint-Maximin-la-Sainte-Baume,5.8556076,43.4542339,637 avenue Gabriel-Peri 83470 Saint-Maximin-la-Sainte-Baume,Mo-Fr 08:30-12:30,83116,bc083f73-2d52-4b81-a5ac-78574a3fe80f
france_travail,France Travail - Conflans-Sainte-Honorine,2.10576079,48.9991932,1 rue de Pologne 78700 Conflans-Sainte-Honorine,Mo-Th 09:00-13:15; Fr 09:00-12:00,78172,bc3098cb-25ba-4171-83ef-075bb0c6a6f8
france_travail,France Travail - Saint-Ouen,2.3287411,48.9034363,44 avenue du Capitaine-Glarner 93400 Saint-Ouen,Mo-Th 09:00-13:15; Fr 09:00-12:00,93070,bc365e39-2940-4102-bed4-520471c48e53
france_travail,France Travail - Le Lamentin,-60.988428,14.6297681,Quartier Acajou 97232 Le Lamentin,Mo-Fr 07:30-12:00,97213,bc4625c8-cee6-47cb-a71e-89437fd6c16d
france_travail,France Travail - Montmorency,2.3139939,48.9742287,27 rue Ferber 95160 Montmorency,Mo-Th 09:00-13:15; Fr 09:00-12:00,95428,bcac1fb5-f6af-47c2-80aa-cdc47f6e65bc
france_travail,France Travail - Creil - Montataire,2.435281199999963,49.2511133,38 avenue Ambroise-Croizat 60160 Montataire,Mo-Fr 08:30-12:30,60414,bcad57c4-17c4-4d44-9bb8-bc319fc8b35c
france_travail,France Travail - Charleville-Mézières - Val-de-Vence,4.7293427,49.7419773,6 rue Jean-Baptiste-Lefort 08000 Charleville-Mézières Cedex,Mo-Fr 08:30-12:30,08105,bccc0ae2-7bd6-4c49-bdd8-497b25d78108
france_travail,France Travail - Châteaudun,1.327696,48.070369,9 place du Phénix 28200 Châteaudun Cedex,Mo-Fr 08:45-12:45,28088,bceb2348-59ce-4e9f-add8-02ca51a4e637
france_travail,France Travail - Vitrolles,5.259743,43.421951,3 voie d'Allemagne 13127 Vitrolles,Mo-Fr 08:30-12:30,13117,bd1f1b7e-8730-472d-b8ae-16b2a00189d3
france_travail,France Travail - Châteauroux - Balsan,1.6755604,46.810367,4 avenue François-Mitterrand 36000 Châteauroux,Mo-Fr 08:45-12:45,36044,bda5fe12-340d-4ffe-84f9-fd64fed1de72
france_travail,France Travail - Lons-le-Saunier,5.5612622,46.6707488,11 bis avenue du Stade 39000 Lons-le-Saunier Cedex,Mo-Fr 08:30-12:30,39300,be40fb74-a2b2-4e24-87f7-9272225b3f98
france_travail,France Travail - Forges-les-Eaux,1.5382657,49.6196075,91 route de Neufchâtel 76440 Forges-les-Eaux,Mo-Fr 08:30-12:30,76276,be6b0718-d0cd-4bed-b4c3-bfa53054fef5
france_travail,France Travail - Commercy,5.58708649999994,48.7609122,54 bis avenue Stanislas 55200 Commercy,Mo-Fr 08:30-12:30,55122,be76d8f8-83f1-4541-b200-a2270dee130b
france_travail,France Travail - Aubenas,4.4091934,44.6186895,71 chemin de la Charreyrasse 07200 Aubenas Cedex,Mo-Fr 08:30-12:30,07019,be9428e1-b03f-4462-93d9-07168df0af78
france_travail,France Travail - Dieppe,1.08433,49.922008,7 rue de l'Entrepôt 76200 Dieppe,Mo-Fr 08:30-12:30,76217,be943e56-90b5-4074-96a3-cb3cb26ec6c5
france_travail,France Travail - Sainte-Marie,-60.9869977,14.7751127,17 rue Elara  Quartier Belle-Étoile 97230 Sainte-Marie,Mo-Fr 07:30-12:00,97228,beaaa19e-da69-4a3a-b29f-30cd79b90b67
france_travail,France Travail - Anzin,3.523457,50.383446,245 bis rue Jean-Jaurès 59410 Anzin,Mo-Th 08:30-12:45; Fr 09:00-12:00,59014,bee8a562-77dd-45cd-b19a-9407931789b0
france_travail,France Travail - Digne-les-Bains,6.2431898,44.0912009,53 bis avenue du 8-Mai-1945 04000 Digne-les-Bains,Mo-Fr 08:30-12:30,04070,bfac8b26-021b-4991-947c-5b5aa0b8b5e8
france_travail,France Travail - Noisy-le-Grand,2.571705,48.8423929,8 rue du Maréchal-Juin 93160 Noisy-le-Grand,Mo-Th 09:00-13:15; Fr 09:00-12:00,93051,bfcd2ffd-6bba-4f95-9c0b-b5c81e29711e
france_travail,France Travail - Flers,-0.563683099999935,48.7522279,51 rue Charles-Mousset 61100 Flers Cedex,Mo-Fr 08:30-12:30,61169,c122709d-7089-4c02-a9af-d202c4f35f51
france_travail,France Travail - Orange,4.7938691,44.1368743,85 rue Agis-Rigord 84100 Orange,Mo-Fr 08:30-12:30,84087,c158ad4a-ff0f-41a4-8b8e-b0c8976485cc
france_travail,France Travail - Villeneuve-d'Ascq,3.1366957,50.6162641,18 rue Trudaine 59491 Villeneuve-d'Ascq,Mo-Th 08:30-12:45; Fr 09:00-12:00,59009,c174ecc5-a35c-4d63-84bc-b8951bd1f753
france_travail,France Travail - Meximieux,5.196832,45.90201,Rue des Verchères 01800 Meximieux,Mo-Fr 08:30-12:30,01244,c2a76b0f-d85f-4c1f-9193-a997321fe60f
france_travail,France Travail - L'Haÿ-les-Roses,2.3413458,48.7833351,17 boulevard Paul-Vaillant-Couturier 94240 L'Haÿ-les-Roses,Mo-Th 09:00-13:15; Fr 09:00-12:00,94038,c3252892-9316-4e15-ace5-9e86c645f74e
france_travail,France Travail - Brétigny-sur-Orge,2.29702420000001,48.6039234,11 rue Georges-Charpak 91220 Brétigny-sur-Orge,Mo-Th 09:00-13:15; Fr 09:00-12:00,91103,c355ab28-2763-42e6-8411-46496aaad238
france_travail,France Travail - Confolens,-0.790256399999976,46.4660758,B.P 13  Rue de l'Ouillette 16500 Confolens,Mo-Fr 08:30-12:30,16106,c3845a40-c0f9-444d-adb7-8c80d21899c1
france_travail,France Travail - Avon,2.72959149,48.4182926,9 avenue du Général-de-Gaulle 77210 Avon,Mo-Th 09:00-13:15; Fr 09:00-12:00,77014,c3b9fdbe-7464-4806-be95-b44f5f9c9976
france_travail,France Travail - Saint-Malo,-1.988724,48.65047,7 rue Augustin-Fresnel 35400 Saint-Malo Cedex,Mo-Fr 08:30-12:30,35288,c3e4fc99-f834-47f1-9c86-df959ade062b
france_travail,France Travail - Mourenx,-0.3683416,43.3130142,Avenue Pierre-Angot 64150 Mourenx,Mo-Fr 08:30-12:30,64410,c3e9321a-6bdd-4f5f-9ef4-c2cfc060f014
france_travail,France Travail - Montrouge,2.3009987,48.8120917,223 avenue Pierre-Brossolette 92120 Montrouge,Mo-Th 09:00-13:15; Fr 09:00-12:00,92049,c3fed55a-1f1c-4919-8ab6-11910ae9a587
france_travail,France Travail - Mende,3.4837198,44.5231035,44 bis avenue du 11-Novembre 48000 Mende,Mo-Fr 08:30-12:30,48095,c4b69821-2fcf-4b43-9468-e3a81c2bf376
france_travail,France Travail - Hirson,4.0786563,49.925791,2 place Victor-Hugo 02500 Hirson,Mo-Fr 08:30-12:30,02381,c4bf7cdc-d041-42fc-904d-8bf8ed9f1cc6
france_travail,France Travail - Remiremont,6.5954277,48.0143536,Lieu-dit le Gros-Châtelet-Gare   88200 Remiremont Cedex,Mo-Fr 08:30-12:30,88383,c4c943f4-63b9-41b7-bb27-261cd7dc5973
france_travail,France Travail - Mulhouse - Drouot,7.3582904,47.7620142,40 rue de 57e-Régiment-de-Transmissions 68100 Mulhouse,Mo-Fr 08:30-12:30,68224,c508f863-a6f6-446e-ad50-ec65544228ee
france_travail,France Travail - Paris - 18e arrondissement - Genevoix,2.3596234,48.8941992,11 rue Maurice-Genevoix 75018 Paris,Mo-Th 09:00-13:15; Fr 09:00-12:00,75118,c5b0419d-8989-4ad2-8dd4-852f29dccd9b
france_travail,France Travail - Vincennes,2.4373674,48.846302,3 rue Lejemptel 94300 Vincennes,Mo-Th 09:00-13:15; Fr 09:00-12:00,94080,c5d00d9f-899a-4e28-9e50-b3089d6ff4ef
france_travail,France Travail - Brioude,3.3882596,45.294835,30 avenue de Lamothe 43100 Brioude Cedex,Mo-Fr 08:30-12:30,43040,c5f0b1fd-8fc5-4ef1-931e-f47fa1b74bdb
france_travail,France Travail - Montaigu,-1.341738,46.959558,16 rue René-Descartes 85600 Boufféré,Mo-Fr 08:30-12:30,85146,c665b950-ac12-41b4-b93c-6046972ae9fe
france_travail,France Travail - Compiègne - Lesseps,2.78418339,49.3942742,5 bis rue Ferdinand-de-Lesseps 60200 Compiègne Cedex,Mo-Fr 08:30-12:30,60159,c6699b71-4da8-4ef7-9fce-9d3e67524bfa
france_travail,France Travail - Somain,3.27846929,50.3635165,101 rue Pasteur 59490 Somain,Mo-Th 08:30-12:45; Fr 09:00-12:00,59574,c6ab4f7e-811c-4cf1-b5ed-dc59474b4227
france_travail,France Travail - Delle,7.009315,47.5072605,30 faubourg de Belfort 90100 Delle Cedex,Mo-Fr 08:30-12:30,90033,c6b9d5f6-ea74-4b90-b0e0-7302099a8283
france_travail,France Travail - Châlons-en-Champagne,4.3635747,48.9648221,71 avenue de la 2e-Division-Blindée 51000 Châlons-en-Champagne Cedex,Mo-Fr 08:30-12:30,51108,c7101269-c3b2-4e35-8c68-fda6bf50d466
france_travail,France Travail - Bressuire,-0.464348299999983,46.8523468,89 bis boulevard de Thouars 79300 Bressuire,Mo-Fr 08:30-12:30,79049,c7482167-2d40-4c12-8f56-43c63adf1a9c
france_travail,France Travail - Angers - Balzac,-0.5811813,47.4728564,4 rue des Basses-Fouassières 49000 Angers,Mo-Fr 08:30-12:30,49007,c74cc29c-d47f-46aa-8933-647e64ba54db
france_travail,France Travail - Longwy,5.7730075,49.5205606,Espace Jean-Monnet 54810 Longlaville,Mo-Fr 08:30-12:30,54323,c7d24289-0bc1-4fef-8608-986ba8f08d62
france_travail,France Travail - Beauvais - Délie,2.1113576,49.410626,7 rue du Docteur-Pierre-Délie 60000 Beauvais Cedex,Mo-Fr 08:30-12:30,60057,c7fb30d7-28de-411d-ba25-54be4bdd81a7
france_travail,France Travail - Le Blanc-Mesnil,2.4715393,48.9438852,22 avenue Albert-Einstein 93150 Le Blanc-Mesnil,Mo-Th 09:00-13:15; Fr 09:00-12:00,93007,c86dfb53-c01b-4165-8198-cf8eecfa01f4
france_travail,France Travail - Boulogne-Billancourt,2.2274123,48.8329501,21 quai Alphonse-le-Gallo 92100 Boulogne-Billancourt,Mo-Th 09:00-13:15; Fr 09:00-12:00,92012,c90c0c6d-061f-4a7f-bece-b096e8ef4504
france_travail,France Travail - Guéret,1.8808571,46.172474,19 avenue Pierre-Leroux 23000 Guéret Cedex,Mo-Fr 08:30-12:30,23096,c972dcc2-ca5e-4429-ac68-4628c9d55ec9
france_travail,France Travail - Vesoul,6.1559043,47.6234719,4 rue du Docteur-Jean-Girard 70000 Vesoul Cedex,Mo-Fr 08:30-12:30,70550,c9a71891-79e3-4c37-9fb8-0dfee1ff4812
france_travail,France Travail - Rezé,-1.55550470000003,47.1933823,7 rue Eugène-Orieux 44402 Rezé,Mo-Fr 08:30-12:30,44143,c9ca8a11-c3b3-4a17-a848-702c4c20b2ce
france_travail,France Travail - Calais - Saint-Exupéry,1.8938305,50.9462814,60 avenue Antoine-de-Saint-Exupéry 62100 Calais,Mo-Th 08:30-12:45; Fr 09:00-12:00,62193,c9d33567-eda1-474c-ac67-2cf1cdccd1b2
france_travail,France Travail - Orléans - Sud,1.932974,47.837235,18 avenue de la Bolière 45000 Orléans,Mo-Fr 08:45-12:45,45234,c9e06451-3d11-47a4-8e11-12a43b4bcd95
france_travail,France Travail - Vendôme,1.0608285665512085,47.798828125,5 rue Denis-Diderot 41100 Vendôme Cedex,Mo-Fr 08:45-12:45,41269,c9e3ba6e-12e2-4ea8-88ca-0c20271d26fd
france_travail,France Travail - Saint-Pierre-des-Corps,0.7097268,47.3858679,55 avenue Georges-Pompidou 37700 Saint-Pierre-des-Corps,Mo-Fr 08:45-12:45,37233,c9ec11b0-cc80-4ce1-a316-316cc7bd7c5e
france_travail,France Travail - Cergy,2.0767365,49.0406104,4 rue des Chauffours 95000 Cergy,Mo-Th 09:00-13:15; Fr 09:00-12:00,95127,ca1e6405-f736-478f-b481-817220efbbd0
france_travail,France Travail - Trignac,-2.1882259,47.3175193,7 avenue Barbara 44570 Trignac,Mo-Fr 08:30-12:30,44210,ca2e8cc8-f60e-4426-be95-1fdf49bfed25
france_travail,France Travail - Argentan,-0.0152936,48.7267072,7 route de Sées 61202 Argentan,Mo-Fr 08:30-12:30,61006,ca52944b-df0a-4a88-84f0-ec7e21ee8b7f
france_travail,France Travail - Orléans - Nord,1.9014545,47.9153078,8 avenue du Général-Patton 45000 Orléans Cedex 1,Mo-Fr 08:45-12:45,45234,cab7818e-d469-4635-9523-50a395d6b8ca
france_travail,France Travail - Fontenay-sous-Bois,2.4908946,48.8529959,201 rue Carnot 94120 Fontenay-sous-Bois,Mo-Th 09:00-13:15; Fr 09:00-12:00,94033,cac19ae4-15b6-45d1-8f8c-79c15ca5203f
france_travail,France Travail - Saint-Cyr-sur-Loire,0.6603363,47.4236686,7 rue Lavoisier 37540 Saint-Cyr-sur-Loire Cedex,Mo-Fr 08:45-12:45,37214,cae25db2-bea6-4ce4-80d8-66e90057b734
france_travail,France Travail - La Ciotat,5.617164,43.191369,18 avenue Émile-Sellon 13600 La Ciotat,Mo-Fr 08:30-12:30,13028,cb26ce17-2157-4fa2-bf1c-d47ee0f81ebf
france_travail,France Travail - Ham,3.074912,49.75864,Rue Baudelaire 80400 Ham,Mo-Fr 08:30-12:30,80410,cb2c7350-b6e2-4276-a64f-5a5b6fe7cf95
france_travail,France Travail - Angoulême - La Couronne,0.0912624,45.6131686,3 impasse Chapelle-de-Prade 16400 La Couronne,Mo-Fr 08:30-12:30,16113,cb383f1f-ee67-41d1-a827-4fb390a13233
france_travail,France Travail - Seynod,6.101682,45.886782,2 rue du Champ-de-la-Taillée 74600 Seynod Cedex,Mo-Fr 08:30-12:30,74010,cc315762-f016-4fb1-a354-362e62f9b4a8
france_travail,France Travail - Gérardmer,6.874514,48.067973,3 rue des Vosges 88400 Gérardmer Cedex,Mo-Fr 08:30-12:30,88196,cc31c92b-225e-419c-a5fe-0958a7711f7a
france_travail,France Travail - Saint-Amand-Montrond,2.5319728,46.7229436,34 rue Auguste-Charles-Moricault 18200 Saint-Amand-Montrond,Mo-Fr 08:45-12:45,18197,cc415524-9256-420b-85d1-806e0dab9fb4
france_travail,France Travail - Creil - Nogent,2.4840927,49.275377,116 avenue de l'Europe 60180 Nogent-sur-Oise Cedex,Mo-Fr 08:30-12:30,60463,ccbcb0cb-baf7-4a85-ab34-af11a5d8f0cd
france_travail,France Travail - Laval - Ferrié,-0.789385,48.080667,Place Général-Ferrié 53000 Laval,Mo-Fr 08:30-12:30,53130,cccf76d6-a47b-45ee-b0e6-5e9bed670f63
france_travail,France Travail - Épinal - Dutac,6.44208070000002,48.17831,3 place du Général-de-Gaulle 88000 Épinal Cedex,Mo-Fr 08:30-12:30,88160,cd037203-dfa8-4aa2-9983-bceee16fb6dc
france_travail,France Travail - Lyon - Part-Dieu,4.861608,45.755508,26 rue Général Mouton-Duvernet 69003 Lyon Cedex 03,Mo-Fr 08:30-12:30,69383,cd146978-8a5b-4633-9823-e57106147909
france_travail,France Travail - Istres,4.985502,43.496062,4 allée de la Solidarité 13800 Istres,Mo-Fr 08:30-12:30,13047,cd2a9ae4-c381-48ed-adb7-9a015478ae7a
france_travail,France Travail - Rouen - Aubette,1.1311738,49.4386399,17 rue de l'Aubette 76000 Rouen,Mo-Fr 08:30-12:30,76540,cda6df10-8ce9-456a-9992-2bd89fae229c
france_travail,France Travail - Rennes - Centre,-1.689386,48.10568,22 rue de Redon 35000 Rennes Cedex,Mo-Fr 08:30-12:30,35238,ce56567a-077c-4b2d-9b14-fe39ae5c1474
france_travail,France Travail - La Trinité,-60.9623896,14.6786532,Beausejour   97220 La Trinité,Mo-Fr 07:30-12:00,97230,cec2e439-4da8-44b0-9cce-3a5d6de2d841
france_travail,France Travail - Cavaillon,5.0426252,43.8502075,601 avenue de la Libération 84300 Cavaillon,Mo-Fr 08:30-12:30,84035,cee2dd36-111c-4c74-ae93-4f9be75bded6
france_travail,France Travail - Machecoul,-1.8129887,46.9863973,19 rue Marcel-Brunelière 44270 Machecoul,Mo-Fr 08:30-12:30,44087,cefb4d40-140d-4ba7-baec-46e2914423a2
france_travail,France Travail - Saint-Pierre - Réunion,55.4756958,-21.339525,40 rue François-de-Mahy 97454 Saint-Pierre Cedex,Mo-Fr 07:30-11:30; We 07:30-13:00; Th-Fr 07:30-11:30,97416,cf626e38-f507-413d-b2ce-37341a422e19
france_travail,France Travail - Épinay-sur-Seine,2.3092435,48.9566536,32 avenue Salvador-Allende 93800 Épinay-sur-Seine,Mo-Th 09:00-13:15; Fr 09:00-12:00,93031,cf7d514c-ba0f-4919-9619-6c66a2c5f948
france_travail,France Travail - Thionville - Manom,6.169379,49.3762237,42 bis route du Luxembourg 57100 Manom,Mo-Fr 08:30-12:30,57441,cfa486a5-4b38-4615-aa9e-1ffd79e17be7
france_travail,France Travail - Aiguillon,0.3385861,44.2942097,7 avenue du 11-Novembre 47190 Aiguillon,Mo-Fr 08:30-12:30,47004,cfca7153-d006-4d8c-bcb6-9e9f4916c04d
france_travail,France Travail - Ravine-des-Cabris,55.459484,-21.2949811,403 chemin Boeuf 97432 Saint-Pierre,Mo-Fr 07:30-11:30; We 07:30-13:00; Th-Fr 07:30-11:30,97416,d0482b0e-5ff8-436d-9f7b-d58c58986e18
france_travail,France Travail - Vierzon,2.05955389,47.225264,6 rue Bernard-Palissy 18100 Vierzon,Mo-Fr 08:45-12:45,18279,d0754c1f-ee08-4909-a239-3fe69934c9e9
france_travail,France Travail - Sainte-Marie - Réunion,55.5327376,-20.9053038,30 rue André-Lardy 97438 Sainte-Marie,Mo-Fr 07:30-11:30; We 07:30-13:00; Th-Fr 07:30-11:30,97418,d09768a2-11d8-4b1c-bd66-d011ff23a043
france_travail,France Travail - Vichy,3.43543529,46.1281784,650 avenue de la Liberté 03200 Vichy Cedex,Mo-Fr 08:30-12:30,03310,d0a13933-4c2e-495c-851a-97f541253e19
france_travail,France Travail - Villeneuve-sur-Lot,0.703122,44.4024631,Avenue Lazare-Carnot 47300 Villeneuve-sur-Lot,Mo-Fr 08:30-12:30,47323,d0f2ae7e-6e8e-4efd-961d-aee1d0deb36f
france_travail,France Travail - Reims - Mont-d'Arène,4.0178211,49.260971,67 rue du Mont-d’Arène 51100 Reims Cedex 3,Mo-Fr 08:30-12:30,51454,d16c27b9-8316-4922-a454-0671fc33a579
france_travail,France Travail - Foix,1.6242158,42.9465668,3 rue Germain-Authié 09000 Foix,Mo-Fr 08:30-12:30,09122,d16c7311-4ead-4525-a7d9-0773feb1a6de
france_travail,France Travail - Rivière-Salée,-60.9785799,14.5230044,ZA Laugier   97215 Rivière-Salée,Mo-Fr 07:30-12:00,97221,d1741937-6cfc-4cf9-acca-380041dbd542
france_travail,France Travail - Royan,-1.0195702,45.6326133,7 rue du Port-Royal 17200 Royan Cedex,Mo-Fr 08:30-12:30,17306,d19d0a3a-18d7-44ba-89bc-89ec4a59f8de
france_travail,France Travail - Vandoeuvre-lès-Nancy,6.1838573,48.6633614,2 allée de Rotterdam 54500 Vandoeuvre-lès-Nancy,Mo-Fr 08:30-12:30,54547,d1aa0f4b-36a2-4c7e-850e-f56e6a3af0a0
france_travail,France Travail - Grande-Synthe,2.30541679,51.0145054,24 rue Georges-Clemenceau 59760 Grande-Synthe,Mo-Th 08:30-12:45; Fr 09:00-12:00,59271,d1b5e6c0-7b93-4664-9d4c-eec88c341abd
france_travail,France Travail - Aix-en-Provence - Galice,5.429006,43.528396,38 bis route de Galice 13090 Aix-en-Provence Cedex 2,Mo-Fr 08:30-12:30,13001,d1e7930c-48ec-4949-a548-df537f417804
france_travail,France Travail - Andernos,-1.1035367,44.7455343,Allée des Lilas 33510 Andernos-les-Bains,Mo-Fr 08:30-12:30,33005,d1e83554-e44e-41d3-a30f-fe257a8d9b61
france_travail,France Travail - Longjumeau,2.2873507,48.6940442,30 rue Maurice 91160 Longjumeau,Mo-Th 09:00-13:30; Fr 09:00-12:00,91345,d37d50ef-bdac-4216-b09f-27891d9f7051
france_travail,France Travail - Rillieux-la-Pape,4.883859,45.815412,109 rue des Mercières 69140 Rillieux-la-Pape Cedex,Mo-Fr 08:30-12:30,69286,d3a72925-ef8a-48de-8549-865f8eabb945
france_travail,France Travail - Pornic,-2.1131475,47.1218131,62 boulevard de Linz 44210 Pornic,Mo-Fr 08:30-12:30,44131,d3bf7c72-96a2-4d08-846e-275641ffad0a
france_travail,France Travail - Champhol,1.506184,48.46734,1 rue du Médecin Général-Beyne 28300 Champhol,Mo-Fr 08:45-12:45; Th 08:45-12:45; Fr 08:45-15:45,28070,d4813be5-4128-4f56-8ddd-73a90b8be647
france_travail,France Travail - Sallanches,6.63458449,45.9456621,170 rue du Colonney 74700 Sallanches Cedex,Mo-Fr 08:30-12:30,74256,d4d33de1-9ac0-494a-8556-777ff64ec3cb
france_travail,France Travail - Nice - Ouest,7.202757,43.6837842,61 avenue Simone-Veil 06000 Nice Cedex 3,Mo-Fr 08:30-12:30,06088,d52df984-d735-4ae7-97d2-02397d17bf34
france_travail,France Travail - Lunel,4.1291076,43.6710088,300 avenue des Abrivados 34400 Lunel,Mo-Fr 08:30-12:30,34145,d5362d0e-d6bd-4ff1-8228-7eada1126f47
france_travail,France Travail - Saint-Jean-de-Luz,-1.6603418,43.3879502,ZI Layatz  11 chemin de la Ferme-Dai-Baita 64500 Saint-Jean-de-Luz,Mo-Fr 08:30-12:30,64483,d562172f-3c26-44f9-ae1a-cfd0d63ef9ff
france_travail,France Travail - Villejuif,2.3669257,48.7828742,108 avenue de Stalingrad 94800 Villejuif,Mo-Th 09:00-13:15; Fr 09:00-12:00,94076,d587ca6e-de8a-4912-a564-c26a6d0fa5f8
france_travail,France Travail - Château-Gontier,-0.7069,47.8267669,1 rue de l'Atlantique 53200 Château-Gontier,Mo-Fr 08:30-12:30,53062,d5b10a1f-dfd7-42e8-aaf3-ea21ec52d417
france_travail,France Travail - Meaux,2.8821315,48.9602213,12 boulevard Jean-Rose 77100 Meaux,Mo-Th 09:00-13:15; Fr 09:00-12:00,77284,d5d7e65f-5456-4472-a141-350cc17114f2
france_travail,France Travail - Falaise,-1.83627100000001,47.6283581,2 rue de la Résistance 14700 Falaise,Mo-Fr 08:30-12:30,14258,d650d38a-9297-47a1-9314-5b7ceec07abd
france_travail,France Travail - Belfort - Europe,6.844816,47.6342737,8 place d'Europe 90000 Belfort Cedex,Mo-Fr 08:30-12:30,90010,d74f6020-1d0c-4e13-a4e5-fcc52f11fd60
france_travail,France Travail - Toulouse - La Cépière,1.400773,43.5860607,4 chemin du Pigeonnier-Cépière 31000 Toulouse,Mo-Fr 08:45-12:45,31555,d7e25f3b-00c9-46a7-b533-fc71cc4ba45b
france_travail,France Travail - Le Quesnoy,3.63232659,50.2634789,139 bis route de Valenciennes 59530 Le Quesnoy,Mo-Th 08:30-12:45; Fr 09:00-12:00,59481,d7f623ef-6fee-4168-89e4-e459fc633292
france_travail,France Travail - Harfleur,0.1959208,49.5035997,10 avenue du Clos-Labédoyère 76700 Harfleur,Mo-Fr 08:30-12:30,76341,d84d0b41-e586-4f35-bd75-d8d8ee755e90
france_travail,France Travail - Labège,1.5150317,43.5350104,298 allée du Lac 31670 Labège,Mo-Fr 08:30-12:30,31254,d8acae89-4403-408e-ac00-7b2ef8f84436
france_travail,France Travail - Pontcharra,6.02077629,45.4316733,40 avenue de la Gare 38530 Pontcharra,Mo-Fr 08:30-12:30,38314,d8c89bf6-4f70-454b-8e88-7bcd24e6226b
france_travail,France Travail - Capesterre - Les Flamboyants,-61.5643476,16.0533772,Rue les Filaos 97130 Capesterre-Belle-Eau,Mo 07:30-13:00; Tu-We 07:30-13:15; Th 07:30-13:00; Fr 07:30-11:15,97107,d8dddad6-96d8-4b48-8bc1-49d4f77f2639
france_travail,France Travail - Bondy,2.4802228,48.8946773,14 rue de la Liberté 93140 Bondy,Mo-Th 09:00-13:15; Fr 09:00-12:00,93057,d9684f07-a331-4b86-bd73-db7846a900b5
france_travail,France Travail - Nancy - Cristallerie,6.2003729,48.6980884,88 avenue du XXe-Corps 54000 Nancy Cedex,Mo-Fr 08:30-12:30,54395,da1fa4fc-558b-473d-955d-cd0965ce17c4
france_travail,France Travail - Pontarlier,6.3410865,46.9085444,6 rue Claude-Chappe 25300 Pontarlier Cedex,Mo-Fr 08:30-12:30,25462,dae26c99-9e6a-4061-91ff-69218a7a7a38
france_travail,France Travail - Aussillon,2.3704774,43.5090321,28 boulevard du Thore 81200 Aussillon,Mo-Fr 08:30-12:30,81021,dae34875-d2c5-4ee2-a58e-ee1d3a7fded3
france_travail,France Travail - Joué-lès-Tours,0.6615897,47.3441209,92 boulevard Jean-Jaurès 37300 Joué-lès-Tours,Mo-Fr 08:45-12:45,37122,db7dfddb-be8e-4a82-8c7c-a1442aa9f7a8
france_travail,France Travail - Nantes - Malakoff,-1.5233495,47.2161389,10 rue de Chypre 44000 Nantes,Mo-Fr 08:30-12:30,44109,db856537-030a-4f4f-ae17-f988d3ca45f0
france_travail,France Travail - Villeneuve-lès-Avignon,4.797646,43.963375,1 place Saint-Pons 30400 Villeneuve-lès-Avignon,Mo-Fr 08:30-12:30,30351,dbaa62ec-3b04-4bc7-a9fa-c90dff46479c
france_travail,France Travail - Brest - Marine,-4.4778145,48.3854106,130 rue Ernest-Hemingway 29200 Brest Cedex 2,Mo-Fr 08:30-12:30,29019,dbad4ef2-2acd-4ac7-aef7-d50e5e2f3bf8
france_travail,France Travail - Nice - La Trinité,7.3106507,43.7404037,3 boulevard du Général-de-Gaulle 06340 La Trinité,Mo-Fr 08:30-12:30,06149,dc70196d-39ca-4ff1-b763-d958270c2060
france_travail,France Travail - Le Puy-en-Velay,3.8907708,45.0448745,5 rue des Chevaliers-Saint-Jean 43000 Le Puy-en-Velay Cedex,Mo-Fr 08:30-12:30,43157,dc70e8bc-4277-4484-aee9-bbf9ad479d86
france_travail,France Travail - Strasbourg - Meinau,7.7521113,48.5734053,10 rue du Maréchal-Lefebvre 67000 Strasbourg Cedex 1,Mo-Fr 08:30-12:30,67482,dc91285e-a1e0-407e-91c1-254a8ed60882
france_travail,France Travail - Saint-Pierre,-61.0873126,14.5158484,2 rue Percée 97250 Saint-Pierre,Mo-Fr 07:30-12:00,97225,dcd993f2-ff75-439c-83ee-ec8c9318176f
france_travail,France Travail - Grasse,6.9629743,43.631457,123 chemin de Saint-Marc 06130 Grasse,Mo-Fr 08:30-12:30,06069,dd096181-c84e-4bb5-a880-e0e9b782cc12
france_travail,France Travail - Antony,2.3072474,48.7584809,42 avenue Aristide-Briand 92160 Antony Cedex,Mo-Th 09:00-12:15; Fr 09:00-12:00,92002,dd719b79-4379-4784-87ad-f7591106f627
france_travail,France Travail - Bellac,1.050513,46.1219619,4 ter rue du Général-Arbellot 87300 Bellac,Mo-Fr 08:30-12:30,87011,dea66479-a71e-4a4d-bb79-23af16637e3a
france_travail,France Travail - Saumur,-0.0769619,47.2441132,680 avenue François-Mitterrand 49400 Saumur,Mo-Fr 08:30-12:30,49328,dec7b788-7f6b-4770-b8db-588958c63973
france_travail,France Travail - Saint-Gaudens,0.7204163,43.1092245,5 bis avenue Anselme-Arrieu 31800 Saint-Gaudens,Mo-Fr 08:30-12:30,31483,df22634d-bad4-46e6-8bc3-6db66ca472ef
france_travail,France Travail - Revin,4.6405374,49.9371611,10 rue Louise-Weiss 08500 Revin,Mo-Fr 08:30-12:30,08363,e0917bb6-2910-44d3-a3ae-b0ad2c9236d6
france_travail,France Travail - Amboise,0.9759691,47.4181348,10 rue de l'Ancienne-Fonderie 37530 Nazelles-Négron,Mo-Fr 08:45-12:45,37003,e15f65fd-5eb4-4284-8134-0752f9c45b16
france_travail,France Travail - Meythet,6.09139089,45.9217868,1 rue de l'Euro 74960 Meythet,Mo-Fr 08:30-12:30,74010,e18f005a-81c0-4f4b-8c79-3428893e75b6
france_travail,France Travail - Besançon - Temis,6.0012677,47.2527161,17 A rue Alain-Savary 25000 Besançon Cedex,Mo-Fr 08:30-12:30,25056,e1c2c11b-5ad0-4d14-95bf-85a26f260a05
france_travail,France Travail - Plaine-Orientale,9.4045363,42.0167912,Résidence Linari 2 20240 Ghisonaccia,Mo-Th 08:30-12:30; Fr 08:30-11:30,2B251,e1e497f3-7833-493f-8f6d-c2d490ca6c2e
france_travail,France Travail - Bollène,4.757209,44.298985,4 rue Sauveur-Durand 84500 Bollène,Mo-Fr 08:30-12:30,84019,e1e709f3-fd0f-4c2b-a3ea-0ce5bf1a5b70
france_travail,France Travail - Montauban - Albasud,1.33557259999998,43.9970908,205 avenue de l’Europe 82000 Montauban,Mo-Fr 08:30-12:30,82121,e1eab5b4-2498-4f15-b641-ab73620d0d13
france_travail,France Travail - Saint-Paul - Réunion,55.3297796,-20.978043,6 route Savannah 97460 Saint-Paul,Mo-Fr 07:30-11:30; We 07:30-13:00; Th-Fr 07:30-11:30,97415,e1ed9d19-2aa8-45e5-8944-cd469efa5073
france_travail,France Travail - Marie-Galante,-61.3122727,15.8913588,Rue Savane 97112 Grand-Bourg,Mo 07:30-13:00; Tu-We 07:30-13:15; Th 07:30-13:15; Fr 07:30-11:15,97112,e2372824-7463-456d-929e-14bb38fd2eae
france_travail,France Travail - Morteau,6.6107585,47.0570016,1 A rue du Clos-Jeune 25500 Morteau Cedex,Mo-Fr 08:30-12:30,25411,e24d7131-fd10-4d45-a665-462b0d436305
france_travail,France Travail - Lille - Port-fluvial,3.0324795,50.627086,43 boulevard de la Moselle 59000 Lille,Mo-Th 08:30-12:45; Fr 09:00-12:00,59350,e2abe0c3-0b66-46fd-8ad6-5532569fc931
france_travail,France Travail - Cayenne - Collery,-52.3280811,4.9012397,ZI de Collery   97300 Cayenne Cedex,Mo 07:30-13:30; Tu-We 07:30-12:30; Th 07:30-13:30; Fr 07:30-12:30,97302,e2bd89b9-19ca-42c3-8675-a1b45e9511ab
france_travail,France Travail - Auch,0.584593899999959,43.6357778,8 rue Racine 32000 Auch,Mo-Fr 08:30-12:30,32013,e37f7fe3-9720-456f-9673-bc9f66b5c3c6
france_travail,France Travail - Bourg-en-Bresse,5.2480316,46.218156,323 avenue de Parme 01000 Bourg-en-Bresse Cedex,Mo-Fr 08:30-12:30,01053,e43d5897-78a6-475b-bb7c-40d31930a56e
france_travail,France Travail - Montbrison,4.09522849,45.5998372,64 rue des Grands-Chênes 42600 Montbrison Cedex,Mo-Fr 08:30-12:30,42147,e46764d3-40ae-42a9-92ae-74261bb5fcbf
france_travail,France Travail - Cluses,6.5661943,46.0705405,1125 avenue Georges-Clemenceau 74300 Cluses,Mo-Fr 08:30-12:30,74081,e5716422-05eb-476c-ba63-d464659026a3
france_travail,France Travail - Évreux - Brossolette,1.164668,49.022808,41 rue Pierre-Brossolette 27000 Évreux,Mo-Fr 08:30-12:30,27229,e5a467d8-d7a3-4dee-bfb3-883299146e30
france_travail,France Travail - Clermont-Ferrand - Jouhaux,3.117158,45.796194,68 boulevard Léon-Jouhaux 63000 Clermont-Ferrand,Mo-Fr 08:30-12:30,63113,e5da167e-403a-4b89-bfa6-3a07d10a3d7c
france_travail,France Travail - Lunéville,6.4940021,48.5880881,1 bis rue Charles-Rivolet 54300 Lunéville Cedex,Mo-Fr 08:30-12:30,54329,e5e037f3-d664-451c-a50c-f45989568d3d
france_travail,France Travail - Bourgoin-Jallieu,5.26136559,45.5895759,Rue Claude-Chappe 38300 Bourgoin-Jallieu Cedex,Mo-Fr 08:30-12:30,38053,e5fe9891-59ca-4666-b98a-4477d3b36c6b
france_travail,France Travail - Annemasse,6.2429027,46.1891374,2 C avenue de Verdun 74100 Annemasse Cedex,Mo-Fr 08:30-12:30,74012,e60553a3-4551-4ba7-a033-8bc6480c1501
france_travail,France Travail - Bruay-la-Buissière,2.5555492,50.4756596,825 rue Raoul-Briquet 62700 Bruay-la-Buissière,Mo-Th 08:30-12:45; Fr 09:00-12:00,62178,e6576bb4-0779-4fd0-90a7-d0bd8e4446b9
france_travail,France Travail - Ambert,3.7342212,45.5493749,2 allée du Parc 63600 Ambert,Mo-Fr 08:30-12:30,63003,e65e0cc3-5b7d-44c5-9fbb-b14418d10c88
france_travail,France Travail - Cognac,-0.323179,45.69041,11 rue de l'Avenir 16100 Cognac Cedex,Mo-Fr 08:30-12:30,16102,e6b2ebe3-c26d-4a56-b531-40de9028d9b9
france_travail,France Travail - Montval-sur-Loir,0.4278520000000299,47.684664,19 rue du Mont-sur-Loir 72500 Château-du-Loir,Mo-Fr 08:30-12:30,72071,e6b4fbcb-fe7b-4a84-9d99-f6a4d09b1904
france_travail,France Travail - Langon,-0.245126,44.555419,22 E route de Bazas 33210 Langon Cedex,Mo-Fr 08:30-12:30,33227,e6c7acf1-40c9-416b-8981-1401e1e00f20
france_travail,France Travail - Pamiers,1.6184854,43.1095647,4 avenue de la Paix 09100 Pamiers,Mo-Fr 08:30-12:30,09225,e721985a-d63f-41a8-8192-620a1a2844c7
france_travail,France Travail - Rennes - Nord,-1.677816,48.1296722,4 rue René-Dumont 35000 Rennes Cedex 7,Mo-Fr 08:30-12:30,35238,e7899293-f6ce-4c72-bfe5-e3a70c7e44f1
france_travail,France Travail - Mérignac,-0.6741295,44.8338531,15 rue Thalès 33700 Mérignac Cedex,Mo-Fr 08:30-12:30,33281,e7fd51df-0c58-4466-bbaa-5b379e5fe244
france_travail,France Travail - Paris - 20e arrondissement - Piat,2.38342799,48.8728111,51 rue Piat 75020 Paris,Mo-Th 09:00-13:15; Fr 09:00-12:00,75120,e80e3832-328c-4757-bc27-19a84a8a2867
france_travail,France Travail - Blois - Laplace,1.328258,47.601925,67 avenue de Châteaudun 41000 Blois,Mo-Fr 08:45-12:45,41018,e825d130-8afc-4f79-a891-d327dad17a08
france_travail,France Travail - Caen - Fresnel,-0.356702,49.16275,8 rue Raymonde-Bail 14000 Caen Cedex 4,Mo-Fr 08:30-12:30,14118,e8d3bed4-1cb3-43a5-aca6-365c2eb79d38
france_travail,France Travail - Avignon - Realpanier,4.85684,43.950383,21 rue Claude-Chabrol 84000 Avignon Cedex 9,Mo-Fr 08:30-12:30,84007,e8fc1f44-6c56-4334-8eaa-0c8c9799f408
france_travail,France Travail - Colmar - Europe,7.326902,48.077228,10 rue d’Amsterdam 68000 Colmar,Mo-Fr 08:30-12:30,68066,e922e7ed-f7fe-4607-96c2-a23d6bcbdf2f
france_travail,France Travail - Vitry-le-François,4.5890505,48.722568,16 bis boulevard Carnot 51300 Vitry-le-François Cedex,Mo-Fr 08:30-12:30,51649,e995a2eb-f92f-436b-b667-a294ebd75efc
france_travail,France Travail - Rennes - Ouest,-1.73298,48.10545,167 route de Lorient 35000 Rennes Cedex,Mo-Fr 08:30-12:30,35238,e9a6217b-9724-4e8e-a241-53d25f06ec30
france_travail,France Travail - Perpignan - Saint-Assiscle,2.875001,42.689341,3 rue Vigneronne 66000 Perpignan,Mo-Fr 08:30-12:30; Th 08:30-12:30; Fr 08:30-15:30,66136,ea2bb9be-1432-44d9-a598-88463236d021
france_travail,France Travail - Saint-Marcellin,5.3142808,45.1464017,4 rue Lafontaine 38160 Saint-Marcellin,Mo-Fr 08:30-12:30,38416,ea819ea1-291b-465c-bf5e-6b01e10811f0
france_travail,France Travail - Toulouse - Jolimont,1.4429513,43.604363,7 avenue Léon-Blum 31000 Toulouse,Mo-Fr 08:30-12:30,31555,eb05e56a-2187-4267-8bac-572147e52303
france_travail,France Travail - Bastia,9.438642,42.669827,Rue du Maréchal-Juin 20200 Bastia Cedex,Mo-Fr 08:30-12:30,2B033,eb403938-8216-4ac0-afd6-5ee6ead3e528
france_travail,France Travail - Grenoble - Bruyère,5.729592,45.166789,78 avenue La-Bruyère 38000 Grenoble,Mo-Fr 08:30-12:30,38185,eca220e6-0246-4183-a4e9-eb599c63af0c
france_travail,France Travail - Montbéliard - Hexagone,6.8028372,47.4997414,2 rue Pierre-Brossolette 25200 Montbéliard,Mo-Fr 08:30-12:30,25388,ed2d9600-762e-4c5b-94cc-89352926d662
france_travail,France Travail - Mandelieu-la-Napoule,6.9548607,43.5546793,Allée Hélène-Boucher 06210 Mandelieu-la-Napoule,Mo-Fr 08:30-12:30,06079,ed3eaef8-f996-45ce-981d-2e661bb1c310
france_travail,France Travail - Nantes - Haluchère,-1.521609699999999,47.2483337,224 boulevard Jules-Verne 44000 Nantes,Mo-Fr 08:30-12:30,44109,ed929a23-9dff-42c2-8bb1-a492d030a971
france_travail,France Travail - Argenton-sur-Creuse,1.52146,46.58633,1 rue des Écoles 36200 Argenton-sur-Creuse,Mo-Fr 08:45-12:45,36006,eda5986d-834d-4ac1-ad1f-bc8d69254270
france_travail,France Travail - Lannemezan,0.3849423999999999,43.12329769999999,Place du 14-Juillet 65300 Lannemezan,Mo-Fr 08:30-12:30,65258,edbe321d-198f-4a6c-b1e2-eb88366d1aa6
france_travail,France Travail - Gravelines,2.12918479,50.9880577,29 rue de Dunkerque 59820 Gravelines,Mo-Th 08:30-12:45; Fr 09:00-12:00,59273,eddc3b2d-5748-4baa-8202-5787da8e374f
france_travail,France Travail - Cayenne - Montabo,-52.3060925,4.9478122,Chemin Grant 97300 Cayenne,Mo-Fr 07:30-13:30; Tu-We 07:30-12:30; Th 07:30-13:30; Fr 07:30-12:30,97302,ede13275-0511-45dd-97eb-ceaf2a2a7e8f
france_travail,France Travail - Cenon,-0.53114979999998,44.8574079,3 rue René-Bonnac 33150 Cenon,Mo-Fr 08:30-12:30,33119,edfc9521-74ac-48d6-a5c0-7f09241f6611
france_travail,France Travail - Issy-les-Moulineaux - agence cadres,2.2738418,48.8281491,2 rue Victor-Hugo 92130 Issy-les-Moulineaux,Mo-Th 09:00-13:15; Fr 09:00-12:00,92040,ee139874-5140-4070-ad5c-f2031fa24bc3
france_travail,France Travail - Pont-l'Abbé,-4.22355160000006,47.862416,24 rue Roger-Signor 29120 Pont-l'Abbé Cedex,Mo-Fr 08:30-12:30,29220,eea74488-6df5-4518-ab65-c3c1bfc8b5c0
france_travail,France Travail - Douarnenez,-4.328619,48.093228,23 rue de l'Aubépine 29100 Douarnenez Cedex,Mo-Fr 08:30-12:30,29046,ef3f4b88-048b-41b3-ab34-fd3ca8876119
france_travail,France Travail - Bouillante,-61.7685,16.1303,Section Vannier-le-Bourg   97125 Bouillante,Mo 07:30-13:00; Tu-We 07:30-13:15; Th 07:30-13:00; Fr 07:30-11:15,97106,ef7e9c14-61c8-4b0f-bed7-e858fcee222a
france_travail,France Travail - Cherbourg - Centre,-1.6142407,49.6386687,25 rue Dom-Pedro 50100 Cherbourg-Octeville,Mo-Fr 08:30-12:30,50129,efb06a1a-58e7-47b0-96e8-1b2e989c7158
france_travail,France Travail - Mauriac,2.342144,45.2196311,14 boulevard Arsène-Vermenouze 15200 Mauriac,Mo-Fr 08:30-12:30,15120,f012392b-d5be-4cc9-b7e0-48a07d86aacc
france_travail,France Travail - Carvin,2.96475669999995,50.4937651,189 avenue de la République 62220 Carvin,Mo-Th 08:30-12:45; Fr 09:00-12:00,62215,f025e856-28cc-4055-8df4-f5350dca55c8
france_travail,France Travail - Les Herbiers,-1.0115121,46.8807458,8 rue de l'Oiselière 85500 Les Herbiers,Mo-Fr 08:30-12:30,85109,f03e2530-6972-4bae-9eea-d42afd046ba3
france_travail,France Travail - Montbéliard - Centre,6.79822560000002,47.5143752,8 avenue Gambetta 25200 Montbéliard Cedex,Mo-Fr 08:30-12:30,25388,f07b5587-8b08-43ed-b3b6-57fb177eb6e8
france_travail,France Travail - Auray,-2.9944299,47.6705727,7 rue de la Libération 56400 Auray Cedex,Mo-Fr 08:30-12:30,56007,f08d663a-9dd8-4fa2-85bc-105603ffca39
france_travail,France Travail - Clermont-Ferrand - Flaubert,3.126469,45.760648,184 boulevard Gustave-Flaubert 63000 Clermont-Ferrand,"Mo-We 08:30-12:30,13:30-16:30; Th 08:30-12:30; Fr 08:30-12:30,13:30-15:30",63113,f0b2c134-72ca-4748-9463-9845e6ed0366
france_travail,France Travail - Montluçon - Nord,2.5902437,46.3688682,1 rue De-Lattre-de-Tassigny 03100 Montluçon Cedex,Mo-Fr 08:30-12:30,03185,f11440b3-b434-4473-954b-9a9e2ca7211d
france_travail,France Travail - Menton,7.5046891,43.7765398,8 rue Guyau 06500 Menton,Mo-Fr 08:30-12:30,06083,f17baef4-87a1-4a80-936a-dece16229530
france_travail,France Travail - Dinan,-2.0579116000000113,48.4555839,2 boulevard Simone-Veil 22100 Dinan Cedex,Mo-Fr 08:30-12:30,22050,f1db51ee-4cc9-4f69-a25b-810cafe6895f
france_travail,France Travail - Saint-Genis-Pouilly,6.010319399999958,46.2369484,348 avenue du Mont-Blanc 01710 Thoiry,Mo-Fr 08:30-12:30,01354,f1e9e4f2-4ce7-4479-9ff0-5b7c7af9583b
france_travail,France Travail - Soissons,3.3391118,49.3924826,24 rue de l'Émaillerie 02200 Soissons Cedex,Mo-Fr 08:30-12:30,02722,f24bfdc3-ab27-49d9-bec5-db68e0fd62ca
france_travail,France Travail - Abymes,-61.5224419,16.2364582,16 ZAC de Dothemare 97139 Les-Abymes,Mo 07:45-13:00; Tu-We 07:45-13:15; Th 07:45-13:00; Fr 07:45-11:15,97101,f27f27db-1c2d-4510-b781-eae5f84b7686
france_travail,France Travail - Bayeux,2.3023,48.9314,2 boulevard Maréchal-Montgomery 14400 Bayeux Cedex,Mo-Fr 08:30-12:30,14047,f28bbeb8-9d22-436d-aff9-7a6965fc873c
france_travail,France Travail - Alfortville,2.4228128,48.8068845,7 rue Roger-Mordrel 94140 Alfortville,Mo-Th 09:00-13:15; Fr 09:00-12:00,94002,f2c8baeb-fce8-48f4-b45f-961e238de822
france_travail,France Travail - Toulouse - Occitane,1.448902,43.603579,6 place Occitane 31000 Toulouse,Mo-Fr 08:45-12:45,31555,f2ea4e71-5c31-40e8-afb3-21de7d44a036
france_travail,France Travail - Aubigny-sur-Nère,2.4372939,47.488068,27 avenue de la Gare 18700 Aubigny-sur-Nère,Mo-Fr 08:45-12:45,18015,f2ff5466-ecc4-43cc-afc7-39779f5ae88d
france_travail,France Travail - Châteaurenard,4.8648675,43.883828,638 avenue de la Libération 13160 Châteaurenard,Mo-Fr 08:30-12:30,13027,f35e7cac-5689-4770-a8ac-b7ecc257c495
france_travail,France Travail - Liévin,2.8009502,50.416887,207 rue Silas-Goulet 62800 Liévin,Mo-Th 08:30-12:45; Fr 09:00-12:00,62510,f3865712-4660-4287-9e92-029e55faec28
france_travail,France Travail - Louhans,5.2262539,46.6271605,4 promenade des Cordeliers 71500 Louhans Cedex,Mo-Fr 08:30-12:30,71263,f3a625fa-c370-4494-a189-b8404c7d1829
france_travail,France Travail - La Teste,-1.1416717,44.6172567,55 impasse du Bosquet 33260 La Teste-de-Buch,Mo-Fr 08:30-12:30,33529,f420da85-c271-42c7-b308-bf14e9db9210
france_travail,France Travail - Gien,2.6129296,47.6952065,62 route d'Orléans 45500 Gien Cedex,Mo-Fr 08:45-12:45,45155,f4a91a68-cc7f-42fa-8500-c8ac9de8928a
france_travail,France Travail - Dammarie-les-Lys,2.63432579,48.5195705,187 rue Gaston-Pluchon 77190 Dammarie-les-Lys,Mo-Th 09:00-13:15; Fr 09:00-12:00,77152,f4c0ccb4-cdcd-4fbf-a6d2-8d2fb13ce70d
france_travail,France Travail - Chelles,2.5894799,48.8731377,3 rue du Révérend-Père-Chaillet 77500 Chelles,Mo-Th 09:00-13:15; Fr 09:00-12:00,77108,f4c6a50a-01ee-46b7-ae7e-fb00091781df
france_travail,France Travail - Dax,-1.055546,43.718289,8 rue des Frênes 40100 Dax,Mo-Fr 08:30-12:30,40088,f4cd2558-dba0-4250-9dc0-b36ca9c64e1a
france_travail,France Travail - Annecy,6.12354149,45.9236191,127 avenue de Genève 74000 Annecy Cedex,Mo-Fr 08:30-12:30,74010,f4cd748b-a991-4dd6-ba2f-865b07f75421
france_travail,France Travail - Mamers,0.3709633,48.3469673,102 bis rue Ledru-Rollin 72600 Mamers,Mo-Fr 08:30-12:30,72180,f5503b45-884e-4fc7-93df-bea0c0f77f8d
france_travail,France Travail - Nantes - Chantenay,-1.5895174,47.1985254,5 chemin du Pressoir-Chenaie 44000 Nantes,Mo-Fr 08:30-12:30,44109,f575cea4-08c0-41b0-83f6-42973d9438f1
france_travail,France Travail - Saint-Denis,2.3544772,48.9444818,5 avenue du Colonel-Fabien 93200 Saint-Denis,Mo-Th 09:00-13:15; Fr 09:00-12:00,93066,f581bc90-7498-4ac5-b611-cf23145be325
france_travail,France Travail - Thouars,-0.2089816,46.9798222,8 rue Gambetta 79100 Thouars,Mo-Fr 08:30-12:30,79329,f5843473-0f5d-48a5-a033-5e8f48adb0af
france_travail,France Travail - Saint-Avold,6.70904480000002,49.1035706,2 rue du Général-de-Gaulle 57500 Saint-Avold Cedex,Mo-Fr 08:30-12:30,57606,f5be500e-e795-4606-87b8-bf11d12b6df1
france_travail,France Travail - Grenoble - Europole,5.71196169,45.1917303,1 rue d'Arménie 38000 Grenoble Cedex 1,Mo-Fr 08:30-12:30,38185,f66817f1-6e1b-4e09-b774-a28dbdd150ca
france_travail,France Travail - Asnières-sur-Seine,2.2835459,48.9181753,61 avenue Gabriel-Péri 92600 Asnières-sur-Seine,Mo-Th 09:00-13:15; Fr 09:00-12:00,92004,f6a340c6-3563-4caf-bcd0-93519d5ac973
france_travail,France Travail - Nogent-sur-Marne,2.4931386,48.8390529,3-5 rue Jean-Monnet 94130 Nogent-sur-Marne,Mo-Th 09:00-13:15; Fr 09:00-12:00,94052,f6a5ed9b-7d37-4520-9ad4-7f448e6443d6
france_travail,France Travail - Armentières,2.8684074,50.6894256,21 avenue de l'Europe 59280 Armentières,Mo-Th 08:30-12:45; Fr 09:00-12:00,59017,f6fb5aef-00c4-4b37-8615-03871bf08d9b
france_travail,France Travail - Nantes - Nord,-1.5691641,47.2633922,50 boulevard Albert-Einstein 44000 Nantes Cedex 3,Mo-Fr 08:30-12:30,44109,f7a25327-a63a-4766-adfd-4e1466984261
france_travail,France Travail - Gaillac,1.91440839999996,43.9036388,510 avenue François-Mitterrand 81600 Gaillac,Mo-Fr 08:30-12:30,81099,f7d067e3-5e03-4e8e-92bc-3bb6d8754eae
france_travail,France Travail - Saint-Chamond,4.5119224,45.4733346,1 bis rue du Port-Sec 42400 Saint-Chamond Cedex,Mo-Fr 08:30-12:30,42207,f94b31db-d988-4ad6-add3-aed1938426a8
france_travail,France Travail - Saint-Jean-d'Angély,-0.517763000000059,45.944823,1 rue Le-Corbusier 17400 Saint-Jean-d'Angély Cedex,Mo-Fr 08:30-12:30,17347,f97e43f8-e72b-4030-b8f7-ced30cb641ac
france_travail,France Travail - Le Cannet,7.01902,43.576551,13 chemin de l'Industrie 06110 Le Cannet,Mo-Fr 08:30-12:30,06030,f9a57e01-3624-4fb6-8993-dcbe59e4f14a
france_travail,France Travail - Marseille - La Valentine,5.464362,43.289705,10 route de la Valentine 13011 Marseille Cedex 11,Mo-Fr 08:30-12:30,13212,f9f3793a-00ac-4194-bbee-94bb9a3a86b1
france_travail,France Travail - Compiègne - Margny,2.82419959,49.4237487,25 rue Pierre-et-Marie-Curie 60280 Margny-lès-Compiègne,Mo-Fr 08:30-12:30,60382,fa13107f-a561-4f91-b456-a9f0dac909c8
france_travail,France Travail - Clisson,-1.2778665,47.0885971,7 allée du Chantre 44190 Clisson,Mo-Fr 08:30-12:30,44043,fa14ba9f-c33b-405a-b633-6a27af2c4b75
france_travail,France Travail - Stains,2.39122059,48.9523834,35 rue du Moulin-Neuf 93240 Stains,Mo-Th 09:00-13:15; Fr 09:00-12:00,93072,fb027050-c8d5-4bd4-9998-4b41424ea9fe
france_travail,France Travail - Narbonne,2.9740975,43.1530044,100 rue Antoine-Becquerel 11100 Narbonne,Mo-Fr 08:30-12:30,11262,fb2271c5-4432-4140-bc57-aad48cc25ed0
france_travail,France Travail - Arc-lès-Gray,5.58775460000004,47.4532341,1 avenue des Parcs 70100 Arc-lès-Gray,Mo-Fr 08:30-12:30,70026,fb264740-cdfb-4ff7-9ed2-b65ea04beea0
france_travail,France Travail - Livry-Gargan,2.5480139,48.9276607,33 boulevard Robert-Schuman 93190 Livry-Gargan Cedex,Mo-Th 09:00-13:15; Fr 09:00-12:00,93046,fbaa6698-7135-4aea-b33b-28b53532b939
france_travail,France Travail - Seclin,3.041132,50.5506543,Avenue de la République 59113 Seclin,Mo-Th 08:30-12:45; Fr 09:00-12:00,59560,fc091138-1d59-4604-b398-6f6146d1c22c
france_travail,France Travail - Metz - Sébastopol,6.1726955,49.1161273,5 rue des Dinandiers 57000 Metz Cedex 3,Mo-Fr 08:30-12:30,57463,fd280712-b359-4733-94b4-9203d9d472ec
france_travail,France Travail - Saint-Paul-lès-Dax,-1.0726138,43.724329,835 rue de l'Europe 40990 Saint-Paul-lès-Dax,Mo-Fr 08:30-12:30,40279,fd38dcd8-33b9-433c-b1a9-111318fb228e
france_travail,France Travail - Torcy,2.65345839,48.8407147,11 promenade du Belvédère 77200 Torcy,Mo-Th 09:00-13:15; Fr 09:00-12:00,77468,fd392b85-7b4a-4b19-b5c0-17048f0d5a4c
france_travail,France Travail - Limoux,2.218142,43.053289,3 impasse Didier-Daurat 11300 Limoux,Mo-Fr 08:30-12:30,11206,fdb4c049-0bee-42fd-bf9d-f8729f30d1be
france_travail,France Travail - Niort - Garenne,-0.4848245,46.3061134,36 rue Thomas-Portau 79000 Niort Cedex,Mo-Fr 08:30-12:30,79191,fdc1f5ee-b4ff-453f-bb1a-69401594537e
france_travail,France Travail - Nancy - Majorelle,6.1645983,48.6873288,22 rue François-de-Neufchâteau 54000 Nancy,Mo-Fr 08:30-12:30,54395,fe4655e7-fa1f-4434-b2c0-51016fd5b355
france_travail,France Travail - Loudéac,-2.7520921,48.1808306,1 rue de la Chesnaie 22600 Loudéac Cedex,Mo-Fr 08:30-12:30,22136,fe642acf-a19d-4f25-a63b-dea9adfa5636
france_travail,France Travail - Nîmes - Sept-collines,4.3703032,43.8227177,165 rue Philippe-Maupas 30000 Nîmes,Mo-Fr 08:30-12:30,30189,fe8e8982-6840-4a7c-b3cd-520fa0ce1f78
france_travail,France Travail - La Roche - Nord,-1.424997,46.6871313,19 rue Benjamin-Franklin 85000 La Roche-sur-Yon,Mo-Fr 08:30-12:30,85191,ff4f2799-ee7d-4d69-aba8-ca688e7d366c
france_travail,France Travail - Civray,0.2874197,46.1489945,13 rue Norbert-Portejoie 86400 Civray,Mo-We 08:30-12:30; Fr 08:30-12:30,86078,ff5b0a68-1e61-443f-bad5-50186be5378b
france_travail,France Travail - Saint-Leu - Réunion,55.290325,-21.173677,1 rue Galabé 97436 Saint-Leu,Mo-Fr 07:30-11:30; We 07:30-13:00; Th-Fr 07:30-11:30,97413,ff8f17a5-da5c-4e0c-8e71-a91a040ab7ef
france_travail,France Travail - La Rochelle - Villeneuve,-1.1166697,46.1508854,45 avenue Billaud-Varenne 17000 La Rochelle Cedex 1,Mo-Fr 08:30-12:30,17300,ff97726e-9133-4c2c-ba33-a5607cc434bb
